###################################
#  large TAF from CYOD
###################################
202406010240 TAF CYOD 010240Z 0103/0124 23010KT P6SM FEW030 SCT060 BKN120 FM010900
                       30010KT P6SM FEW030
                      TEMPO 0109/0116 BKN030
                      BECMG 0114/0116 30015G25KT FM011800 30015G25KT
                       P6SM SCT050
                      BECMG 0122/0124 34010KT RMK NXT FCST BY 010600Z=
202406010540 TAF CYOD 010540Z 0106/0206 23010KT P6SM FEW090 BKN110 FM010900
                       30010KT P6SM FEW030
                      TEMPO 0109/0116 BKN030
                      BECMG 0114/0116 30015G25KT FM011800 30015G25KT
                       P6SM SCT050
                      BECMG 0122/0124 34010KT FM020300 VRB03KT
                       P6SM SKC RMK NXT FCST BY 011200Z=
202406011140 TAF CYOD 011140Z 0112/0212 25010KT P6SM FEW100
                      BECMG 0114/0116 30015G25KT FM011800 30015G25KT
                       P6SM SCT050
                      BECMG 0122/0124 34010KT FM020300 VRB03KT
                       P6SM SKC RMK NXT FCST BY 011500Z=
202406011440 TAF CYOD 011440Z 0115/0212 28012KT P6SM FEW060
                      BECMG 0115/0116 30015G25KT FM011800 30015G25KT
                       P6SM SCT050
                      BECMG 0122/0124 34010KT FM020300 VRB03KT
                       P6SM SKC RMK NXT FCST BY 011800Z=
202406011740 TAF CYOD 011740Z 0118/0218 30015G25KT P6SM FEW060
                      BECMG 0122/0124 34010KT FM020300 VRB03KT
                       P6SM SKC FM021200 10005KT P6SM FEW060 SCT220
                       RMK NXT FCST BY 012100Z=
202406012040 TAF CYOD 012040Z 0121/0218 28012G22KT P6SM FEW070
                      BECMG 0122/0124 32010KT FM020300 VRB03KT
                       P6SM SKC FM021200 10005KT P6SM FEW060 SCT220
                       RMK NXT FCST BY 020000Z=
202406012340 TAF CYOD 012340Z 0200/0224 30012KT P6SM SCT080
                      BECMG 0201/0203 VRB03KT FM020300 VRB03KT
                       P6SM SKC FM021200 10005KT P6SM FEW060 SCT220
                       BECMG 0216/0218 SCT060 RMK NXT FCST BY 020300Z=
202406020240 TAF CYOD 020240Z 0203/0224 30012KT P6SM SCT080
                      BECMG 0204/0206 VRB03KT FM021200 10005KT
                       P6SM FEW060 SCT220
                      BECMG 0216/0218 SCT060 RMK NXT FCST BY 020600Z=
202406020540 TAF CYOD 020540Z 0206/0306 VRB03KT P6SM FEW250 FM021200 10005KT
                       P6SM FEW060 SCT220
                      BECMG 0216/0218 SCT060 FM022300 09008KT P6SM
                       FEW080 RMK NXT FCST BY 021200Z=
202406021140 TAF CYOD 021140Z 0212/0312 VRB03KT P6SM FEW230
                      PROB30 0212/0214 1SM BR
                      BECMG 0216/0218 SCT060 FM022300 09008KT P6SM
                       FEW080 FM030800 10012KT P6SM BKN060 OVC240
                       RMK NXT FCST BY 021500Z=
202406021440 TAF CYOD 021440Z 0215/0312 VRB03KT P6SM FEW030 SCT100
                      BECMG 0216/0218 SCT060 FM022300 09008KT P6SM
                       FEW080 FM030800 10012KT P6SM BKN060 OVC240
                       RMK NXT FCST BY 021800Z=
202406021740 TAF CYOD 021740Z 0218/0318 VRB03KT P6SM FEW040 FM022300 09008KT
                       P6SM FEW080 FM030800 10012KT P6SM BKN060
                       OVC240 FM031600 11012G22KT P6SM -SHRA SCT030
                       BKN060 OVC240 RMK NXT FCST BY 022100Z=
202406022040 TAF CYOD 022040Z 0221/0318 04005KT P6SM SCT060 FM022300 09008KT
                       P6SM FEW080 FM030800 10012KT P6SM BKN060
                       OVC240 FM031600 11012G22KT P6SM -SHRA SCT030
                       BKN060 OVC240 RMK NXT FCST BY 030000Z=
202406022340 TAF CYOD 022340Z 0300/0324 08008KT P6SM FEW060 SCT110 FM030800
                       10012KT P6SM SCT140 OVC250
                      BECMG 0310/0312 10012G22KT BKN070 OVC140
                       FM031600 11012G22KT P6SM -SHRA SCT030 BKN060
                       OVC240 FM032100 10015G25KT P6SM -RA SCT015
                       OVC040
                      TEMPO 0321/0324 5SM -SHRA BR BKN015 OVC040
                       RMK NXT FCST BY 030300Z=
202406030240 TAF CYOD 030240Z 0303/0324 09008KT P6SM FEW070 FM030800 10012KT
                       P6SM SCT140 OVC250
                      BECMG 0310/0312 10012G22KT BKN070 OVC140
                       FM031600 11012G22KT P6SM -SHRA SCT030 BKN060
                       OVC240 FM032100 10015G25KT P6SM -RA SCT015
                       OVC040
                      TEMPO 0321/0324 5SM -SHRA BR BKN015 OVC040
                       RMK NXT FCST BY 030600Z=
202406030540 TAF CYOD 030540Z 0306/0406 10008KT P6SM FEW120 FM030800 10012KT
                       P6SM SCT140 OVC250
                      BECMG 0311/0313 BKN070 OVC140 FM031600 11012G22KT
                       P6SM SCT030 BKN060 OVC140
                      TEMPO 0316/0322 P6SM -SHRA BKN030 OVC060
                       FM032200 09015G25KT P6SM -RA SCT015 OVC030
                       TEMPO 0322/0406 5SM -SHRA BR BKN015 OVC030
                       RMK NXT FCST BY 031200Z=
202406031140 TAF CYOD 031140Z 0312/0412 09012KT P6SM BKN090 OVC150
                      BECMG 0313/0315 BKN060 OVC140 FM031600 11012G22KT
                       P6SM SCT030 BKN060 OVC140
                      TEMPO 0316/0322 P6SM -SHRA BKN030 OVC060
                       FM032200 09015G25KT P6SM -RA SCT015 OVC030
                       TEMPO 0322/0407 5SM -SHRA BR BKN015 OVC030
                       FM040700 06012G22KT P6SM -RA SCT008 OVC015
                       TEMPO 0407/0412 3SM -RA -DZ BR OVC008 RMK
                       NXT FCST BY 031500Z=
202406031440 TAF CYOD 031440Z 0315/0412 10010KT P6SM BKN090 OVC150 FM031600
                       11012G22KT P6SM SCT030 BKN060 OVC140
                      TEMPO 0316/0322 P6SM -SHRA BKN030 OVC060
                       FM032200 09015G25KT P6SM -RA SCT015 OVC030
                       TEMPO 0322/0407 5SM -SHRA BR BKN015 OVC030
                       FM040700 06012G22KT P6SM -RA SCT008 OVC015
                       TEMPO 0407/0412 3SM -RA -DZ BR OVC008 RMK
                       NXT FCST BY 031800Z=
202406031740 TAF CYOD 031740Z 0318/0418 09015KT P6SM SCT060 BKN110 OVC260
                      TEMPO 0318/0321 P6SM -SHRA FEW030 BKN060
                       OVC110 FM032100 09015G25KT P6SM -RA SCT015
                       OVC030
                      TEMPO 0321/0407 5SM -SHRA BR BKN015 OVC030
                       FM040700 06012G22KT P6SM -RA SCT008 OVC015
                       TEMPO 0407/0418 3SM -RA -DZ BR OVC008
                      BECMG 0411/0413 03008KT RMK NXT FCST BY 032100Z=
202406032040 TAF CYOD 032040Z 0321/0418 08012KT P6SM -RA SCT040 OVC070 FM032200
                       09015G25KT P6SM -RA SCT015 OVC030
                      TEMPO 0322/0407 5SM -SHRA BR BKN015 OVC030
                       FM040700 06012G22KT P6SM -RA SCT008 OVC015
                       TEMPO 0407/0418 3SM -RA -DZ BR OVC008
                      BECMG 0411/0413 03008KT RMK NXT FCST BY 040000Z=
202406032340 TAF CYOD 032340Z 0400/0424 06012G22KT P6SM -RA SCT015 OVC050
                      TEMPO 0400/0407 5SM -SHRA BR BKN020 OVC050
                       FM040700 06012G22KT P6SM -RA SCT008 OVC015
                       TEMPO 0407/0418 3SM -RA -DZ BR OVC008
                      BECMG 0411/0413 03008KT FM041800 02010KT
                       P6SM -RA FEW008 OVC020
                      TEMPO 0418/0424 4SM -RA BR SCT008 OVC012
                       RMK NXT FCST BY 040300Z=
202406040240 TAF CYOD 040240Z 0403/0424 07012G22KT P6SM -RA SCT020 OVC050
                      TEMPO 0403/0407 5SM -SHRA BR BKN020 OVC050
                       FM040700 06012G22KT P6SM -RA SCT008 OVC015
                       TEMPO 0407/0418 3SM -RA -DZ BR OVC008
                      BECMG 0411/0413 03008KT FM041800 02010KT
                       P6SM -RA FEW008 OVC020
                      TEMPO 0418/0424 4SM -RA BR SCT008 OVC012
                       RMK NXT FCST BY 040600Z=
202406040502 TAF AMD CYOD 040502Z 0405/0424 05012KT P6SM -RA SCT020 OVC040
                      TEMPO 0405/0407 5SM -SHRA BR BKN015 OVC040
                       FM040700 06012KT P6SM -RA SCT008 OVC015
                       TEMPO 0407/0418 3SM -RA -DZ BR OVC008
                      BECMG 0411/0413 03008KT FM041800 02010KT
                       P6SM -RA FEW008 OVC020
                      TEMPO 0418/0424 4SM -RA BR SCT008 OVC012
                       RMK NXT FCST BY 040600Z=
202406040540 TAF CYOD 040540Z 0406/0506 05012KT P6SM -RA SCT015 OVC040
                      TEMPO 0406/0407 5SM -SHRA BR BKN015 OVC040
                       FM040700 06012KT P6SM -RA SCT008 OVC015
                       TEMPO 0407/0418 3SM -RA -DZ BR OVC008
                      BECMG 0411/0413 03008KT FM041800 02010KT
                       P6SM -RA FEW008 OVC020
                      TEMPO 0418/0424 4SM -RA BR SCT008 OVC012
                       FM050000 01005KT 4SM -RA BR BKN008 OVC020
                       RMK NXT FCST BY 041200Z=
202406041140 TAF CYOD 041140Z 0412/0512 02010KT P6SM -RA SCT008 OVC015
                      TEMPO 0412/0418 3SM -SHRA BR OVC008 FM041800
                       02008KT P6SM -RA FEW008 SCT012 OVC020
                      TEMPO 0418/0424 4SM -SHRA BR SCT008 OVC012
                       FM050000 01005KT 6SM -RA BR BKN008 OVC020
                       BECMG 0503/0505 32008KT FM050700 30008KT
                       P6SM FEW008 BKN012 OVC030
                      BECMG 0507/0509 29012G22KT RMK NXT FCST BY
                       041500Z=
202406041350 TAF AMD CYOD 041350Z 0413/0512 01010KT 5SM -RA BR SCT005 OVC010
                       TEMPO 0413/0418 1SM -RA BR BKN005 OVC010
                       FM041800 02008KT 6SM -RA BR SCT008 OVC012
                       TEMPO 0418/0424 3SM -SHRA BR BKN008 OVC012
                       FM050000 01005KT 6SM -RA BR BKN008 OVC020
                       BECMG 0503/0505 32008KT FM050700 30008KT
                       P6SM FEW008 BKN012 OVC030
                      BECMG 0507/0509 29012G22KT RMK NXT FCST BY
                       041500Z=
202406041441 TAF CYOD 041441Z 0415/0512 36008KT 6SM -RA BR SCT006 OVC015
                      TEMPO 0415/0418 2SM -RA BR BKN006 OVC015
                       FM041800 36008KT P6SM -RA FEW008 SCT012
                       OVC020
                      TEMPO 0418/0424 3SM -SHRA BR SCT008 OVC012
                       FM050000 01005KT 6SM -RA BR BKN008 OVC020
                       BECMG 0503/0505 32008KT FM050700 30008KT
                       P6SM FEW008 BKN012 OVC030
                      BECMG 0507/0509 29012G22KT RMK NXT FCST BY
                       041800Z=
202406041740 TAF CYOD 041740Z 0418/0518 01008KT 6SM -RA BR SCT006 OVC015
                      TEMPO 0418/0502 2SM -RA BR BKN006 OVC015
                       FM050200 34008KT 6SM -RA BR BKN008 OVC020
                       TEMPO 0502/0507 P6SM NSW SCT008 OVC020 FM050700
                       30008KT P6SM -RA FEW008 BKN012 OVC030
                      BECMG 0509/0511 29015G25KT RMK NXT FCST BY
                       042100Z=
202406042040 TAF CYOD 042040Z 0421/0518 01008KT 6SM -RA BR SCT006 OVC015
                      TEMPO 0421/0502 3SM -RA BR BKN006 OVC015
                       FM050200 34008KT 6SM -RA BR BKN008 OVC020
                       TEMPO 0502/0507 P6SM NSW SCT008 OVC020 FM050700
                       30008KT P6SM -RA FEW008 BKN012 OVC030
                      BECMG 0509/0511 29015G25KT RMK NXT FCST BY
                       050000Z=
202406042117 TAF AMD CYOD 042117Z 0421/0518 01008KT 6SM -RA BR SCT005 OVC015
                       TEMPO 0421/0502 3SM -RA BR BKN005 OVC015
                       FM050200 34008KT 6SM -RA BR BKN008 OVC020
                       TEMPO 0502/0507 P6SM NSW SCT008 OVC020 FM050700
                       30008KT P6SM -RA FEW008 BKN012 OVC030
                      BECMG 0509/0511 29015G25KT RMK NXT FCST BY
                       050000Z=
202406042300 TAF AMD CYOD 050210Z 0502/0524 27008KT 6SM -RA BR BKN008 OVC020
                       TEMPO 0502/0507 P6SM NSW SCT008 OVC030 FM050700
                       30008KT P6SM -RA FEW008 BKN012 OVC030
                      BECMG 0509/0511 29015G25KT FM051400 30015G25KT
                       P6SM -RA BKN015 OVC030 FM052000 30015G25KT
                       P6SM SCT015 BKN030 RMK NXT FCST BY 050300Z=
202406042302 TAF AMD CYOD 042302Z 0423/0518 01008KT P6SM -RA SCT005 OVC030
                      TEMPO 0423/0502 3SM -RA BR BKN005 OVC015
                       FM050200 34008KT 6SM -RA BR BKN008 OVC020
                       TEMPO 0502/0507 P6SM NSW SCT008 OVC020 FM050700
                       30008KT P6SM -RA FEW008 BKN012 OVC030
                      BECMG 0509/0511 29015G25KT RMK NXT FCST BY
                       050000Z=
202406042340 TAF CYOD 042340Z 0500/0524 28005KT P6SM -RA SCT005 OVC030
                      TEMPO 0500/0502 3SM -RA BR BKN005 OVC015
                       FM050200 34008KT 6SM -RA BR BKN008 OVC020
                       TEMPO 0502/0507 P6SM NSW SCT008 OVC020 FM050700
                       30008KT P6SM -RA FEW008 BKN012 OVC030
                      BECMG 0509/0511 29015G25KT FM051400 30015G25KT
                       P6SM -RA BKN015 OVC030 FM052000 30015G25KT
                       P6SM SCT015 BKN030 RMK NXT FCST BY 050300Z=
202406050210 TAF AMD CYOD 050210Z 0502/0524 27008KT 6SM -RA BR BKN008 OVC020
                       TEMPO 0502/0507 P6SM NSW SCT008 OVC030 FM050700
                       30008KT P6SM -RA FEW008 BKN012 OVC030
                      BECMG 0509/0511 29015G25KT FM051400 30015G25KT
                       P6SM -RA BKN015 OVC030 FM052000 30015G25KT
                       P6SM SCT015 BKN030 RMK NXT FCST BY 050300Z=
202406050240 TAF CYOD 050240Z 0503/0524 27008KT 6SM -RA BR BKN008 OVC020
                      TEMPO 0503/0507 P6SM NSW SCT008 OVC030 FM050700
                       30008KT P6SM -RA FEW008 BKN012 OVC030
                      BECMG 0509/0511 29015G25KT FM051400 30015G25KT
                       P6SM -RA BKN015 OVC030 FM052000 30015G25KT
                       P6SM SCT015 BKN030 RMK NXT FCST BY 050600Z=
202406050540 TAF CYOD 050540Z 0506/0606 27008KT 5SM -RA BR BKN012 OVC040
                      TEMPO 0506/0514 P6SM NSW SCT012 OVC040
                      PROB30 0506/0514 OVC008 FM051400 30015G25KT
                       P6SM -RA BKN015 OVC030 FM052000 30015G25KT
                       P6SM SCT015 BKN030 RMK NXT FCST BY 051200Z=
202406050801 TAF AMD CYOD 050801Z 0508/0606 27010KT 2SM -RA BR OVC008
                      TEMPO 0508/0514 P6SM NSW SCT008 OVC015 FM051400
                       30015G25KT P6SM -RA BKN015 OVC030 FM052000
                       30015G25KT P6SM SCT015 BKN030 RMK NXT FCST
                       BY 051200Z=
202406051004 TAF AMD CYOD 051004Z 0510/0606 29010KT 2SM -RA BR OVC005
                      TEMPO 0510/0514 P6SM NSW SCT005 OVC015 FM051400
                       30015G25KT P6SM -RA BKN015 OVC030 FM052000
                       30015G25KT P6SM SCT015 BKN030 RMK NXT FCST
                       BY 051200Z=
202406051140 TAF CYOD 051140Z 0512/0612 29010KT 2SM -RA BR OVC005
                      TEMPO 0512/0514 P6SM NSW SCT005 OVC012 FM051400
                       30015G25KT 5SM -RA BR BKN012 OVC030
                      TEMPO 0514/0520 P6SM -RA SCT012 OVC030 FM052000
                       30015G25KT P6SM SCT015 BKN030
                      TEMPO 0520/0607 P6SM -SHRA BKN015 OVC030
                       BECMG 0603/0604 32008KT FM060700 30005KT
                       6SM BR SCT004
                      PROB30 0607/0611 1SM BR OVC004 RMK NXT FCST
                       BY 051500Z=
202406051240 TAF AMD CYOD 051240Z 0512/0612 29012KT 3SM -RA BR OVC008
                      TEMPO 0512/0514 P6SM NSW SCT008 OVC015 FM051400
                       30015G25KT 5SM -RA BR BKN012 OVC030
                      TEMPO 0514/0520 P6SM -RA SCT012 OVC030 FM052000
                       30015G25KT P6SM SCT015 BKN030
                      TEMPO 0520/0607 P6SM -SHRA BKN015 OVC030
                       BECMG 0603/0604 32008KT FM060700 30005KT
                       6SM BR SCT004
                      PROB30 0607/0611 1SM BR OVC004 RMK NXT FCST
                       BY 051500Z=
202406051405 TAF AMD CYOD 051405Z 0514/0612 29012KT 5SM -RA BR BKN009 OVC015
                       TEMPO 0514/0517 P6SM -RA SCT009 OVC015
                      BECMG 0515/0517 30015G25KT FM051700 30015G25KT
                       5SM -RA BR BKN012 OVC025
                      TEMPO 0517/0520 P6SM -RA SCT012 BKN025 FM052000
                       30015G25KT P6SM SCT015 BKN030
                      TEMPO 0520/0607 P6SM -SHRA BKN015 OVC030
                       BECMG 0603/0604 32008KT FM060700 30005KT
                       6SM BR SCT004
                      PROB30 0607/0611 1SM BR OVC004 RMK NXT FCST
                       BY 051500Z=
202406051440 TAF CYOD 051440Z 0515/0612 29012KT 5SM -RA BR BKN009 OVC015
                      TEMPO 0515/0517 P6SM -RA SCT009 OVC015
                      BECMG 0515/0517 30015G25KT FM051700 30015G25KT
                       5SM -RA BR BKN012 OVC025
                      TEMPO 0517/0520 P6SM -RA SCT012 BKN025 FM052000
                       30015G25KT P6SM SCT015 BKN030
                      TEMPO 0520/0607 P6SM -SHRA BKN015 OVC030
                       BECMG 0603/0604 32008KT FM060700 30005KT
                       6SM BR SCT004
                      PROB30 0607/0611 1SM BR OVC004 RMK NXT FCST
                       BY 051800Z=
202406051740 TAF CYOD 051740Z 0518/0618 30015G25KT 5SM -RA BR BKN012 OVC025
                       TEMPO 0518/0520 P6SM -RA SCT012 BKN025 FM052000
                       30015G25KT P6SM SCT015 BKN030
                      TEMPO 0520/0607 P6SM -SHRA BKN015 OVC030
                       BECMG 0603/0604 32008KT FM060700 30005KT
                       6SM BR SCT004 BKN040
                      PROB30 0607/0611 1SM BR OVC004 FM061200 29010KT
                       P6SM FEW004 SCT060
                      BECMG 0613/0615 29012G22KT RMK NXT FCST BY
                       052100Z=
202406052004 TAF AMD CYOD 052004Z 0520/0618 30015G25KT P6SM SCT012 BKN025
                      TEMPO 0520/0607 6SM -SHRA BR BKN012 OVC025
                       BECMG 0603/0604 32008KT FM060700 30005KT
                       6SM BR SCT004 BKN040
                      PROB30 0607/0611 1SM BR OVC004 FM061200 29010KT
                       P6SM FEW004 SCT060
                      BECMG 0613/0615 29012G22KT RMK NXT FCST BY
                       052100Z=
202406052040 TAF CYOD 052040Z 0521/0618 30015G25KT P6SM SCT012 BKN025
                      TEMPO 0521/0607 6SM -SHRA BR BKN012 OVC025
                       BECMG 0603/0604 32008KT FM060700 30005KT
                       6SM BR SCT004 BKN040
                      PROB30 0607/0611 1SM BR OVC004 FM061200 29010KT
                       P6SM FEW004 SCT060
                      BECMG 0613/0615 29012G22KT RMK NXT FCST BY
                       060000Z=
202406052340 TAF CYOD 052340Z 0600/0624 31015G25KT P6SM SCT015 BKN025 OVC050
                       TEMPO 0600/0605 6SM -SHRA BR BKN015 OVC025
                       BECMG 0603/0605 32008KT FM060500 32008KT
                       P6SM BKN040 OVC060
                      TEMPO 0605/0607 P6SM -SHRA FM060700 30005KT
                       P6SM SCT004 BKN040
                      TEMPO 0607/0612 6SM BR
                      PROB30 0607/0611 1SM BR OVC004 FM061200 29010KT
                       P6SM FEW004 SCT060
                      BECMG 0613/0615 29012G22KT FEW060 FM062000
                       29018G28KT P6SM BKN060 RMK NXT FCST BY 060300Z=
202406060240 TAF CYOD 060240Z 0603/0624 32012KT P6SM FEW040 SCT090 BKN160
                      TEMPO 0603/0607 P6SM -SHRA BKN040 OVC090
                       BECMG 0603/0605 32008KT FM060700 30005KT
                       P6SM SCT004 BKN040
                      TEMPO 0607/0612 6SM BR
                      PROB30 0607/0611 1SM BR OVC004 FM061200 29010KT
                       P6SM FEW004 SCT060
                      BECMG 0613/0615 29012G22KT FEW060 FM062000
                       29018G28KT P6SM BKN060 RMK NXT FCST BY 060600Z=
202406060540 TAF CYOD 060540Z 0606/0706 29008KT P6SM FEW040 BKN100
                      PROB30 0607/0611 1SM BR OVC004 FM061200 29010KT
                       P6SM FEW004 SCT060
                      BECMG 0613/0615 29015G25KT FEW060 FM062000
                       29018G28KT P6SM BKN060 FM070200 31012KT
                       P6SM FEW060 RMK NXT FCST BY 061200Z=
202406061140 TAF CYOD 061140Z 0612/0712 25005KT P6SM SCT090
                      BECMG 0613/0615 29015G25KT FEW060 FM062000
                       29018G28KT P6SM SCT060
                      TEMPO 0620/0702 BKN060 FM070200 31012KT P6SM
                       FEW060
                      BECMG 0706/0708 28005KT RMK NXT FCST BY 061500Z=
202406061440 TAF CYOD 061440Z 0615/0712 28012KT P6SM SCT110
                      BECMG 0615/0617 29015G25KT FEW060 FM062000
                       29018G28KT P6SM SCT060
                      TEMPO 0620/0702 BKN060 FM070200 31012KT P6SM
                       FEW060
                      BECMG 0706/0708 28005KT RMK NXT FCST BY 061800Z=
202406061740 TAF CYOD 061740Z 0618/0718 29018G28KT P6SM FEW060 FEW110 FM062000
                       29018G28KT P6SM SCT060
                      TEMPO 0620/0702 BKN060 FM070200 31012KT P6SM
                       FEW060
                      BECMG 0706/0708 28008KT FM071100 28012KT
                       P6SM BKN050
                      BECMG 0712/0714 30018G32KT RMK NXT FCST BY
                       062100Z=
202406062040 TAF CYOD 062040Z 0621/0718 29020G30KT P6SM SCT070
                      TEMPO 0621/0702 BKN070
                      BECMG 0623/0701 30015G25KT FM070200 31012KT
                       P6SM FEW060
                      BECMG 0706/0708 28008KT FM071100 28012KT
                       P6SM BKN050
                      BECMG 0712/0714 30018G32KT RMK NXT FCST BY
                       070000Z=
202406062340 TAF CYOD 062340Z 0700/0724 29015G30KT P6SM FEW040 BKN080
                      TEMPO 0700/0704 P6SM -SHRA BKN040 BKN080
                       BECMG 0700/0702 29012G22KT FM070400 29012G22KT
                       P6SM SCT040
                      TEMPO 0704/0707 BKN040
                      BECMG 0704/0706 28008KT FM071100 28012KT
                       P6SM BKN050 OVC080
                      BECMG 0712/0714 30018G32KT FM071800 31018G32KT
                       P6SM -RA OVC040 FM072100 32015G30KT 6SM
                       -SHRA BR BKN020 OVC030 RMK NXT FCST BY 070300Z=
202406070240 TAF CYOD 070240Z 0703/0724 30018G28KT P6SM SCT080
                      TEMPO 0703/0704 P6SM -SHRA BKN080 FM070400
                       29012G22KT P6SM SCT040
                      TEMPO 0704/0707 BKN040
                      BECMG 0704/0706 28008KT FM071100 28012KT
                       P6SM BKN050 OVC080
                      BECMG 0712/0714 30018G32KT FM071800 31018G32KT
                       P6SM -RA OVC040 FM072100 32015G30KT 6SM
                       -SHRA BR BKN020 OVC030 RMK NXT FCST BY 070600Z=
202406070540 TAF CYOD 070540Z 0706/0806 27005KT P6SM SCT130
                      BECMG 0708/0710 BKN050 BKN130 FM071100 28012KT
                       P6SM BKN050 OVC080
                      BECMG 0712/0714 30018G32KT FM071600 31018G32KT
                       P6SM -RA OVC040 FM072100 32015G25KT 6SM
                       -SHRA BR BKN020 OVC030 FM080000 34012KT
                       6SM -SHRA BR FEW008 BKN012 OVC025 RMK NXT
                       FCST BY 071200Z=
202406070703 TAF AMD CYOD 070703Z 0707/0806 26008KT P6SM BKN050
                      TEMPO 0707/0709 P6SM -SHRA FM071100 28012KT
                       P6SM BKN050 OVC080
                      BECMG 0712/0714 30018G32KT FM071600 31018G32KT
                       P6SM -RA OVC040 FM072100 32015G25KT 6SM
                       -SHRA BR BKN020 OVC030 FM080000 34012KT
                       6SM -SHRA BR FEW008 BKN012 OVC025 RMK NXT
                       FCST BY 071200Z=
202406071140 TAF CYOD 071140Z 0712/0812 25010KT P6SM BKN050 OVC080
                      BECMG 0712/0714 30018G32KT FM071600 31018G32KT
                       P6SM -RA OVC040 FM072100 32015G25KT 6SM
                       -SHRA BR BKN020 OVC030 FM080000 34012KT
                       6SM -SHRA BR FEW008 BKN012 OVC025
                      BECMG 0806/0808 35005KT FM080900 VRB03KT
                       4SM BR OVC008 RMK NXT FCST BY 071500Z=
202406071440 TAF CYOD 071440Z 0715/0812 27012G25KT P6SM SCT060 BKN100
                      BECMG 0715/0717 30015G30KT FM071800 31018G32KT
                       P6SM -RA OVC040 FM072100 32015G25KT 6SM
                       -SHRA BR BKN020 OVC030 FM080000 34012KT
                       6SM -SHRA BR FEW008 BKN012 OVC025
                      BECMG 0806/0808 35005KT FM080900 VRB03KT
                       4SM BR OVC008 RMK NXT FCST BY 071800Z=
202406071740 TAF CYOD 071740Z 0718/0818 33015KT P6SM -RA OVC040 FM072100 34015KT
                       P6SM -SHRA BKN020 OVC030
                      TEMPO 0721/0809 4SM -SHRA BR SCT008 OVC012
                       BECMG 0806/0808 35005KT FM080900 VRB03KT
                       4SM BR OVC008 FM081400 34010KT P6SM SCT008
                       BKN015 RMK NXT FCST BY 072100Z=
202406072040 TAF CYOD 072040Z 0721/0818 32018KT P6SM -SHRA BKN030 OVC050
                      TEMPO 0721/0809 5SM -SHRA BR BKN020 OVC040
                       BECMG 0806/0808 35005KT FM080900 VRB03KT
                       4SM BR OVC010 FM081400 34010KT P6SM SCT010
                       BKN020 RMK NXT FCST BY 080000Z=
202406072340 TAF CYOD 072340Z 0800/0824 31012KT P6SM -RA BKN030 OVC050
                      TEMPO 0800/0809 5SM -RA BR BKN020 OVC040
                       BECMG 0806/0808 35005KT FM080900 VRB03KT
                       4SM BR SCT005 OVC010 FM081400 34010KT P6SM
                       SCT010 BKN020 FM081800 01010KT P6SM SCT015
                       BKN025 FM082100 01008KT P6SM BKN030 RMK
                       NXT FCST BY 080300Z=
202406080240 TAF CYOD 080240Z 0803/0824 31012KT P6SM FEW020 OVC050
                      TEMPO 0803/0809 5SM -RA BR BKN020 OVC050
                       BECMG 0806/0808 35005KT FM080900 VRB03KT
                       4SM BR SCT005 OVC010 FM081400 34010KT P6SM
                       SCT010 BKN020 FM081800 01010KT P6SM SCT015
                       BKN025 FM082100 01008KT P6SM BKN030 RMK
                       NXT FCST BY 080600Z=
202406080540 TAF CYOD 080540Z 0806/0906 31010KT P6SM FEW020 OVC060
                      TEMPO 0806/0809 5SM -RA BR BKN020 OVC060
                       BECMG 0806/0808 35005KT FM080900 VRB03KT
                       P6SM FEW005 SCT010 OVC020
                      TEMPO 0809/0814 4SM -DZ BR SCT005 OVC010
                       FM081400 34010KT P6SM SCT010 BKN020 FM081800
                       01010KT P6SM SCT015 BKN025 FM082100 01008KT
                       P6SM BKN030 RMK NXT FCST BY 081200Z=
202406080654 TAF AMD CYOD 080654Z 0806/0906 31010KT P6SM FEW015 OVC050
                      TEMPO 0806/0809 5SM -RA BR BKN015 OVC050
                       BECMG 0806/0808 35005KT FM080900 VRB03KT
                       P6SM FEW005 SCT010 OVC020
                      TEMPO 0809/0814 4SM -DZ BR SCT005 OVC010
                       FM081400 34010KT P6SM SCT010 BKN020 FM081800
                       01010KT P6SM SCT015 BKN025 FM082100 01008KT
                       P6SM BKN030 RMK NXT FCST BY 081200Z=
202406081140 TAF CYOD 081140Z 0812/0912 28008KT P6SM OVC015
                      TEMPO 0812/0816 4SM -SHRA BR OVC010
                      BECMG 0814/0816 01010KT FM081600 01010KT
                       P6SM SCT015 BKN025 FM082100 01008KT P6SM
                       BKN030
                      BECMG 0905/0907 06005KT FM090900 06005KT
                       P6SM SCT010 BKN030
                      TEMPO 0909/0912 4SM -DZ BR OVC010 RMK NXT
                       FCST BY 081500Z=
202406081440 TAF CYOD 081440Z 0815/0912 30010KT P6SM -RA OVC013
                      TEMPO 0815/0817 P6SM NSW SCT013 BKN020
                      BECMG 0815/0817 01010KT FM081700 01010KT
                       P6SM SCT013 BKN020
                      BECMG 0817/0819 BKN025 FM082100 01008KT P6SM
                       BKN030
                      BECMG 0905/0907 06005KT FM090900 06005KT
                       P6SM SCT010 BKN030
                      TEMPO 0909/0912 4SM -DZ BR OVC010 RMK NXT
                       FCST BY 081800Z=
202406081705 TAF AMD CYOD 081705Z 0817/0912 36008KT P6SM BKN015
                      BECMG 0817/0819 SCT015 BKN025 FM082100 01008KT
                       P6SM BKN030
                      BECMG 0905/0907 06005KT FM090900 06005KT
                       P6SM SCT010 BKN030
                      TEMPO 0909/0912 4SM -DZ BR OVC010 RMK NXT
                       FCST BY 081800Z=
202406081740 TAF CYOD 081740Z 0818/0918 01008KT P6SM BKN015 OVC030
                      TEMPO 0818/0820 SCT015 BKN030 FM082000 01008KT
                       P6SM BKN030 BKN120
                      BECMG 0905/0907 06005KT FM090900 06005KT
                       P6SM SCT010 BKN020
                      TEMPO 0909/0912 4SM -DZ BR OVC010 FM091200
                       VRB03KT P6SM -SHRA BKN010 OVC020
                      TEMPO 0912/0915 4SM -DZ BR OVC008
                      BECMG 0915/0917 P6SM NSW SCT010 BKN020 RMK
                       NXT FCST BY 082100Z=
202406082040 TAF CYOD 082040Z 0821/0918 36012KT P6SM BKN030 BKN040
                      BECMG 0905/0907 06005KT FM090900 06005KT
                       P6SM SCT010 BKN020
                      TEMPO 0909/0912 4SM -DZ BR OVC010 FM091200
                       VRB03KT P6SM -SHRA BKN010 OVC020
                      TEMPO 0912/0915 4SM -DZ BR OVC008
                      BECMG 0915/0917 P6SM NSW SCT010 BKN020 RMK
                       NXT FCST BY 090000Z=
202406082340 TAF CYOD 082340Z 0900/0924 32008KT P6SM SCT040 OVC140
                      BECMG 0905/0907 06005KT SCT020 BKN030 FM090900
                       06005KT P6SM SCT010 BKN020
                      TEMPO 0909/0913 4SM -DZ BR OVC010 FM091300
                       VRB03KT P6SM -SHRA BKN010 OVC020
                      TEMPO 0913/0915 4SM -DZ BR OVC008
                      BECMG 0915/0917 P6SM NSW SCT010 BKN020 FM091800
                       12005KT P6SM BKN030 BKN060
                      TEMPO 0918/0924 P6SM -SHRA RMK NXT FCST BY
                       090300Z=
202406090240 TAF CYOD 090240Z 0903/0924 34005KT P6SM SCT040 BKN130
                      BECMG 0905/0907 06005KT SCT020 BKN030 FM090900
                       06005KT P6SM SCT010 BKN020
                      TEMPO 0909/0913 4SM -DZ BR OVC010 FM091300
                       VRB03KT P6SM -SHRA BKN010 OVC020
                      TEMPO 0913/0915 4SM -DZ BR OVC008
                      BECMG 0915/0917 P6SM NSW SCT010 BKN020 FM091800
                       12005KT P6SM BKN030 BKN060
                      TEMPO 0918/0924 P6SM -SHRA RMK NXT FCST BY
                       090600Z=
202406090540 TAF CYOD 090540Z 0906/1006 01008KT P6SM FEW020 OVC040
                      TEMPO 0906/0909 5SM -SHRA BR BKN020 OVC040
                       BECMG 0906/0908 06005KT FM090900 06005KT
                       P6SM SCT010 OVC020
                      TEMPO 0909/0913 4SM -DZ BR OVC010 FM091300
                       VRB03KT P6SM -SHRA BKN010 OVC020
                      TEMPO 0913/0915 4SM -DZ BR OVC008
                      BECMG 0915/0917 P6SM NSW SCT010 BKN020 FM091800
                       12005KT P6SM BKN030 BKN060
                      TEMPO 0918/1001 P6SM -SHRA FM100300 10008KT
                       P6SM SCT060 RMK NXT FCST BY 091200Z=
202406090905 TAF AMD CYOD 090905Z 0909/1006 06005KT P6SM FEW020 OVC050
                      TEMPO 0909/0913 4SM -DZ BR BKN012 OVC020
                       FM091300 VRB03KT P6SM -SHRA BKN010 OVC020
                       TEMPO 0913/0915 4SM -DZ BR OVC008
                      BECMG 0915/0917 P6SM NSW SCT010 BKN020 FM091800
                       12005KT P6SM BKN030 BKN060
                      TEMPO 0918/1001 P6SM -SHRA FM100300 10008KT
                       P6SM SCT060 RMK NXT FCST BY 091200Z=
202406091140 TAF CYOD 091140Z 0912/1012 06005KT P6SM OVC040
                      TEMPO 0912/0913 4SM -DZ BR BKN012 OVC020
                       FM091300 VRB03KT P6SM SCT015 OVC025
                      TEMPO 0913/0915 4SM -DZ BR OVC015 FM091800
                       12005KT P6SM BKN030 BKN060
                      TEMPO 0918/1001 P6SM -SHRA FM100300 10008KT
                       P6SM SCT060 FM101000 10008KT P6SM BKN070
                       RMK NXT FCST BY 091500Z=
202406091441 TAF CYOD 091441Z 0915/1012 VRB03KT P6SM SCT010 OVC025
                      TEMPO 0915/0916 4SM -DZ BR OVC010 FM091800
                       12005KT P6SM BKN030 BKN060
                      TEMPO 0918/1001 P6SM -SHRA FM100300 10008KT
                       P6SM SCT060 FM101000 10008KT P6SM BKN070
                       RMK NXT FCST BY 091800Z=
202406091740 TAF CYOD 091740Z 0918/1018 12005KT P6SM FEW030 BKN060 OVC100
                      TEMPO 0918/1001 P6SM -SHRA BKN030 OVC060
                       FM100300 10008KT P6SM SCT060 FM101000 12008KT
                       P6SM BKN070 FM101300 15010KT P6SM SCT040
                       OVC070
                      TEMPO 1013/1018 P6SM -SHRA BKN040 OVC070
                       RMK NXT FCST BY 092100Z=
202406092046 TAF CYOD 092046Z 0921/1018 12008KT P6SM FEW030 BKN060 OVC100
                      TEMPO 0921/1001 P6SM -SHRA BKN030 OVC060
                       FM100300 10008KT P6SM SCT060 FM101000 12008KT
                       P6SM BKN070 FM101300 15010KT P6SM SCT040
                       OVC070
                      TEMPO 1013/1018 P6SM -SHRA BKN040 OVC070
                       RMK NXT FCST BY 100000Z=
202406092340 TAF CYOD 092340Z 1000/1024 14008KT P6SM FEW030 BKN060 BKN080 FM100300
                       12008KT P6SM SCT060 BKN080 FM101000 12008KT
                       P6SM BKN070 FM101300 15010KT P6SM SCT040
                       OVC070
                      TEMPO 1013/1024 P6SM -SHRA BKN040 OVC070
                       RMK NXT FCST BY 100300Z=
202406100240 TAF CYOD 100240Z 1003/1024 13005KT P6SM BKN070
                      BECMG 1011/1013 15010KT FM101300 15010KT
                       P6SM SCT040 OVC070
                      TEMPO 1013/1024 P6SM -SHRA BKN040 OVC070
                       RMK NXT FCST BY 100600Z=
202406100540 TAF CYOD 100540Z 1006/1106 13005KT P6SM BKN060
                      TEMPO 1006/1013 P6SM -SHRA
                      BECMG 1011/1013 15010KT FM101300 15010KT
                       P6SM SCT040 OVC060
                      TEMPO 1013/1021 P6SM -SHRA BKN040 OVC060
                       FM102100 31010KT P6SM BKN070
                      BECMG 1102/1104 30005KT RMK NXT FCST BY 101200Z=
202406101141 TAF CYOD 101141Z 1012/1112 12010KT P6SM BKN010
                      TEMPO 1012/1016 P6SM -SHRA BKN050 OVC100
                       BECMG 1013/1015 18008G18KT FM101600 18008G18KT
                       P6SM SCT020 BKN040
                      TEMPO 1016/1022 P6SM -SHRA BKN020 OVC040
                       BECMG 1019/1021 31010KT FM102200 31010KT
                       P6SM BKN040
                      TEMPO 1022/1024 P6SM -SHRA
                      BECMG 1102/1104 29005KT RMK NXT FCST BY 101500Z=
202406101440 TAF CYOD 101440Z 1015/1112 13010KT P6SM BKN120
                      TEMPO 1015/1016 P6SM -SHRA BKN050 OVC120
                       FM101600 16008G18KT P6SM SCT020 BKN040
                      TEMPO 1016/1022 P6SM -SHRA BKN020 OVC040
                       BECMG 1019/1021 31010KT FM102200 31010KT
                       P6SM BKN040
                      TEMPO 1022/1024 P6SM -SHRA
                      BECMG 1102/1104 29005KT RMK NXT FCST BY 101800Z=
202406101740 TAF CYOD 101740Z 1018/1118 20008G18KT P6SM SCT020 BKN070
                      TEMPO 1018/1022 P6SM -SHRA BKN020 OVC070
                       BECMG 1019/1021 31010KT FM102200 31010KT
                       P6SM SCT020 BKN040
                      TEMPO 1022/1024 P6SM -SHRA
                      BECMG 1102/1104 29005KT FM110400 29005KT
                       P6SM BKN050 RMK NXT FCST BY 102100Z=
202406102040 TAF CYOD 102040Z 1021/1118 26005KT P6SM OVC040
                      TEMPO 1021/1022 P6SM -SHRA FM102200 31010KT
                       P6SM SCT020 BKN040
                      TEMPO 1022/1024 P6SM -SHRA
                      BECMG 1102/1104 29005KT FM110400 29005KT
                       P6SM BKN050 RMK NXT FCST BY 110000Z=
202406102340 TAF CYOD 102340Z 1100/1124 VRB03KT P6SM SCT030 OVC060 FM110400
                       VRB03KT P6SM BKN050
                      TEMPO 1108/1112 P6SM -SHRA
                      BECMG 1112/1114 SCT050 FM111500 VRB03KT P6SM
                       SCT050 BKN070
                      BECMG 1121/1123 09008KT RMK NXT FCST BY 110300Z=
202406110240 TAF CYOD 110240Z 1103/1124 31008KT P6SM SCT040 BKN070 BKN250
                      BECMG 1104/1106 VRB03KT FM110600 VRB03KT
                       P6SM BKN050
                      TEMPO 1108/1112 P6SM -SHRA
                      BECMG 1112/1114 SCT050 FM111500 VRB03KT P6SM
                       SCT050 BKN070
                      BECMG 1121/1123 09008KT RMK NXT FCST BY 110600Z=
202406110540 TAF CYOD 110540Z 1106/1206 VRB03KT P6SM BKN060 BKN130 BKN180
                      TEMPO 1108/1112 P6SM -SHRA
                      BECMG 1112/1114 SCT050 FM111500 VRB03KT P6SM
                       BKN080
                      BECMG 1121/1123 09008KT FM120300 09008KT
                       P6SM BKN030 OVC050 RMK NXT FCST BY 111200Z=
202406111140 TAF CYOD 111140Z 1112/1212 26005KT P6SM BKN060 BKN130 BKN180
                      TEMPO 1112/1113 P6SM -RA BKN050 OVC070 FM111600
                       29005KT P6SM FEW050 SCT080
                      BECMG 1121/1123 09008KT FM120000 09008KT
                       P6SM SCT060 BKN100 BKN250 FM120500 16006KT
                       P6SM -SHRA FEW030 BKN050 OVC080 FM120900
                       19005KT 6SM -SHRA BR FEW015 OVC025
                      BECMG 1210/1212 27008KT RMK NXT FCST BY 111500Z=
202406111440 TAF CYOD 111440Z 1115/1212 24005KT P6SM BKN050 FM111600 29005KT
                       P6SM FEW050 SCT080
                      BECMG 1121/1123 09008KT FM120000 09008KT
                       P6SM SCT060 BKN100 BKN250 FM120500 16006KT
                       P6SM -SHRA FEW030 BKN050 OVC080 FM120900
                       19005KT 6SM -SHRA BR FEW015 OVC025
                      BECMG 1210/1212 27008KT RMK NXT FCST BY 111800Z=
202406111740 TAF CYOD 111740Z 1118/1218 VRB03KT P6SM FEW050 FEW250
                      BECMG 1121/1123 09008KT FM112300 09008KT
                       P6SM SCT060 BKN100 BKN250 FM120400 VRB03KT
                       P6SM -SHRA FEW030 BKN050 OVC080 FM120800
                       19005KT 6SM -RA BR SCT010 OVC025 FM121600
                       32005KT P6SM -RA SCT020 OVC060 RMK NXT FCST
                       BY 112100Z=
202406112040 TAF CYOD 112040Z 1121/1218 23005KT P6SM SCT040 BKN250
                      BECMG 1121/1123 09008KT FM112300 09008KT
                       P6SM SCT060 BKN100 BKN250 FM120400 VRB03KT
                       P6SM -SHRA FEW030 BKN050 OVC080 FM120800
                       19005KT 6SM -RA BR SCT010 OVC025 FM121600
                       32005KT P6SM -RA SCT020 OVC060 RMK NXT FCST
                       BY 120000Z=
202406112340 TAF CYOD 112340Z 1200/1224 06010KT P6SM SCT060 BKN250 FM120500
                       VRB03KT P6SM -SHRA FEW030 BKN060 OVC100
                       FM120800 19005KT 6SM -SHRA BR SCT010 OVC025
                       TEMPO 1208/1219 P6SM RA SCT025 OVC060 FM121900
                       32005KT P6SM -SHRA SCT020 OVC060 RMK NXT
                       FCST BY 120300Z=
202406120240 TAF CYOD 120240Z 1203/1224 09010KT P6SM SCT060 SCT100 BKN250 FM120500
                       VRB03KT P6SM -SHRA FEW030 BKN060 OVC100
                       FM120800 19005KT 6SM -SHRA BR SCT010 OVC025
                       TEMPO 1208/1219 P6SM RA SCT025 OVC060 FM121900
                       32005KT P6SM -SHRA SCT020 OVC060 RMK NXT
                       FCST BY 120600Z=
202406120540 TAF CYOD 120540Z 1206/1306 27005KT P6SM -RA FEW030 OVC060
                      TEMPO 1206/1212 5SM -SHRA BR SCT015 OVC030
                       FM121200 29005KT P6SM -RA SCT015 BKN030
                       OVC060
                      TEMPO 1212/1219 5SM -SHRA BR BKN015 OVC030
                       BECMG 1216/1218 03008KT FM121900 02008KT
                       P6SM -SHRA SCT020 OVC060 FM130200 32005KT
                       P6SM -SHRA BKN060 OVC100 RMK NXT FCST BY
                       121200Z=
202406120938 TAF AMD CYOD 120938Z 1209/1306 VRB03KT 3SM -SHRA BR BKN006 OVC020
                       TEMPO 1209/1212 P6SM -RA SCT006 BKN020 OVC060
                       FM121200 29005KT P6SM -RA SCT010 BKN030
                       OVC060
                      TEMPO 1212/1219 5SM -SHRA BR SCT006 BKN010
                       OVC030
                      BECMG 1216/1218 03008KT FM121900 02008KT
                       P6SM -SHRA SCT020 OVC060 FM130200 32005KT
                       P6SM -SHRA BKN060 OVC100 RMK NXT FCST BY
                       121200Z=
202406121036 TAF AMD CYOD 121036Z 1210/1306 VRB03KT 3SM -SHRA BR BKN004 OVC020
                       TEMPO 1210/1212 P6SM -RA SCT004 BKN020 OVC060
                       FM121200 29005KT P6SM -RA SCT010 BKN030
                       OVC060
                      TEMPO 1212/1219 5SM -SHRA BR SCT006 BKN010
                       OVC030
                      BECMG 1216/1218 03008KT FM121900 02008KT
                       P6SM -SHRA SCT020 OVC060 FM130200 32005KT
                       P6SM -SHRA BKN060 OVC100 RMK NXT FCST BY
                       121200Z=
202406121140 TAF CYOD 121140Z 1212/1312 VRB03KT 2SM -RA -DZ BR OVC005
                      TEMPO 1212/1215 6SM BR SCT005 OVC015 FM121500
                       29005KT 5SM -RA -DZ BR BKN006 OVC015
                      TEMPO 1215/1219 P6SM -SHRA SCT015 OVC025
                       FM121900 29012KT P6SM -SHRA SCT020 OVC060
                       PROB30 1222/1302 VRB15G25KT 3SM -TSRA BR
                       BKN020CB OVC060 FM130400 32005KT 6SM -SHRA
                       BR FEW008 BKN060 OVC100 RMK NXT FCST BY
                       121500Z=
202406121307 TAF AMD CYOD 121307Z 1213/1312 VRB03KT 2SM -RA -DZ BR OVC003
                      TEMPO 1213/1215 5SM BR SCT003 OVC015 FM121500
                       29005KT 5SM -RA -DZ BR FEW004 BKN006 OVC015
                       TEMPO 1215/1219 P6SM -SHRA SCT015 OVC025
                       FM121900 29012KT P6SM -SHRA SCT020 OVC060
                       PROB30 1222/1302 VRB15G25KT 3SM -TSRA BR
                       BKN020CB OVC060 FM130400 32005KT 6SM -SHRA
                       BR FEW008 BKN060 OVC100 RMK NXT FCST BY
                       121500Z=
202406121410 TAF AMD CYOD 121410Z 1214/1312 VRB03KT 3/4SM -RA -DZ BR OVC003
                       TEMPO 1214/1215 2SM BR SCT003 OVC015 FM121500
                       29005KT 5SM -RA -DZ BR FEW004 BKN006 OVC015
                       TEMPO 1215/1219 P6SM -SHRA SCT015 OVC025
                       FM121900 29012KT P6SM -SHRA SCT020 OVC060
                       PROB30 1222/1302 VRB15G25KT 3SM -TSRA BR
                       BKN020CB OVC060 FM130400 32005KT 6SM -SHRA
                       BR FEW008 BKN060 OVC100 RMK NXT FCST BY
                       121500Z=
202406121440 TAF CYOD 121440Z 1215/1312 30005KT 3/4SM -RA -DZ BR OVC003
                      TEMPO 1215/1217 3SM BR SCT003 OVC015 FM121700
                       29005KT 5SM -RA BR FEW003 BKN006 OVC015
                       TEMPO 1217/1219 P6SM -SHRA SCT015 OVC020
                       FM121900 29012KT P6SM -SHRA SCT020 OVC030
                       PROB30 1222/1302 VRB15G25KT 3SM -TSRA BR
                       BKN020CB OVC060 FM130400 32005KT 6SM -SHRA
                       BR FEW008 BKN060 OVC100 RMK NXT FCST BY
                       121800Z=
202406121706 TAF AMD CYOD 121706Z 1217/1312 05005KT 1SM -SHRA BR OVC004
                      TEMPO 1217/1219 3SM -SHRA BR SCT003 OVC015
                       FM121900 29012KT P6SM -SHRA SCT020 OVC030
                       PROB30 1222/1302 VRB15G25KT 3SM -TSRA BR
                       BKN020CB OVC060 FM130400 32005KT 6SM -SHRA
                       BR FEW008 BKN060 OVC100 RMK NXT FCST BY
                       121800Z=
202406121740 TAF CYOD 121740Z 1218/1318 03006KT 2SM -SHRA BR BKN005 OVC015
                      TEMPO 1218/1221 6SM -SHRA BR SCT005 OVC015
                       FM122100 02008KT P6SM SCT012 BKN030 OVC080
                       TEMPO 1221/1304 5SM -SHRA SCT006 BKN012
                       OVC030
                      PROB30 1222/1302 VRB15G25KT 3SM -TSRA BR
                       OVC012CB FM130400 30005KT 6SM -SHRA BR SCT008
                       BKN060 OVC100 FM130900 26005KT 6SM -SHRA
                       BR BKN008 BKN012
                      PROB30 1309/1318 1SM BR OVC004 RMK NXT FCST
                       BY 122100Z=
202406121936 TAF AMD CYOD 121936Z 1219/1318 02008KT P6SM SCT015 BKN030 OVC080
                       TEMPO 1219/1304 5SM -SHRA FEW006 BKN015
                       OVC030
                      PROB30 1222/1302 VRB15G25KT 3SM -TSRA BR
                       OVC012CB FM130400 30005KT 6SM -SHRA BR SCT008
                       BKN060 OVC100 FM130900 26005KT 6SM -SHRA
                       BR BKN008 BKN012
                      PROB30 1309/1318 1SM BR OVC004 RMK NXT FCST
                       BY 122100Z=
202406122042 TAF CYOD 122042Z 1221/1318 02008KT P6SM SCT020 BKN030 OVC080
                      TEMPO 1221/1304 5SM -SHRA BKN020 OVC030
                      PROB30 1222/1302 VRB15G25KT 3SM -TSRA BR
                       OVC015CB FM130400 30005KT 6SM -SHRA BR SCT008
                       BKN060 OVC100 FM130900 26005KT 6SM -SHRA
                       BR BKN008 BKN012
                      PROB30 1309/1318 1SM BR OVC004 RMK NXT FCST
                       BY 130000Z=
202406122340 TAF CYOD 122340Z 1300/1324 36010KT P6SM FEW030 SCT070 OVC110
                      TEMPO 1300/1303 6SM -SHRA BR SCT015 OVC030
                       PROB30 1300/1303 VRB15G30KT 2SM TSRA BR
                       SCT008 BKN015 OVC030CB FM130300 33005KT
                       P6SM -RA SCT015 BKN040 OVC070
                      TEMPO 1303/1311 3SM -RA -DZ BR FEW008 BKN015
                       OVC040 FM131100 VRB03KT 5SM -RA -DZ BR SCT008
                       BKN015 OVC040
                      TEMPO 1311/1319 1SM -RA DZ BR SCT004 OVC008
                       PROB30 1311/1317 1/2SM -DZ FG VV004 FM131900
                       27012KT P6SM -SHRA SCT020 BKN040 OVC080
                       FM132200 27010KT P6SM BKN030 RMK NXT FCST
                       BY 130300Z=
202406130247 TAF CYOD 130247Z 1303/1324 34005KT P6SM -RA FEW015 BKN040 OVC070
                       TEMPO 1303/1311 3SM -RA -DZ BR FEW008 BKN015
                       OVC040 FM131100 VRB03KT 5SM -RA -DZ BR SCT008
                       BKN015 OVC040
                      TEMPO 1311/1319 1SM -RA DZ BR SCT004 OVC008
                       PROB30 1311/1317 1/2SM -DZ FG VV004 FM131900
                       27012KT P6SM -SHRA SCT020 BKN040 OVC080
                       FM132200 27010KT P6SM BKN030 RMK NXT FCST
                       BY 130600Z=
202406130540 TAF CYOD 130540Z 1306/1406 27008KT P6SM BKN050 OVC080
                      TEMPO 1306/1307 P6SM -RA FEW020 OVC050 FM130700
                       27005KT P6SM FEW015 OVC050
                      TEMPO 1307/1311 3SM -RA -DZ BR FEW008 BKN015
                       OVC040
                      PROB30 1309/1311 2SM BR FEW004 OVC008 FM131100
                       VRB03KT 5SM -RA -DZ BR SCT008 BKN015 OVC040
                       TEMPO 1311/1315 1 1/2SM -RA DZ BR SCT004
                       OVC008
                      PROB40 1311/1315 1/2SM -DZ FG VV004 FM131500
                       29005KT P6SM SCT008 BKN015 OVC030
                      TEMPO 1315/1319 3SM -RA -DZ BR BKN008 OVC015
                       FM131900 27012KT P6SM -SHRA SCT020 BKN040
                       OVC080 FM132200 27010KT P6SM BKN030 FM140200
                       VRB03KT P6SM FEW030 RMK NXT FCST BY 131200Z=
202406131116 TAF AMD CYOD 131116Z 1311/1406 VRB03KT 5SM -RA -DZ BR FEW008 SCT015
                       OVC040
                      TEMPO 1311/1315 1 1/2SM -RA DZ BR SCT008
                       OVC015
                      PROB40 1311/1315 BKN008 FM131500 29005KT
                       P6SM SCT008 BKN015 OVC030
                      TEMPO 1315/1319 3SM -RA -DZ BR BKN008 OVC015
                       FM131900 27012KT P6SM -SHRA SCT020 BKN040
                       OVC080 FM132200 27010KT P6SM BKN030 FM140200
                       VRB03KT P6SM FEW030 RMK NXT FCST BY 131200Z=
202406131127 TAF AMD CYOD 131127Z 1311/1406 VRB03KT 5SM BR FEW008 SCT015 OVC040
                       TEMPO 1311/1315 1 1/2SM -RA DZ BR SCT008
                       OVC015
                      PROB40 1311/1315 BKN008 FM131500 29005KT
                       P6SM SCT008 BKN015 OVC030
                      TEMPO 1315/1319 3SM -RA -DZ BR BKN008 OVC015
                       FM131900 27012KT P6SM -SHRA SCT020 BKN040
                       OVC080 FM132200 27010KT P6SM BKN030 FM140200
                       VRB03KT P6SM FEW030 RMK NXT FCST BY 131200Z=
202406131140 TAF CYOD 131140Z 1312/1412 VRB03KT 5SM -RA -DZ BR FEW008 SCT015
                       OVC040
                      TEMPO 1312/1315 1 1/2SM -RA DZ BR SCT008
                       OVC015
                      PROB40 1312/1315 BKN008 FM131500 29005KT
                       P6SM SCT008 BKN015 OVC030
                      TEMPO 1315/1319 3SM -RA -DZ BR BKN008 OVC015
                       FM131900 27012KT P6SM -SHRA SCT020 BKN040
                       OVC080
                      TEMPO 1319/1322 BKN020 OVC040 FM132200 27010KT
                       P6SM BKN030 FM140200 VRB03KT P6SM FEW030
                       SCT240 FM140800 VRB03KT 1/2SM FG SCT240
                       RMK NXT FCST BY 131500Z=
202406131205 TAF AMD CYOD 131205Z 1312/1412 VRB03KT 5SM BR FEW008 SCT015 OVC040
                       TEMPO 1312/1315 1 1/2SM -RA DZ BR SCT008
                       OVC015
                      PROB40 1312/1315 BKN008 FM131500 29005KT
                       P6SM SCT008 BKN015 OVC030
                      TEMPO 1315/1319 3SM -RA -DZ BR BKN008 OVC015
                       FM131900 27012KT P6SM -SHRA SCT020 BKN040
                       OVC080
                      TEMPO 1319/1322 BKN020 OVC040 FM132200 27010KT
                       P6SM BKN030 FM140200 VRB03KT P6SM FEW030
                       SCT240 FM140800 VRB03KT 1/2SM FG SCT240
                       RMK NXT FCST BY 131500Z=
202406131310 TAF AMD CYOD 131310Z 1313/1412 26005KT 6SM BR FEW006 SCT015 OVC040
                       TEMPO 1313/1319 3SM -SHRA BR SCT006 OVC015
                       PROB40 1313/1319 BKN006 FM131900 27012KT
                       P6SM -SHRA SCT020 BKN040 OVC080
                      TEMPO 1319/1322 BKN020 OVC040 FM132200 27010KT
                       P6SM BKN030 FM140200 VRB03KT P6SM FEW030
                       SCT240 FM140800 VRB03KT 1/2SM FG SCT240
                       RMK NXT FCST BY 131500Z=
202406131340 TAF AMD CYOD 131340Z 1313/1412 26005KT 3SM -SHRA BR BKN006
                      TEMPO 1313/1319 6SM BR FEW006 BKN015 OVC040
                       FM131900 27012KT P6SM -SHRA SCT020 BKN040
                       OVC080
                      TEMPO 1319/1322 BKN020 OVC040 FM132200 27010KT
                       P6SM BKN030 FM140200 VRB03KT P6SM FEW030
                       SCT240 FM140800 VRB03KT 1/2SM FG SCT240
                       RMK NXT FCST BY 131500Z=
202406131440 TAF CYOD 131440Z 1315/1412 28008KT 3SM -SHRA BR OVC006
                      TEMPO 1315/1319 6SM BR SCT006 BKN015 OVC040
                       FM131900 27012KT P6SM -SHRA SCT020 BKN040
                       OVC080
                      TEMPO 1319/1322 BKN020 OVC040 FM132200 27010KT
                       P6SM BKN030 FM140200 VRB03KT P6SM FEW030
                       SCT240 FM140800 VRB03KT 1/2SM FG SCT240
                       RMK NXT FCST BY 131800Z=
202406131740 TAF CYOD 131740Z 1318/1418 28008KT P6SM -SHRA OVC010
                      TEMPO 1318/1320 P6SM NSW SCT010 BKN020 OVC060
                       FM132000 27010KT P6SM SCT020 BKN060 OVC080
                       TEMPO 1320/1322 P6SM -SHRA BKN020 OVC060
                       FM132200 27010KT P6SM BKN030 FM140200 VRB03KT
                       P6SM FEW030 SCT240 FM140800 VRB03KT 1/2SM
                       FG SCT240 FM141300 08005KT P6SM SCT100 SCT240
                       FM141600 09008KT P6SM -SHRA OVC080 RMK NXT
                       FCST BY 132100Z=
202406131905 TAF AMD CYOD 131905Z 1319/1418 27010KT P6SM SCT020 BKN040 OVC080
                       TEMPO 1319/1322 P6SM -SHRA BKN020 OVC040
                       FM132200 27010KT P6SM BKN040 FM140200 VRB03KT
                       P6SM FEW040 SCT240 FM140800 VRB03KT 1/2SM
                       FG SCT240 FM141300 08005KT P6SM SCT100 SCT240
                       FM141600 09008KT P6SM -SHRA OVC080 RMK NXT
                       FCST BY 132100Z=
202406132040 TAF CYOD 132040Z 1321/1418 30010KT P6SM BKN030 BKN240
                      BECMG 1322/1324 28005KT FM140200 VRB03KT
                       P6SM FEW040 SCT240 FM140800 VRB03KT 1/2SM
                       FG SCT240 FM141300 08005KT P6SM SCT100 SCT240
                       FM141600 09008KT P6SM -SHRA OVC080 RMK NXT
                       FCST BY 140000Z=
202406132340 TAF CYOD 132340Z 1400/1424 28008KT P6SM BKN025 OVC050 FM140200
                       30005KT P6SM FEW050 FEW240
                      BECMG 1403/1405 VRB03KT FM140800 VRB03KT
                       2SM BR SCT240
                      TEMPO 1408/1413 6SM BR
                      PROB40 1408/1413 1/2SM FG FM141300 08005KT
                       P6SM SCT100 BKN240 FM141600 09008KT P6SM
                       -SHRA OVC080 RMK NXT FCST BY 140300Z=
202406140240 TAF CYOD 140240Z 1403/1424 28005KT P6SM FEW050 FEW250
                      BECMG 1403/1405 VRB03KT FM140800 VRB03KT
                       2SM BR SCT240
                      TEMPO 1408/1413 6SM BR
                      PROB40 1408/1413 1/2SM FG FM141300 08005KT
                       P6SM SCT100 BKN240 FM141600 09008KT P6SM
                       -SHRA OVC080 RMK NXT FCST BY 140600Z=
202406140540 TAF CYOD 140540Z 1406/1506 VRB03KT P6SM FEW080 SCT240 FM140800
                       VRB03KT P6SM SCT240
                      TEMPO 1408/1413 2SM BR
                      PROB40 1408/1413 1/2SM FG FM141300 08005KT
                       P6SM SCT100 BKN200 FM141600 09008KT P6SM
                       -SHRA OVC080 FM142300 07010G20KT P6SM SCT080
                       BKN160 FM150300 07010KT P6SM -SHRA BKN040
                       OVC080 RMK NXT FCST BY 141200Z=
202406141140 TAF CYOD 141140Z 1412/1512 VRB03KT P6SM SCT240
                      TEMPO 1412/1413 2SM BR
                      PROB40 1412/1413 1/2SM FG FM141300 09005KT
                       P6SM SCT160 BKN200 FM141600 10008KT P6SM
                       -SHRA OVC080 FM142300 12010G20KT P6SM SCT080
                       BKN130 FM150300 10008KT P6SM -SHRA BKN040
                       OVC080 FM150800 VRB03KT 2SM BR BKN020 RMK
                       NXT FCST BY 141500Z=
202406141440 TAF CYOD 141440Z 1415/1512 VRB03KT P6SM BKN130 BKN200 FM141600
                       12008KT P6SM -SHRA OVC080
                      PROB30 1420/1423 VRB15G25KT 4SM -TSRA BR
                       BKN060CB FM142300 12010G20KT P6SM SCT080
                       BKN130
                      PROB30 1423/1503 VRB15G25KT 4SM -TSRA BR
                       BKN060CB FM150300 10008KT P6SM -SHRA BKN040
                       OVC080 FM150800 VRB03KT 2SM BR BKN020 RMK
                       NXT FCST BY 141800Z=
202406141740 TAF CYOD 141740Z 1418/1518 12008KT P6SM -SHRA FEW030 BKN090 OVC180
                       PROB30 1420/1423 VRB15G25KT 4SM -TSRA BR
                       BKN030CB FM142300 12010G20KT P6SM FEW030
                       SCT090 BKN130
                      PROB30 1423/1503 VRB15G25KT 4SM -TSRA BR
                       BKN030CB FM150300 10008KT P6SM -SHRA SCT020
                       BKN040 OVC080 FM150800 VRB03KT 2SM BR SCT010
                       SCT025 BKN040 FM151200 21005KT P6SM BKN010
                       OVC020 FM151600 24008KT P6SM BKN020 BKN240
                       RMK NXT FCST BY 142100Z=
202406141907 TAF AMD CYOD 141907Z 1419/1518 17008KT P6SM -SHRA FEW030 BKN070
                       OVC180
                      TEMPO 1419/1420 VRB15G25KT 3SM TSRA BR BKN030
                       OVC070 FM142000 17008KT P6SM -SHRA FEW030
                       BKN070 OVC180
                      PROB30 1420/1423 VRB15G25KT 4SM -TSRA BR
                       BKN030CB FM142300 12010G20KT P6SM FEW030
                       SCT090 BKN130
                      PROB30 1423/1503 VRB15G25KT 4SM -TSRA BR
                       BKN030CB FM150300 10008KT P6SM -SHRA SCT020
                       BKN040 OVC080 FM150800 VRB03KT 2SM BR SCT010
                       SCT025 BKN040 FM151200 21005KT P6SM BKN010
                       OVC020 FM151600 24008KT P6SM BKN020 BKN240
                       RMK NXT FCST BY 142100Z=
202406142040 TAF CYOD 142040Z 1421/1518 08008KT P6SM -SHRA FEW030 OVC070
                      PROB30 1421/1423 VRB15G25KT 4SM -TSRA BR
                       BKN030CB FM142300 09010G20KT P6SM FEW030
                       BKN070 BKN130
                      PROB30 1423/1503 VRB15G25KT 4SM -TSRA BR
                       BKN030CB FM150300 07008KT P6SM -SHRA SCT020
                       BKN030 OVC070 FM150800 VRB03KT 2SM BR SCT010
                       BKN020 BKN040 FM151200 21005KT P6SM BKN010
                       OVC020 FM151600 24008KT P6SM BKN020 BKN240
                       RMK NXT FCST BY 150000Z=
202406142340 TAF CYOD 142340Z 1500/1524 06012KT P6SM FEW030 BKN070 OVC120
                      PROB30 1500/1503 VRB15G25KT 4SM -TSRA BR
                       BKN030CB FM150300 07008KT P6SM -SHRA SCT020
                       BKN040 OVC070
                      PROB30 1503/1506 VRB15G25KT 4SM -TSRA BR
                       BKN020CB FM150800 VRB03KT 2SM BR SCT008
                       OVC015 FM151300 21005KT 6SM BR BKN010 OVC020
                       FM151600 28010KT P6SM BKN020 BKN240 FM151900
                       28010KT P6SM FEW030 BKN200 RMK NXT FCST
                       BY 150300Z=
202406150240 TAF CYOD 150240Z 1503/1524 05008KT P6SM -SHRA SCT020 BKN040 OVC070
                       PROB40 1503/1506 VRB15G25KT 4SM -TSRA BR
                       BKN020CB FM150800 VRB03KT 2SM BR SCT008
                       OVC015 FM151300 21005KT 6SM BR BKN010 OVC020
                       FM151600 28010KT P6SM BKN020 BKN240 FM151900
                       28010KT P6SM FEW030 BKN200 RMK NXT FCST
                       BY 150600Z=
202406150308 TAF AMD CYOD 150308Z 1503/1524 05008KT P6SM -SHRA SCT020 BKN040
                       OVC070
                      TEMPO 1503/1504 VRB15G25KT 4SM -TSRA BR BKN050CB
                       FM150800 VRB03KT 2SM BR SCT008 OVC015 FM151300
                       21005KT 6SM BR BKN010 OVC020 FM151600 28010KT
                       P6SM BKN020 BKN240 FM151900 28010KT P6SM
                       FEW030 BKN200 RMK NXT FCST BY 150600Z=
202406150353 TAF AMD CYOD 150353Z 1503/1524 09005KT P6SM -SHRA SCT020 BKN060
                       BKN100 FM150800 VRB03KT 2SM BR SCT008 OVC015
                       FM151300 21005KT 6SM BR BKN010 OVC020 FM151600
                       28010KT P6SM BKN020 BKN240 FM151900 28010KT
                       P6SM FEW030 BKN200 RMK NXT FCST BY 150600Z=
202406150540 TAF CYOD 150540Z 1506/1606 31005KT P6SM -SHRA SCT020 BKN070 BKN100
                       FM150800 27005KT P6SM SCT010 BKN050 BKN080
                       TEMPO 1508/1516 2SM BR SCT005 OVC010 FM151600
                       28010KT P6SM BKN015 BKN240 FM151900 28012KT
                       P6SM FEW030 BKN200 RMK NXT FCST BY 151200Z=
202406150934 TAF AMD CYOD 150934Z 1509/1606 VRB03KT 1/4SM FG SKC
                      TEMPO 1509/1513 2SM BR
                      BECMG 1513/1515 P6SM NSW FEW005 FEW240 FM151600
                       28010KT P6SM FEW015 BKN240 FM151900 28012KT
                       P6SM FEW030 BKN200 RMK NXT FCST BY 151200Z=
202406151140 TAF CYOD 151140Z 1512/1612 25005KT 1/4SM FG VV002
                      TEMPO 1512/1514 2SM BR
                      BECMG 1514/1516 P6SM NSW FEW005 FEW240 FM151600
                       28010KT P6SM FEW015 SCT240 FM151900 28012KT
                       P6SM SCT030 BKN200
                      TEMPO 1519/1524 BKN030 FM160800 30008KT P6SM
                       -SHRA BKN020 OVC150
                      BECMG 1608/1610 33012G22KT RMK NXT FCST BY
                       151500Z=
202406151349 TAF AMD CYOD 151349Z 1513/1612 25010KT 6SM BR BKN006
                      TEMPO 1513/1516 P6SM NSW SCT006 BKN012 FM151600
                       28010KT P6SM BKN015
                      BECMG 1516/1518 SCT015 SCT240 FM151900 28012KT
                       P6SM SCT030 BKN200
                      TEMPO 1519/1524 BKN030 FM160800 30008KT P6SM
                       -SHRA BKN020 OVC150
                      BECMG 1608/1610 33012G22KT RMK NXT FCST BY
                       151500Z=
202406151440 TAF CYOD 151440Z 1515/1612 25010KT 6SM BR BKN006 OVC010
                      TEMPO 1515/1516 P6SM NSW SCT006 BKN012 FM151600
                       27010KT P6SM BKN015
                      BECMG 1516/1518 SCT015 SCT240 FM151900 28012KT
                       P6SM SCT030 BKN200
                      TEMPO 1519/1524 BKN030 FM160800 30008KT P6SM
                       -SHRA BKN020 OVC150
                      BECMG 1608/1610 33012G22KT RMK NXT FCST BY
                       151800Z=
202406151543 TAF AMD CYOD 151543Z 1515/1612 25010KT P6SM BKN015
                      TEMPO 1515/1516 SCT015 BKN025
                      BECMG 1516/1517 SCT015 SCT030 FM151900 28012KT
                       P6SM SCT040 BKN200
                      TEMPO 1519/1524 BKN040 FM160800 30008KT P6SM
                       -SHRA BKN020 OVC150
                      BECMG 1608/1610 33012G22KT RMK NXT FCST BY
                       151800Z=
202406151740 TAF CYOD 151740Z 1518/1618 25010KT P6SM FEW030 FM151900 27012KT
                       P6SM SCT040 SCT200
                      TEMPO 1519/1524 BKN040 FM160000 29008KT P6SM
                       FEW040 BKN200 FM160800 30008KT 5SM -SHRA
                       BR BKN015 OVC050
                      BECMG 1608/1610 33012G22KT FM161500 36015G25KT
                       P6SM BKN030
                      BECMG 1615/1617 36018G28KT RMK NXT FCST BY
                       152100Z=
202406152040 TAF CYOD 152040Z 1521/1618 27012KT P6SM SCT050 BKN250
                      TEMPO 1521/1524 BKN050 FM160000 29008KT P6SM
                       FEW040 BKN200 FM160800 30008KT 5SM -SHRA
                       BR BKN015 OVC050
                      BECMG 1608/1610 33012G22KT FM161500 36015G25KT
                       P6SM BKN030
                      BECMG 1615/1617 36018G28KT RMK NXT FCST BY
                       160000Z=
202406152340 TAF CYOD 152340Z 1600/1624 27008KT P6SM FEW050 BKN250 FM160800
                       30008KT 5SM -SHRA BR FEW008 BKN012 OVC050
                       BECMG 1608/1610 33012G22KT FM161200 35015G25KT
                       P6SM BKN030
                      BECMG 1614/1616 36018G32KT BKN050 FM162200
                       34015G28KT P6SM FEW050 SCT250 RMK NXT FCST
                       BY 160300Z=
202406160246 TAF CYOD 160246Z 1603/1624 27008KT P6SM FEW050 BKN250 FM160800
                       30008KT 5SM -SHRA BR FEW008 BKN012 OVC050
                       BECMG 1608/1610 33012G22KT FM161200 35015G25KT
                       P6SM BKN030
                      BECMG 1614/1616 36018G32KT BKN050 FM162200
                       34015G28KT P6SM FEW050 SCT250 RMK NXT FCST
                       BY 160600Z=
202406160540 TAF CYOD 160540Z 1606/1706 27008KT P6SM BKN060 BKN180 FM160900
                       30008KT P6SM SCT012 BKN050
                      TEMPO 1609/1611 5SM -SHRA BR FEW008 BKN012
                       OVC050
                      BECMG 1609/1611 33012G22KT FM161200 35015G25KT
                       P6SM BKN030
                      BECMG 1614/1616 36018G32KT BKN050 FM162200
                       34015G28KT P6SM FEW050 SCT250
                      BECMG 1701/1703 32010KT FEW080 RMK NXT FCST
                       BY 161200Z=
202406161140 TAF CYOD 161140Z 1612/1712 35015G25KT P6SM OVC025
                      TEMPO 1612/1614 6SM -SHRA BR BKN020
                      BECMG 1614/1616 36018G32KT BKN040 OVC180
                       FM162200 34015G28KT P6SM BKN050
                      TEMPO 1622/1624 SCT050 SCT250
                      BECMG 1701/1703 32010KT FM170300 32010KT
                       P6SM FEW030 SCT060
                      TEMPO 1703/1708 P6SM -SHRA BKN030
                      BECMG 1706/1708 30008KT RMK NXT FCST BY 161500Z=
202406161440 TAF CYOD 161440Z 1615/1712 35015G25KT P6SM FEW030 BKN060 BKN250
                       BECMG 1615/1617 35020G30KT FM162200 34015G28KT
                       P6SM BKN060
                      TEMPO 1622/1624 SCT060 SCT250
                      BECMG 1701/1703 32010KT FM170300 32010KT
                       P6SM FEW030 SCT060
                      TEMPO 1703/1708 P6SM -SHRA BKN030
                      BECMG 1706/1708 30008KT RMK NXT FCST BY 161800Z=
202406161740 TAF CYOD 161740Z 1618/1718 33025G35KT P6SM SCT050 SCT180 BKN210
                       TEMPO 1618/1621 BKN050 FM162100 34018G28KT
                       P6SM BKN050
                      TEMPO 1621/1624 SCT050 SCT210
                      BECMG 1621/1623 33012G22KT FM170300 32012KT
                       P6SM FEW030 SCT060
                      TEMPO 1703/1708 P6SM -SHRA SCT030 BKN060
                       BECMG 1706/1708 33008KT FM171200 33005KT
                       P6SM SCT050 SCT200
                      BECMG 1713/1715 28012KT RMK NXT FCST BY 162100Z=
202406162040 TAF CYOD 162040Z 1621/1718 33020G30KT P6SM BKN070 BKN210
                      TEMPO 1623/1703 SCT070 SCT210
                      BECMG 1623/1701 33012G22KT FM170300 32012KT
                       P6SM FEW030 SCT060
                      TEMPO 1703/1708 P6SM -SHRA SCT030 BKN060
                       BECMG 1706/1708 33008KT FM171200 33005KT
                       P6SM SCT050 SCT200
                      BECMG 1713/1715 28012KT RMK NXT FCST BY 170000Z=
202406162340 TAF CYOD 162340Z 1700/1724 31015G25KT P6SM FEW060 BKN090 BKN210
                       BECMG 1700/1702 33012G22KT FM170300 31012KT
                       P6SM FEW030 BKN060
                      TEMPO 1703/1708 P6SM -SHRA
                      BECMG 1706/1708 30008KT FM171200 30005KT
                       P6SM FEW060 SCT200
                      BECMG 1713/1715 28012KT FM172100 31012G22KT
                       P6SM BKN070 BKN180 RMK NXT FCST BY 170300Z=
202406170240 TAF CYOD 170240Z 1703/1724 32012KT P6SM FEW040 BKN080
                      TEMPO 1703/1708 P6SM -SHRA
                      BECMG 1706/1708 30008KT FM171200 28005KT
                       P6SM FEW060 SCT200
                      BECMG 1714/1716 28012KT FM172100 31012G22KT
                       P6SM BKN070 BKN180 RMK NXT FCST BY 170600Z=
202406170540 TAF CYOD 170540Z 1706/1806 31005KT P6SM OVC060
                      TEMPO 1706/1709 P6SM -SHRA FM170900 29005KT
                       P6SM SCT060 SCT240
                      BECMG 1714/1716 28012KT FM171800 31012G22KT
                       P6SM BKN070 BKN180
                      BECMG 1800/1802 31010KT FM180300 30008KT
                       P6SM SCT050 BKN070 RMK NXT FCST BY 171200Z=
202406171140 TAF CYOD 171140Z 1712/1812 26008KT P6SM SCT050
                      BECMG 1714/1716 28012KT FM171800 31012G22KT
                       P6SM BKN070 BKN180
                      BECMG 1800/1802 31010KT FM180300 30008KT
                       P6SM SCT050 BKN070
                      BECMG 1806/1808 34005KT RMK NXT FCST BY 171500Z=
202406171440 TAF CYOD 171440Z 1715/1812 26008KT P6SM FEW030 FEW110
                      BECMG 1715/1717 28012KT FM171800 31012G22KT
                       P6SM BKN070 BKN180
                      BECMG 1800/1802 31010KT FM180300 30008KT
                       P6SM SCT050 BKN070
                      BECMG 1806/1808 34005KT RMK NXT FCST BY 171800Z=
202406171740 TAF CYOD 171740Z 1718/1818 28012G22KT P6SM BKN050
                      TEMPO 1718/1722 P6SM -SHRA
                      BECMG 1800/1802 31010KT FM180300 30008KT
                       P6SM SCT050 BKN070
                      BECMG 1806/1808 34005KT FM180900 32005KT
                       P6SM BKN030 OVC050
                      BECMG 1814/1816 BKN060 RMK NXT FCST BY 172100Z=
202406172040 TAF CYOD 172040Z 1721/1818 28012G22KT P6SM BKN070
                      TEMPO 1721/1724 P6SM -SHRA
                      BECMG 1800/1802 31010KT FM180300 30008KT
                       P6SM SCT050 BKN070
                      BECMG 1806/1808 34005KT FM180900 32005KT
                       P6SM BKN030 OVC050
                      BECMG 1814/1816 BKN060 RMK NXT FCST BY 180000Z=
202406172340 TAF CYOD 172340Z 1800/1824 27012KT P6SM FEW070 SCT110
                      BECMG 1800/1802 32008KT FM180300 30008KT
                       P6SM SCT050 BKN070 FM180900 32005KT P6SM
                       BKN030 OVC050
                      BECMG 1814/1816 BKN060
                      BECMG 1820/1822 02008KT RMK NXT FCST BY 180300Z=
202406180240 TAF CYOD 180240Z 1803/1824 29008KT P6SM SCT080 FM180500 30008KT
                       P6SM SCT050 BKN080 FM180900 32005KT P6SM
                       BKN030 OVC050
                      BECMG 1814/1816 BKN060
                      BECMG 1820/1822 02008KT RMK NXT FCST BY 180600Z=
202406180540 TAF CYOD 180540Z 1806/1906 28008KT P6SM BKN140 FM180900 32005KT
                       P6SM BKN030 OVC050
                      BECMG 1814/1816 BKN060
                      BECMG 1820/1822 02008KT FM190500 VRB03KT
                       P6SM SCT060 BKN220 RMK NXT FCST BY 181200Z=
202406181123 TAF AMD CYOD 181123Z 1811/1906 32008KT P6SM SCT020 BKN090
                      TEMPO 1811/1815 BKN020 OVC080
                      BECMG 1816/1818 36012KT FM190500 VRB03KT
                       P6SM SCT060 BKN220 RMK NXT FCST BY 181200Z=
202406181140 TAF CYOD 181140Z 1812/1912 32008KT P6SM SCT020 BKN090
                      TEMPO 1812/1815 BKN015 OVC080
                      BECMG 1816/1818 36012KT FM190500 VRB03KT
                       P6SM SCT060 BKN220 RMK NXT FCST BY 181500Z=
202406181440 TAF CYOD 181440Z 1815/1912 32010KT P6SM OVC015
                      BECMG 1816/1818 SCT020 BKN080 FM181800 36012KT
                       P6SM SCT020 BKN080
                      BECMG 1901/1903 VRB03KT FM190500 VRB03KT
                       P6SM SCT060 BKN220
                      BECMG 1908/1910 10005KT RMK NXT FCST BY 181800Z=
202406181527 TAF AMD CYOD 181527Z 1815/1912 32010KT P6SM OVC015
                      TEMPO 1815/1818 SCT020 BKN080 FM181800 36012KT
                       P6SM SCT020 BKN080
                      BECMG 1901/1903 VRB03KT FM190500 VRB03KT
                       P6SM SCT060 BKN220
                      BECMG 1908/1910 10005KT RMK NXT FCST BY 181800Z=
202406181740 TAF CYOD 181740Z 1818/1918 36012KT P6SM SCT025 OVC250
                      TEMPO 1818/1824 BKN025
                      BECMG 1900/1902 VRB03KT BKN060 FM190600 VRB03KT
                       P6SM SCT060 BKN220
                      BECMG 1908/1910 10005KT FM191000 10005KT
                       P6SM SCT010 SCT080
                      PROB30 1910/1913 2SM BR OVC010 RMK NXT FCST
                       BY 182100Z=
202406182040 TAF CYOD 182040Z 1821/1918 03010KT P6SM SCT050 BKN080 BKN250
                      TEMPO 1821/1902 BKN050 OVC080 FM190600 VRB03KT
                       P6SM SCT080 BKN220
                      BECMG 1908/1910 10005KT FM191000 10005KT
                       P6SM SCT010 SCT080
                      PROB30 1910/1913 2SM BR OVC010 RMK NXT FCST
                       BY 190000Z=
202406182340 TAF CYOD 182340Z 1900/1924 32008KT P6SM SCT050 BKN080
                      TEMPO 1900/1902 P6SM -SHRA BKN050 OVC080
                       FM190200 12005KT P6SM BKN080 FM190600 VRB03KT
                       P6SM SCT080 BKN220 FM191000 VRB03KT P6SM
                       SCT010 SCT080
                      PROB30 1910/1913 2SM BR OVC010 FM191300 24005KT
                       P6SM SCT040 FM192000 22005KT P6SM BKN040
                       RMK NXT FCST BY 190300Z=
202406190240 TAF CYOD 190240Z 1903/1924 VRB03KT P6SM BKN080 OVC180 FM190600
                       VRB03KT P6SM SCT080 BKN220 FM191000 VRB03KT
                       P6SM SCT010 SCT080
                      PROB30 1910/1913 2SM BR OVC010 FM191300 24005KT
                       P6SM SCT040 FM192000 22005KT P6SM BKN040
                       RMK NXT FCST BY 190600Z=
202406190540 TAF CYOD 190540Z 1906/2006 VRB03KT P6SM SCT080 BKN250 FM191000
                       VRB03KT P6SM SCT010 SCT080
                      PROB30 1910/1913 2SM BR OVC010 FM191300 24005KT
                       P6SM SCT040 FM192000 22005KT P6SM BKN040
                       RMK NXT FCST BY 191200Z=
202406191140 TAF CYOD 191140Z 1912/2012 VRB03KT P6SM BKN080 BKN220
                      PROB30 1912/1913 2SM BR FM191500 24005KT
                       P6SM FEW050 FM192000 24008KT P6SM SCT060
                       TEMPO 1920/2003 BKN060 FM200900 VRB03KT
                       P6SM FEW060
                      PROB30 2009/2012 2SM BR RMK NXT FCST BY 191500Z=
202406191440 TAF CYOD 191440Z 1915/2012 20005KT P6SM BKN070
                      BECMG 1915/1917 FEW070 FM192000 24008KT P6SM
                       SCT060
                      TEMPO 1920/2003 BKN060 FM200900 VRB03KT P6SM
                       FEW060
                      PROB30 2009/2012 2SM BR RMK NXT FCST BY 191800Z=
202406191740 TAF CYOD 191740Z 1918/2018 20008KT P6SM FEW040 FEW070 SCT250 FM192000
                       24008KT P6SM SCT070
                      TEMPO 1920/2003 BKN070 FM200900 VRB03KT P6SM
                       FEW070
                      PROB30 2009/2012 2SM BR RMK NXT FCST BY 192100Z=
202406192040 TAF CYOD 192040Z 1921/2018 26010KT P6SM SCT070
                      TEMPO 1921/2003 BKN070
                      BECMG 2006/2008 VRB03KT FM200900 VRB03KT
                       P6SM FEW070
                      PROB30 2009/2012 2SM BR RMK NXT FCST BY 200000Z=
202406192340 TAF CYOD 192340Z 2000/2024 26010KT P6SM SCT070
                      TEMPO 2000/2003 BKN070
                      BECMG 2006/2008 VRB03KT FM200900 VRB03KT
                       P6SM FEW070
                      PROB30 2009/2012 2SM BR
                      BECMG 2020/2022 15008KT RMK NXT FCST BY 200300Z=
202406200240 TAF CYOD 200240Z 2003/2024 24008KT P6SM SCT070
                      BECMG 2006/2008 VRB03KT FM200900 VRB03KT
                       P6SM FEW070
                      PROB30 2009/2012 2SM BR
                      BECMG 2020/2022 15008KT RMK NXT FCST BY 200600Z=
202406200540 TAF CYOD 200540Z 2006/2106 24005KT P6SM SKC
                      BECMG 2006/2008 VRB03KT FM200900 VRB03KT
                       P6SM FEW070
                      PROB30 2009/2012 2SM BR
                      BECMG 2019/2021 15008KT RMK NXT FCST BY 201200Z=
202406201140 TAF CYOD 201140Z 2012/2112 VRB03KT P6SM FEW090 FM201900 16008KT
                       P6SM SCT070
                      TEMPO 2019/2024 BKN070 FM210300 12005KT P6SM
                       FEW070 RMK NXT FCST BY 201500Z=
202406201440 TAF CYOD 201440Z 2015/2112 VRB03KT P6SM FEW130 FM201900 16008KT
                       P6SM SCT070
                      TEMPO 2019/2024 BKN070 FM210300 12005KT P6SM
                       FEW070 RMK NXT FCST BY 201800Z=
202406201740 TAF CYOD 201740Z 2018/2118 16005KT P6SM FEW050 FEW110 FM201900
                       16008KT P6SM SCT070
                      TEMPO 2019/2024 BKN070 FM210300 12005KT P6SM
                       FEW070 FM211200 VRB03KT P6SM BKN080
                      BECMG 2116/2118 12008KT RMK NXT FCST BY 202100Z=
202406202040 TAF CYOD 202040Z 2021/2118 18008KT P6SM SCT070
                      TEMPO 2021/2024 BKN070 FM210300 12005KT P6SM
                       FEW070 FM211200 VRB03KT P6SM BKN080
                      BECMG 2116/2118 12008KT RMK NXT FCST BY 210000Z=
202406202340 TAF CYOD 202340Z 2100/2124 16005KT P6SM SCT080
                      TEMPO 2100/2103 BKN080 FM210300 VRB03KT P6SM
                       FEW080 FM211200 VRB03KT P6SM BKN080
                      BECMG 2116/2118 14008KT RMK NXT FCST BY 210300Z=
202406210240 TAF CYOD 210240Z 2103/2124 VRB03KT P6SM FEW080 FM211200 VRB03KT
                       P6SM BKN080
                      BECMG 2116/2118 14008KT RMK NXT FCST BY 210600Z=
202406210540 TAF CYOD 210540Z 2106/2206 VRB03KT P6SM FEW080 FM211200 VRB03KT
                       P6SM BKN080
                      BECMG 2116/2118 14008KT FM212000 13010KT
                       P6SM BKN080
                      TEMPO 2120/2202 P6SM -SHRA BKN040 OVC080
                       RMK NXT FCST BY 211200Z=
202406211140 TAF CYOD 211140Z 2112/2212 VRB03KT P6SM FEW080
                      BECMG 2115/2117 14005KT FM211800 14008KT
                       P6SM BKN080 FM212000 13010KT P6SM BKN080
                       TEMPO 2120/2204 P6SM -SHRA BKN040 OVC080
                       PROB30 2120/2204 VRB15G25KT 4SM -TSRA BR
                       BKN040CB FM220400 15005KT P6SM SCT080
                      PROB30 2204/2212 1SM BR RMK NXT FCST BY 211500Z=
202406211440 TAF CYOD 211440Z 2115/2212 VRB03KT P6SM FEW090
                      BECMG 2115/2117 13005KT FM211800 14008KT
                       P6SM BKN080 FM212000 14010KT P6SM BKN080
                       TEMPO 2120/2204 P6SM -SHRA BKN040 OVC080
                       PROB30 2120/2204 VRB15G25KT 4SM -TSRA BR
                       BKN040CB FM220400 VRB03KT P6SM SCT080
                      PROB30 2204/2212 1SM BR RMK NXT FCST BY 211800Z=
202406211740 TAF CYOD 211740Z 2118/2218 14010KT P6SM SCT070 SCT250 FM212000
                       14010KT P6SM BKN070
                      TEMPO 2120/2204 P6SM -SHRA BKN040 OVC070
                       PROB30 2120/2204 VRB15G25KT 4SM -TSRA BR
                       BKN040CB FM220400 14005KT P6SM SCT070 FM220900
                       VRB03KT P6SM FEW070
                      PROB30 2209/2214 1SM BR FM221400 VRB03KT
                       P6SM FEW070 RMK NXT FCST BY 212100Z=
202406212040 TAF CYOD 212040Z 2121/2218 12008KT P6SM SCT050 BKN080
                      TEMPO 2121/2204 P6SM -SHRA BKN050 OVC080
                       PROB30 2121/2204 VRB15G25KT 4SM -TSRA BR
                       BKN050CB FM220400 14005KT P6SM SCT080 FM220900
                       VRB03KT P6SM FEW080
                      PROB30 2209/2213 1SM BR FM221400 VRB03KT
                       P6SM FEW080 RMK NXT FCST BY 220000Z=
202406212340 TAF CYOD 212340Z 2200/2224 12008KT P6SM SCT050 BKN110
                      TEMPO 2200/2204 P6SM -SHRA BKN050 OVC080
                       PROB30 2200/2204 VRB15G25KT 4SM -TSRA BR
                       BKN050CB FM220400 14005KT P6SM SCT080 FM220900
                       VRB03KT P6SM FEW080
                      PROB30 2209/2213 1SM BR FM221400 VRB03KT
                       P6SM FEW080
                      BECMG 2216/2218 11005KT RMK NXT FCST BY 220300Z=
202406220240 TAF CYOD 220240Z 2203/2224 VRB03KT P6SM FEW130 SCT220 FM220900
                       VRB03KT P6SM FEW080
                      PROB30 2209/2213 1SM BR FM221400 VRB03KT
                       P6SM FEW080
                      BECMG 2216/2218 11005KT RMK NXT FCST BY 220600Z=
202406220540 TAF CYOD 220540Z 2206/2306 VRB03KT P6SM FEW120
                      PROB30 2209/2213 1SM BR FM221400 VRB03KT
                       P6SM FEW080
                      BECMG 2216/2218 11005KT
                      BECMG 2223/2301 15008KT RMK NXT FCST BY 221200Z=
202406221140 TAF CYOD 221140Z 2212/2312 VRB03KT P6SM FEW120 SCT220
                      PROB30 2212/2213 1SM BR FM221400 VRB03KT
                       P6SM FEW080
                      BECMG 2216/2218 11005KT
                      BECMG 2223/2301 15008KT RMK NXT FCST BY 221500Z=
202406221440 TAF CYOD 221440Z 2215/2312 VRB03KT P6SM FEW250
                      BECMG 2216/2218 11005KT
                      BECMG 2223/2301 15008KT RMK NXT FCST BY 221800Z=
202406221740 TAF CYOD 221740Z 2218/2318 21005KT P6SM FEW050 FEW250
                      BECMG 2223/2301 15008KT FM231500 16010KT
                       P6SM -SHRA BKN060 RMK NXT FCST BY 222100Z=
202406222040 TAF CYOD 222040Z 2221/2318 23005KT P6SM SCT050 BKN250
                      BECMG 2223/2301 15008KT FEW050 FM231500 16010KT
                       P6SM -SHRA BKN060 RMK NXT FCST BY 230000Z=
202406222340 TAF CYOD 222340Z 2300/2324 23005KT P6SM SCT050 BKN250
                      BECMG 2300/2301 15008KT FEW050 FM231500 16010KT
                       P6SM SCT060
                      TEMPO 2315/2324 P6SM -SHRA BKN060
                      PROB30 2319/2324 5SM TSRA BR BKN060CB RMK
                       NXT FCST BY 230300Z=
202406230240 TAF CYOD 230240Z 2303/2324 VRB03KT P6SM FEW060 FEW250 FM231500
                       16010KT P6SM SCT060
                      TEMPO 2315/2324 P6SM -SHRA BKN060
                      PROB30 2319/2324 5SM TSRA BR BKN060CB RMK
                       NXT FCST BY 230600Z=
202406230540 TAF CYOD 230540Z 2306/2406 VRB03KT P6SM FEW250 FM231500 16010KT
                       P6SM SCT060
                      TEMPO 2315/2402 P6SM -SHRA BKN060
                      PROB30 2320/2402 5SM TSRA BR BKN060CB FM240200
                       24010KT P6SM BKN120 RMK NXT FCST BY 231200Z=
202406231140 TAF CYOD 231140Z 2312/2412 13006KT P6SM FEW080 SCT180 BKN250 FM231500
                       16010G20KT P6SM FEW025 SCT060 OVC250
                      TEMPO 2315/2320 P6SM -SHRA SCT025 BKN060
                       OVC250 FM232000 18008KT P6SM BKN050 OVC250
                       TEMPO 2320/2402 P6SM -SHRA
                      PROB30 2320/2402 5SM TSRA BR BKN050CB FM240200
                       24006KT P6SM SCT060 BKN180 FM240900 26008KT
                       P6SM BKN020 BKN120 RMK NXT FCST BY 231500Z=
202406231440 TAF CYOD 231440Z 2315/2412 12008KT P6SM FEW025 BKN060 OVC090
                      TEMPO 2315/2320 P6SM -SHRA SCT025 OVC060
                       BECMG 2316/2318 15012KT FM232000 18008KT
                       P6SM BKN050 OVC250
                      TEMPO 2320/2402 P6SM -SHRA
                      PROB30 2320/2402 5SM TSRA BR BKN050CB FM240200
                       24006KT P6SM SCT060 BKN180 FM240900 26008KT
                       P6SM BKN020 BKN120 RMK NXT FCST BY 231800Z=
202406231740 TAF CYOD 231740Z 2318/2418 08012KT P6SM FEW025 BKN060 OVC090
                      TEMPO 2318/2320 P6SM -SHRA BKN025 OVC060
                       FM232000 14008KT P6SM BKN050 BKN250
                      TEMPO 2320/2402 P6SM -SHRA
                      PROB30 2320/2402 VRB15G25KT 5SM TSRA BR BKN050CB
                       BKN250 FM240200 24006KT P6SM SCT060 BKN180
                       TEMPO 2402/2409 P6SM -SHRA BKN060 OVC180
                       PROB30 2402/2409 VRB15G25KT P6SM -TSRA BKN050CB
                       BKN250 FM240900 26008KT P6SM BKN020 BKN120
                       FM241200 27010KT P6SM FEW020 OVC130 FM241500
                       28015G25KT P6SM BKN030 OVC160 RMK NXT FCST
                       BY 232100Z=
202406232040 TAF CYOD 232040Z 2321/2418 10008KT P6SM BKN050
                      TEMPO 2321/2402 P6SM -SHRA
                      PROB30 2321/2402 VRB15G25KT 5SM TSRA BR BKN050CB
                       FM240200 24006KT P6SM SCT050 BKN180
                      TEMPO 2402/2409 P6SM -SHRA BKN050 OVC180
                       PROB30 2402/2409 VRB15G25KT P6SM -TSRA BKN050CB
                       BKN250 FM240900 26008KT P6SM BKN020 BKN120
                       FM241200 27010KT P6SM FEW020 OVC130 FM241500
                       28015G25KT P6SM BKN030 OVC160 RMK NXT FCST
                       BY 240000Z=
202406232340 TAF CYOD 232340Z 2400/2424 01008KT P6SM SCT050 BKN150
                      TEMPO 2400/2402 P6SM -SHRA
                      PROB30 2400/2402 VRB20G35KT 3SM TSRA BR BKN050CB
                       FM240200 35008KT P6SM -SHRA SCT050 BKN180
                       TEMPO 2402/2404 5SM -SHRA BKN050 OVC180
                       PROB40 2402/2404 VRB20G35KT 2SM TSRA BKN050CB
                       BKN250 FM240400 27008KT P6SM SCT030 BKN050
                       TEMPO 2404/2409 P6SM -SHRA BKN030
                      PROB30 2404/2407 VRB15G25KT 3SM TSRA BR BKN015
                       BKN030CB FM240900 27010KT P6SM SCT015 BKN025
                       BKN150 FM241400 27015G25KT P6SM FEW015 BKN025
                       BKN070 FM241800 27018G28KT P6SM BKN040 BKN160
                       RMK NXT FCST BY 240300Z=
202406240240 TAF CYOD 240240Z 2403/2424 33010KT P6SM FEW050 BKN180
                      TEMPO 2403/2406 VRB20G35KT 5SM -SHRA BKN050
                       OVC180
                      PROB40 2403/2406 2SM TSRA BKN050CB BKN250
                       FM240530 28008KT P6SM SCT030 BKN050
                      TEMPO 2405/2409 P6SM -SHRA BKN030
                      PROB30 2405/2408 VRB15G25KT 3SM TSRA BR BKN015
                       BKN030CB FM240900 27010KT P6SM SCT015 BKN025
                       BKN150 FM241400 27015G25KT P6SM FEW015 BKN025
                       BKN070 FM241800 27018G28KT P6SM BKN040 BKN160
                       RMK NXT FCST BY 240600Z=
202406240253 TAF AMD CYOD 240253Z 2403/2424 33010KT P6SM FEW050 BKN180
                      TEMPO 2403/2406 VRB20G35KT 2SM TSRA BKN050CB
                       BKN250 FM240545 28008KT P6SM SCT030 BKN050
                       TEMPO 2405/2409 P6SM -SHRA BKN030
                      PROB30 2405/2408 VRB15G25KT 3SM TSRA BR BKN015
                       BKN030CB FM240900 27010KT P6SM SCT015 BKN025
                       BKN150 FM241400 27015G25KT P6SM FEW015 BKN025
                       BKN070 FM241800 27018G28KT P6SM BKN040 BKN160
                       RMK NXT FCST BY 240600Z=
202406240540 TAF CYOD 240540Z 2406/2506 28010KT P6SM SCT050 SCT150
                      TEMPO 2406/2409 P6SM -SHRA BKN050 FM240900
                       27010KT P6SM FEW015 BKN030 BKN100
                      TEMPO 2409/2414 5SM BR OVC015
                      BECMG 2412/2414 27015G25KT FM241400 27015G25KT
                       P6SM BKN030 BKN070 FM241800 27018G28KT P6SM
                       BKN040 BKN160 FM242200 27015G25KT 6SM -SHRA
                       BR FEW020 BKN030 OVC060
                      BECMG 2500/2502 29010G20KT FM250200 29010G20KT
                       4SM -SHRA BR BKN020 OVC040 RMK NXT FCST
                       BY 241200Z=
202406241140 TAF CYOD 241140Z 2412/2512 26010KT P6SM FEW025 BKN090 BKN250
                      BECMG 2412/2414 27015G25KT FM241400 27015G25KT
                       P6SM BKN025 BKN090 FM241800 27018G28KT P6SM
                       BKN040 BKN160 FM242200 27015G25KT 6SM -SHRA
                       BR FEW020 BKN030 OVC060
                      BECMG 2500/2502 29012G22KT FM250200 29012KT
                       4SM -SHRA BR BKN015 OVC040 RMK NXT FCST
                       BY 241500Z=
202406241440 TAF CYOD 241440Z 2415/2512 27012G22KT P6SM FEW040 BKN100
                      TEMPO 2415/2418 P6SM -SHRA FM241800 27015G25KT
                       P6SM BKN040 BKN160 FM242200 27012G22KT 6SM
                       -SHRA BR FEW020 BKN030 OVC060 FM250200 29010KT
                       4SM -SHRA BR BKN015 OVC040 RMK NXT FCST
                       BY 241800Z=
202406241740 TAF CYOD 241740Z 2418/2518 27015G25KT P6SM BKN030 BKN060
                      TEMPO 2418/2422 P6SM -SHRA FM242200 27012G22KT
                       P6SM SCT015 BKN030 OVC060
                      TEMPO 2422/2502 P6SM -SHRA BKN015 OVC030
                       FM250200 29010KT 4SM -SHRA BR BKN015 OVC030
                       FM251400 33008KT P6SM -SHRA FEW020 BKN050
                       OVC200 RMK NXT FCST BY 242100Z=
202406242040 TAF CYOD 242040Z 2421/2518 27012G22KT P6SM SCT015 OVC060
                      TEMPO 2421/2502 P6SM -SHRA BKN015 OVC060
                       FM250200 29010KT 4SM -SHRA BR BKN010 OVC030
                       FM251400 33008KT P6SM -SHRA FEW020 BKN050
                       OVC200 RMK NXT FCST BY 250000Z=
202406242147 TAF AMD CYOD 242147Z 2421/2518 27012G22KT P6SM SCT015 OVC060
                      TEMPO 2421/2502 4SM -SHRA BR BKN015 OVC060
                       FM250200 29010KT 4SM -SHRA BR BKN010 OVC030
                       FM251400 33008KT P6SM -SHRA FEW020 BKN050
                       OVC200 RMK NXT FCST BY 250000Z=
202406242300 TAF AMD CYOD 250157Z 2501/2524 26015G25KT 4SM -SHRA BKN012 OVC025
                       TEMPO 2501/2504 P6SM -SHRA SCT020 OVC040
                       FM250400 28010G20KT P6SM -SHRA SCT012 OVC020
                       TEMPO 2504/2514 3SM -SHRA BR SCT008 OVC012
                       FM251400 34008KT P6SM -SHRA FEW020 BKN025
                       OVC200 FM251700 03010KT P6SM BKN050 RMK
                       NXT FCST BY 250300Z=
202406242340 TAF CYOD 242340Z 2500/2524 26015G25KT 4SM -SHRA BKN015 OVC025
                      TEMPO 2500/2504 6SM -SHRA BR SCT020 OVC040
                       FM250400 28010G20KT P6SM -SHRA SCT012 OVC020
                       TEMPO 2504/2514 3SM -SHRA BR SCT008 OVC012
                       FM251400 34008KT P6SM -SHRA FEW020 BKN025
                       OVC200 FM251700 03010KT P6SM BKN050 RMK
                       NXT FCST BY 250300Z=
202406250157 TAF AMD CYOD 250157Z 2501/2524 26015G25KT 4SM -SHRA BKN012 OVC025
                       TEMPO 2501/2504 P6SM -SHRA SCT020 OVC040
                       FM250400 28010G20KT P6SM -SHRA SCT012 OVC020
                       TEMPO 2504/2514 3SM -SHRA BR SCT008 OVC012
                       FM251400 34008KT P6SM -SHRA FEW020 BKN025
                       OVC200 FM251700 03010KT P6SM BKN050 RMK
                       NXT FCST BY 250300Z=
202406250240 TAF CYOD 250240Z 2503/2524 27015G25KT 4SM -SHRA BKN012 OVC025
                      TEMPO 2503/2504 P6SM -SHRA OVC020 FM250400
                       28010G20KT P6SM -SHRA SCT012 OVC020
                      TEMPO 2504/2514 3SM -SHRA BR SCT008 OVC012
                       FM251400 34008KT P6SM -SHRA FEW020 BKN025
                       OVC200 FM251700 03010KT P6SM BKN050 RMK
                       NXT FCST BY 250600Z=
202406250448 TAF AMD CYOD 250448Z 2504/2524 28010G20KT P6SM -SHRA SCT012 OVC025
                       TEMPO 2504/2514 3SM -SHRA BR SCT008 OVC012
                       FM251400 34008KT P6SM -SHRA FEW020 BKN025
                       OVC200 FM251700 03010KT P6SM BKN050 RMK
                       NXT FCST BY 250600Z=
202406250540 TAF CYOD 250540Z 2506/2606 28010G20KT P6SM -SHRA SCT012 OVC025
                       TEMPO 2506/2514 3SM -SHRA BR SCT008 OVC012
                       BECMG 2512/2514 02008KT FM251400 02008KT
                       P6SM -SHRA FEW020 BKN025 OVC200 FM251700
                       04010KT P6SM BKN050
                      BECMG 2518/2520 33008KT RMK NXT FCST BY 251200Z=
202406251140 TAF CYOD 251140Z 2512/2612 30008KT P6SM BKN012 OVC025
                      TEMPO 2512/2517 SCT012 OVC025 FM251700 01008KT
                       P6SM FEW015 SCT240 FM252100 34008KT P6SM
                       BKN060
                      BECMG 2602/2604 VRB03KT RMK NXT FCST BY 251500Z=
202406251440 TAF CYOD 251440Z 2515/2612 02010KT P6SM SCT012 OVC030
                      TEMPO 2515/2517 P6SM -SHRA BKN012 OVC030
                       FM251700 01008KT P6SM FEW015 SCT240 FM252100
                       34008KT P6SM BKN060
                      BECMG 2602/2604 VRB03KT RMK NXT FCST BY 251800Z=
202406251740 TAF CYOD 251740Z 2518/2618 03008KT P6SM FEW025 SCT240 FM252100
                       34008KT P6SM BKN060
                      BECMG 2602/2604 VRB03KT FM261600 14005KT
                       P6SM SCT050 BKN240 RMK NXT FCST BY 252100Z=
202406252040 TAF CYOD 252040Z 2521/2618 03005KT P6SM BKN070
                      TEMPO 2521/2602 P6SM -SHRA OVC050
                      BECMG 2602/2604 VRB03KT FM261600 14005KT
                       P6SM SCT050 BKN240 RMK NXT FCST BY 260000Z=
202406252340 TAF CYOD 252340Z 2600/2624 31006KT P6SM BKN070
                      TEMPO 2600/2604 P6SM -SHRA OVC050
                      BECMG 2602/2604 VRB03KT FM260900 VRB03KT
                       P6SM SCT060 FM261400 VRB03KT P6SM SCT040
                       BKN240 FM262100 15005KT P6SM SCT050 BKN090
                       OVC200 RMK NXT FCST BY 260300Z=
202406260240 TAF CYOD 260240Z 2603/2624 VRB03KT P6SM SCT070 FM260900 VRB03KT
                       P6SM FEW040 SCT070 FM261400 VRB03KT P6SM
                       SCT040 BKN240 FM262100 15005KT P6SM SCT050
                       BKN090 OVC200 RMK NXT FCST BY 260600Z=
202406260540 TAF CYOD 260540Z 2606/2706 VRB03KT P6SM SCT070 FM260900 VRB03KT
                       P6SM FEW040 SCT070 FM261400 VRB03KT P6SM
                       SCT040 BKN080 BKN240 RMK NXT FCST BY 261200Z=
202406261140 TAF CYOD 261140Z 2612/2712 VRB03KT P6SM FEW060 FEW180 FM261400
                       VRB03KT P6SM SCT040 BKN060 BKN240
                      TEMPO 2621/2705 P6SM -SHRA BKN040 OVC060
                       RMK NXT FCST BY 261500Z=
202406261200 TAF CYOD 2606/2706 VRB03KT P6SM SCT070 FM260900 VRB03KT P6SM FEW040
                       SCT070 FM261400 VRB03KT P6SM SCT040 BKN080
                       BKN240 RMK NXT FCST BY 261200Z=
202406261440 TAF CYOD 261440Z 2615/2712 VRB03KT P6SM SCT060 BKN100 BKN210
                      TEMPO 2621/2705 P6SM -SHRA BKN060 OVC100
                       RMK NXT FCST BY 261800Z=
202406261557 TAF AMD CYOD 242147Z 2421/2518 27012G22KT P6SM SCT015 OVC060
                      TEMPO 2421/2502 4SM -SHRA BR BKN015 OVC060
                       FM250200 29010KT 4SM -SHRA BR BKN010 OVC030
                       FM251400 33008KT P6SM -SHRA FEW020 BKN050
                       OVC200 RMK NXT FCST BY 250000Z=
202406261600 TAF AMD CYOD 242147Z 2421/2518 27012G22KT P6SM SCT015 OVC060
                      TEMPO 2421/2502 4SM -SHRA BR BKN015 OVC060
                       FM250200 29010KT 4SM -SHRA BR BKN010 OVC030
                       FM251400 33008KT P6SM -SHRA FEW020 BKN050
                       OVC200 RMK NXT FCST BY 250000Z=
202406261603 TAF CYOD 242340Z 2500/2524 26015G25KT 4SM -SHRA BKN015 OVC025
                      TEMPO 2500/2504 6SM -SHRA BR SCT020 OVC040
                       FM250400 28010G20KT P6SM -SHRA SCT012 OVC020
                       TEMPO 2504/2514 3SM -SHRA BR SCT008 OVC012
                       FM251400 34008KT P6SM -SHRA FEW020 BKN025
                       OVC200 FM251700 03010KT P6SM BKN050 RMK
                       NXT FCST BY 250300Z=
202406261605 TAF CYOD 242340Z 2500/2524 26015G25KT 4SM -SHRA BKN015 OVC025
                      TEMPO 2500/2504 6SM -SHRA BR SCT020 OVC040
                       FM250400 28010G20KT P6SM -SHRA SCT012 OVC020
                       TEMPO 2504/2514 3SM -SHRA BR SCT008 OVC012
                       FM251400 34008KT P6SM -SHRA FEW020 BKN025
                       OVC200 FM251700 03010KT P6SM BKN050 RMK
                       NXT FCST BY 250300Z=
202406261740 TAF CYOD 261740Z 2618/2718 VRB03KT P6SM SCT060 BKN100 BKN210
                      TEMPO 2621/2709 P6SM -SHRA BKN060 OVC100
                       FM271600 09008KT P6SM FEW040 BKN200 RMK
                       NXT FCST BY 262100Z=
202406262040 TAF CYOD 262040Z 2621/2718 VRB03KT P6SM SCT060 BKN100 BKN210
                      TEMPO 2621/2709 P6SM -SHRA BKN060 OVC100
                       FM271600 09008KT P6SM FEW040 BKN200 RMK
                       NXT FCST BY 270000Z=
202406262340 TAF CYOD 262340Z 2700/2724 VRB03KT P6SM SCT060 BKN100 OVC200
                      TEMPO 2700/2712 P6SM -SHRA BKN050 FM271200
                       09005KT P6SM FEW060 BKN200 FM272000 11008G18KT
                       P6SM BKN040 BKN100 RMK NXT FCST BY 270300Z=
202406270240 TAF CYOD 270240Z 2703/2724 VRB03KT P6SM SCT060 BKN100
                      TEMPO 2703/2712 P6SM -SHRA FEW030 BKN050
                       FM271200 09005KT P6SM FEW060 BKN200 FM272000
                       11008G18KT P6SM BKN040 BKN100 RMK NXT FCST
                       BY 270600Z=
202406270540 TAF CYOD 270540Z 2706/2806 VRB03KT P6SM -SHRA BKN050
                      TEMPO 2706/2712 P6SM NSW SCT050 BKN100 FM271200
                       11005KT P6SM SCT080 BKN200 FM271900 09008G18KT
                       P6SM BKN040 BKN100
                      TEMPO 2719/2723 P6SM -SHRA BKN025 FM280200
                       07010KT P6SM FEW060 SCT100 FM280500 04012G22KT
                       P6SM FEW240 RMK NXT FCST BY 271200Z=
202406271140 TAF CYOD 271140Z 2712/2812 09005KT P6SM FEW050 BKN080
                      TEMPO 2712/2719 P6SM -SHRA BKN050 FM271900
                       09010KT P6SM SCT030 BKN070
                      TEMPO 2719/2723 P6SM -SHRA BKN030 FM280200
                       07010KT P6SM FEW060 SCT100 FM280500 04012G22KT
                       P6SM FEW240 RMK NXT FCST BY 271500Z=
202406271440 TAF CYOD 271440Z 2715/2812 06005KT P6SM BKN070 FM271900 09010KT
                       P6SM SCT030 BKN070
                      TEMPO 2719/2723 P6SM -SHRA BKN030 FM280200
                       07010KT P6SM FEW060 SCT100 FM280500 04012G22KT
                       P6SM FEW240 RMK NXT FCST BY 271800Z=
202406271740 TAF CYOD 271740Z 2718/2818 07010KT P6SM BKN060 OVC080
                      TEMPO 2718/2723 P6SM -SHRA BKN040 FM280200
                       05010KT P6SM SCT060 BKN200 FM280500 04012G22KT
                       P6SM FEW240 FM281300 04010KT P6SM SKC RMK
                       NXT FCST BY 272100Z=
202406272040 TAF CYOD 272040Z 2721/2818 07010KT P6SM FEW030 SCT080 OVC100
                      TEMPO 2721/2723 P6SM -SHRA SCT030 BKN080
                       FM280200 05010KT P6SM SCT060 BKN200 FM280500
                       04012G22KT P6SM FEW240 FM281300 04010KT
                       P6SM SKC RMK NXT FCST BY 280000Z=
202406272340 TAF CYOD 272340Z 2800/2824 09010KT P6SM FEW100 SCT150 OVC200 FM280500
                       04012G22KT P6SM FEW150 BKN250 FM281000 04008KT
                       P6SM SCT250
                      BECMG 2821/2823 VRB03KT SKC RMK NXT FCST
                       BY 280300Z=
202406280240 TAF CYOD 280240Z 2803/2824 09008KT P6SM FEW100 OVC250 FM280500
                       04012KT P6SM FEW150 BKN250 FM281000 04008KT
                       P6SM SCT250
                      BECMG 2821/2823 VRB03KT SKC RMK NXT FCST
                       BY 280600Z=
202406280540 TAF CYOD 280540Z 2806/2906 02012KT P6SM FEW150 BKN250 FM281000
                       03008KT P6SM SCT250
                      BECMG 2821/2823 VRB03KT SKC RMK NXT FCST
                       BY 281200Z=
202406281140 TAF CYOD 281140Z 2812/2912 03010KT P6SM BKN250 FM281700 03010KT
                       P6SM FEW060 FM290000 VRB03KT P6SM SKC RMK
                       NXT FCST BY 281500Z=
202406281440 TAF CYOD 281440Z 2815/2912 03012KT P6SM FEW060 FEW240 FM290000
                       VRB03KT P6SM SKC RMK NXT FCST BY 281800Z=
202406281740 TAF CYOD 281740Z 2818/2918 02012KT P6SM FEW050 FEW220 FM290000
                       VRB03KT P6SM SKC FM291700 17010KT P6SM FEW060
                       RMK NXT FCST BY 282100Z=
202406282040 TAF CYOD 282040Z 2821/2918 03010KT P6SM FEW050 FM290000 VRB03KT
                       P6SM SKC FM291700 17010KT P6SM FEW060 RMK
                       NXT FCST BY 290000Z=
202406282340 TAF CYOD 282340Z 2900/2924 05008KT P6SM SKC
                      BECMG 2900/2902 VRB03KT FM291700 18010KT
                       P6SM SCT060 RMK NXT FCST BY 290300Z=
202406290240 TAF CYOD 290240Z 2903/2924 VRB03KT P6SM SKC FM291700 18010KT P6SM
                       SCT060 RMK NXT FCST BY 290600Z=
202406290540 TAF CYOD 290540Z 2906/3006 VRB03KT P6SM SKC FM291700 18010KT P6SM
                       SCT060
                      BECMG 3000/3002 16008KT FEW060 RMK NXT FCST
                       BY 291200Z=
202406291140 TAF CYOD 291140Z 2912/3012 VRB03KT P6SM FEW180 FM291700 16010KT
                       P6SM SCT060 FM300200 16008KT P6SM SKC RMK
                       NXT FCST BY 291500Z=
202406291440 TAF CYOD 291440Z 2915/3012 VRB03KT P6SM FEW090 FEW240 FM291700
                       16010KT P6SM SCT060 FM300200 16008KT P6SM
                       SKC RMK NXT FCST BY 291800Z=
202406291740 TAF CYOD 291740Z 2918/3018 16010KT P6SM SCT060
                      BECMG 3001/3003 12005KT FM301200 17008KT
                       P6SM SKC RMK NXT FCST BY 292100Z=
202406292040 TAF CYOD 292040Z 2921/3018 15008KT P6SM SCT060
                      BECMG 3001/3003 12005KT FM301200 17008KT
                       P6SM SKC RMK NXT FCST BY 300000Z=
202406292342 TAF CYOD 292342Z 3000/3024 15005KT P6SM FEW070 SCT250 FM301200
                       17008KT P6SM SKC
                      BECMG 3016/3018 SCT060 RMK NXT FCST BY 300300Z=
202406300240 TAF CYOD 300240Z 3003/3024 14005KT P6SM FEW070 SCT250 FM301200
                       17008KT P6SM SKC
                      BECMG 3016/3018 SCT060 RMK NXT FCST BY 300600Z=
202406300540 TAF CYOD 300540Z 3006/0106 13005KT P6SM FEW080 SCT250 FM301200
                       17008KT P6SM SKC
                      BECMG 3016/3018 FEW060 FM010500 13005KT P6SM
                       SCT060 OVC150 RMK NXT FCST BY 301200Z=
202406301140 TAF CYOD 301140Z 3012/0112 13005KT P6SM FEW100 FEW250
                      BECMG 3016/3018 17008KT FEW060 FM010500 13005KT
                       P6SM SCT060 OVC150 RMK NXT FCST BY 301500Z=
202406301440 TAF CYOD 301440Z 3015/0112 13005KT P6SM SCT080
                      BECMG 3016/3018 17008KT FM010500 13005KT
                       P6SM SCT060 OVC150 RMK NXT FCST BY 301800Z=
202406301740 TAF CYOD 301740Z 3018/0118 19008KT P6SM FEW080 BKN250 FM010500
                       13005KT P6SM BKN060 OVC150 FM011400 VRB03KT
                       P6SM SCT070 BKN150 RMK NXT FCST BY 302100Z=
202406302040 TAF CYOD 302040Z 3021/0118 16012KT P6SM FEW060 SCT250 FM010500
                       13005KT P6SM BKN060 OVC150 FM011400 VRB03KT
                       P6SM SCT070 BKN150 RMK NXT FCST BY 010000Z=
202406302340 TAF CYOD 302340Z 0100/0124 16012KT P6SM FEW060 SCT250 FM010500
                       13005KT P6SM BKN060 OVC150 FM011400 VRB03KT
                       P6SM SCT070 BKN150 FM011800 VRB03KT P6SM
                       SCT040 BKN060
                      TEMPO 0118/0124 P6SM -SHRA BKN040 OVC060
                       RMK NXT FCST BY 010300Z=
