<!DOCTYPE html PUBLIC "-//W3C//DTD HTML 4.01 Transitional//EN">
<!-- saved from url=(0177)https://www.ogimet.com/display_metars2.php?lang=en&lugar=CYOD&tipo=ALL&ord=DIR&nil=SI&fmt=txt&ano=2024&mes=08&day=01&hora=00&anof=2024&mesf=08&dayf=31&horaf=00&minf=59&send=send -->
<html><head><meta http-equiv="Content-Type" content="text/html; charset=UTF-8">
  <title>Display metars</title>
  
  <meta name="Author" content="G. Ballester">
  <meta name="GENERATOR" content="Quanta Plus">
  <meta name="robots" content="index,nofollow">
  <meta name="keywords" content="metar, speci, taf, weather reports">
  <meta name="viewport" content="width=device-width, initial-scale=1">
  <link rel="stylesheet" href="./DisplayMetarsCYOD_August_files/ogimet.css">
  <link rel="stylesheet" type="text/css" href="./DisplayMetarsCYOD_August_files/cookieconsent.min.css">
<script src="./DisplayMetarsCYOD_August_files/cookieconsent.min.js.download"></script>
<script>
window.addEventListener("load", function(){
window.cookieconsent.initialise({
  "palette": {
    "popup": {
      "background": "#eb6c44",
      "text": "#ffffff"
    },
    "button": {
      "background": "#f5d948"
    }
  },
  "theme": "classic",
  "position": "top",
  "content": {
    "message": "Las cookies de este sitio web se usan para personalizar el contenido y los anuncios, ofrecer funciones de redes sociales y analizar el tráfico. Ademas, compartimos el uso que haga del sitio web con nuestros partners de redes sociales, publicidad y análisis web, quienes pueden combinarla con otra información que les haya proporcionado o que hayan recopilado a partir del uso que haya hecho de sus servicios. Si continua navegando en estas páginas consideramos que acepta su uso. ",
    "dismiss": "Entendido",
    "link": "Saber más",
    "href": "/cookiespolicy.phtml"
  }
})});
</script>
<style></style></head>

<body><div role="dialog" aria-live="polite" aria-label="cookieconsent" aria-describedby="cookieconsent:desc" class="cc-window cc-banner cc-type-info cc-theme-classic cc-top cc-color-override-1519961192 cc-invisible" style="display: none;"><!--googleoff: all--><span id="cookieconsent:desc" class="cc-message">Las cookies de este sitio web se usan para personalizar el contenido y los anuncios, ofrecer funciones de redes sociales y analizar el tráfico. Ademas, compartimos el uso que haga del sitio web con nuestros partners de redes sociales, publicidad y análisis web, quienes pueden combinarla con otra información que les haya proporcionado o que hayan recopilado a partir del uso que haya hecho de sus servicios. Si continua navegando en estas páginas consideramos que acepta su uso.  <a aria-label="learn more about cookies" role="button" tabindex="0" class="cc-link" href="https://www.ogimet.com/cookiespolicy.phtml" target="_blank">Saber más</a></span><div class="cc-compliance"><a aria-label="dismiss cookie message" role="button" tabindex="0" class="cc-btn cc-dismiss">Entendido</a></div><!--googleon: all--></div>
  <pre>##########################################################
# Query made at 10/28/2024 11:50:07 UTC
# Time interval: from 08/01/2024 00:00  to 08/31/2024 00:59  UTC
##########################################################

##########################################################
# CYOD, Cold Lake, Alta. (Canada)
# WMO index: 71120. WIGOS ID: 0-20000-0-71120
# Latitude 54-25-00N. Longitude 110-16-59W. Altitude 541 m.
##########################################################

###################################
#  METAR/SPECI from CYOD
###################################
202408010000 METAR CYOD 010000Z 19007KT 15SM FEW070 FEW120 SCT300 28/12 A2976 RMK CU1AC1CC1 DENSITY ALT 4131FT SLP077=
202408010100 METAR CYOD 010100Z 21006KT 15SM FEW070 FEW100 SCT250 27/12 A2974 RMK CU1AC1CI2 DENSITY ALT 4091FT FRQ DIST LTNG W SLP068=
202408010200 METAR CYOD 010200Z 30028G41KT 10SM -SHRA FEW055 BKN090CB 21/14 A2983 RMK CF2CB5 DENSITY ALT 3190FT PRESRR CB W MOVG E OCNL LTGCCCG 22NM NW SLP103=
202408010220 SPECI CYOD 010220Z 33020G31KT 4SM -SHRA BR SCT055 BKN070CB BKN100 16/15 A2985 RMK CF3CB2AC2 DENSITY ALT 2650FT CB N MOVG E OCNL LTGCCCG 22NM NW SLP113=
202408010300 METAR CYOD 010300Z 33012KT 6SM -SHRA BR SCT055 OVC080 16/15 A2988 RMK SC3AC5 DENSITY ALT 2562FT SLP120=
202408010348 SPECI CYOD 010348Z 06005KT 12SM -TSRA SCT040 BKN070CB 16/15 A2987 RMK SC3CB4 DENSITY ALT 2572FT CB OVRHD MOVG E OCNL LTGCCCG SLP115=
202408010400 METAR CYOD 010400Z CCA 04005KT 12SM -TSRA SCT040 BKN070CB 16/15 A2987 RMK SC3CB4 DENSITY ALT 2573FT CB OVRHD MOVG E OCNL LTGCCCG SLP116=
202408010424 SPECI CYOD 010424Z 30003KT 15SM BKN110 15/14 A2988 RMK AC7 DENSITY ALT 2417FT SLP121=
202408010500 METAR CYOD 010500Z 24005KT 15SM BKN110 14/13 A2990 RMK AC5 DENSITY ALT 2272FT SLP127=
202408010600 METAR CYOD 010600Z 25006KT 15SM FEW110 14/13 A2992 RMK AC2 DENSITY ALT 2221FT SLP133=
202408010700 METAR CYOD 010700Z 26007KT 15SM FEW110 13/13 A2993 RMK AC1 DENSITY ALT 2177FT SLP137=
202408010800 METAR CYOD 010800Z 25005KT 15SM SKC 13/12 A2995 RMK DENSITY ALT 2059FT SLP142=
202408010900 METAR CYOD 010900Z 23006KT 15SM SKC 12/11 A2996 RMK DENSITY ALT 1938FT SLP147=
202408011000 METAR CYOD 011000Z 24008KT 15SM SKC 12/11 A2998 RMK DENSITY ALT 1913FT SLP152=
202408011100 METAR CYOD 011100Z 25005KT 15SM FEW250 11/11 A3000 RMK CI1 DENSITY ALT 1821FT SLP160=
202408011200 METAR CYOD 011200Z 24009KT 15SM FEW250 11/11 A3002 RMK CI1 DENSITY ALT 1798FT SLP168=
202408011300 METAR CYOD 011300Z 25005KT 15SM FEW250 12/11 A3005 RMK CI1 DENSITY ALT 1871FT SLP178=
202408011400 METAR CYOD 011400Z 28007KT 15SM FEW250 14/13 A3008 RMK CI1 DENSITY ALT 2103FT SLP190=
202408011500 METAR CYOD 011500Z 27007KT 15SM FEW250 16/13 A3009 RMK CI1 DENSITY ALT 2349FT SLP197=
202408011600 METAR CYOD 011600Z 27004KT 15SM FEW250 18/13 A3010 RMK CI1 DENSITY ALT 2544FT SLP199=
202408011700 METAR CYOD 011700Z 29006KT 15SM FEW040 FEW250 20/13 A3011 RMK CF1CI1 DENSITY ALT 2747FT CF TR SLP203=
202408011800 METAR CYOD 011800Z 28008KT 15SM FEW040 FEW200 21/12 A3012 RMK CF1CI1 DENSITY ALT 2908FT CF TR SLP204=
202408011900 METAR CYOD 011900Z 30009KT 15SM FEW040 FEW150 23/11 A3012 RMK CF1AC1 DENSITY ALT 3057FT CF TR SLP203=
202408012000 METAR CYOD 012000Z 29009KT 15SM FEW040 FEW120 24/10 A3011 RMK CF1AC1 DENSITY ALT 3207FT CF TR SLP200=
202408012100 METAR CYOD 012100Z 28009KT 15SM FEW040 FEW120 25/09 A3011 RMK CF1AC1 DENSITY ALT 3312FT CF TR SLP199=
202408012200 METAR CYOD 012200Z CCA 29010KT 15SM FEW040 25/11 A3010 RMK CF1 DENSITY ALT 3411FT CF TR SLP195=
202408012300 METAR CYOD 012300Z 25010KT 15SM FEW060 26/10 A3010 RMK CF1 DENSITY ALT 3440FT CF TR SLP196=
202408020000 METAR CYOD 020000Z 26007KT 15SM FEW065 26/10 A3009 RMK CF1 DENSITY ALT 3440FT CF TR SLP194=
202408020100 METAR CYOD 020100Z 26006KT 15SM FEW065 25/11 A3009 RMK CF1 DENSITY ALT 3398FT SLP191=
202408020200 METAR CYOD 020200Z 28004KT 15SM SKC 24/12 A3009 RMK DENSITY ALT 3289FT SLP190=
202408020300 METAR CYOD 020300Z 00000KT 15SM FEW250 21/13 A3009 RMK CI1 DENSITY ALT 2977FT SLP192=
202408020400 METAR CYOD 020400Z 00000KT 15SM FEW065 FEW250 18/13 A3009 RMK CF1CI1 DENSITY ALT 2578FT SLP194=
202408020500 METAR CYOD 020500Z 00000KT 15SM SKC 16/13 A3009 RMK DENSITY ALT 2258FT SLP195=
202408020600 METAR CYOD 020600Z 00000KT 15SM SKC 15/14 A3009 RMK DENSITY ALT 2254FT SLP193=
202408020700 METAR CYOD 020700Z 16004KT 15SM BKN120 14/13 A3009 RMK AC6 DENSITY ALT 2127FT SLP192=
202408020724 SPECI CYOD 020724Z 00000KT 15SM -SHRA BKN090 15/14 A3009 RMK AC6 DENSITY ALT 2246FT SLP191=
202408020800 METAR CYOD 020800Z 00000KT 15SM BKN100 15/14 A3009 RMK AC5 DENSITY ALT 2253FT SLP192=
202408020900 METAR CYOD 020900Z 00000KT 15SM SCT100 15/14 A3010 RMK AC4 DENSITY ALT 2224FT SLP193=
202408020922 SPECI CYOD 020922Z 00000KT 15SM TS FEW090CB BKN100 15/14 A3009 RMK CB1AC4 DENSITY ALT 2158FT CB N MOV E FRQ LTGICCG SLP192=
202408020947 SPECI CYOD 020947Z 00000KT 15SM -SHRA FEW040 BKN100 14/14 A3010 RMK SC2AC3 DENSITY ALT 2122FT OCNL LTGICCG LTNG DTCTRS REP STRIKES 20 NM E SLP194=
202408021000 METAR CYOD 021000Z 00000KT 15SM -SHRA SCT035 BKN080 15/14 A3012 RMK SC3AC3 DENSITY ALT 2138FT OCNL LTGCC LTNG DTCTRS REP STRIKES 25 NM NE PCPN VRY LGT SLP200=
202408021100 METAR CYOD 021100Z 00000KT 15SM BKN090 15/14 A3011 RMK AC7 DENSITY ALT 2178FT SLP199=
202408021136 SPECI CYOD 021136Z 32008KT 15SM -SHRA BKN080 15/14 A3014 RMK AC7 DENSITY ALT 2183FT SLP206=
202408021200 METAR CYOD 021200Z 33010KT 15SM BKN070 16/15 A3014 RMK AC7 DENSITY ALT 2260FT SLP207=
202408021204 SPECI CYOD 021204Z 01006KT 15SM -SHRA BKN070 16/14 A3013 RMK AC7 DENSITY ALT 2269FT SLP202=
202408021238 SPECI CYOD 021238Z 00000KT 15SM BKN090 15/14 A3013 RMK AC6 DENSITY ALT 2194FT SLP205=
202408021300 METAR CYOD 021300Z 30003KT 15SM BKN090 16/15 A3014 RMK AC6 DENSITY ALT 2266FT SLP206=
202408021400 METAR CYOD 021400Z 30006KT 15SM SCT075 19/14 A3015 RMK AC4 DENSITY ALT 2572FT SLP209=
202408021500 METAR CYOD 021500Z 32007KT 15SM FEW070 SCT250 19/13 A3016 RMK AC2CI1 DENSITY ALT 2586FT SLP215=
202408021600 METAR CYOD 021600Z 30008KT 15SM FEW070 SCT250 21/12 A3016 RMK AC1CI2 DENSITY ALT 2811FT SLP216=
202408021700 METAR CYOD 021700Z 36013KT 15SM FEW070 FEW250 22/10 A3018 RMK AC1CI1 DENSITY ALT 2937FT SLP222=
202408021800 METAR CYOD 021800Z 32017KT 15SM FEW250 23/07 A3018 RMK FU1 DENSITY ALT 2986FT SLP224=
202408021900 METAR CYOD 021900Z 34015KT 15SM FEW250 23/06 A3019 RMK FU1 DENSITY ALT 2995FT SLP227=
202408022000 METAR CYOD 022000Z 33010KT 15SM FEW200 24/05 A3019 RMK CI1 DENSITY ALT 3062FT SLP225=
202408022100 METAR CYOD 022100Z 32012KT 15SM FEW200 24/06 A3019 RMK CI1 DENSITY ALT 3097FT SLP225=
202408022200 METAR CYOD 022200Z CCA 32008KT 15SM FEW200 24/05 A3018 RMK CI1 DENSITY ALT 3095FT SLP223=
202408022300 METAR CYOD 022300Z 29006KT 15SM FEW200 24/04 A3019 RMK CI1 DENSITY ALT 3114FT SLP224=
202408030000 METAR CYOD 030000Z 01007KT 15SM FEW200 24/06 A3018 RMK CI1 DENSITY ALT 3128FT SLP221=
202408030100 METAR CYOD 030100Z 34006KT 15SM FEW250 24/05 A3018 RMK CI2 DENSITY ALT 3051FT SLP222=
202408030200 METAR CYOD 030200Z 35004KT 15SM FEW100 SCT250 21/07 A3018 RMK AC1CI2 DENSITY ALT 2750FT SLP221=
202408030300 METAR CYOD 030300Z 00000KT 15SM FEW100 FEW250 19/08 A3018 RMK AC1CI1 DENSITY ALT 2521FT SLP224=
202408030400 METAR CYOD 030400Z 00000KT 15SM FEW100 FEW250 16/09 A3019 RMK AC1CI1 DENSITY ALT 2157FT SLP227=
202408030500 METAR CYOD 030500Z 00000KT 15SM FEW100 13/10 A3020 RMK AC1 DENSITY ALT 1778FT SLP231=
202408030600 METAR CYOD 030600Z 00000KT 15SM SCT150 12/09 A3020 RMK AC3 DENSITY ALT 1676FT SLP230=
202408030700 METAR CYOD 030700Z 00000KT 15SM SKC 10/09 A3020 RMK DENSITY ALT 1434FT SLP232=
202408030800 METAR CYOD 030800Z 00000KT 15SM SKC 09/08 A3020 RMK DENSITY ALT 1305FT SLP233=
202408030900 METAR CYOD 030900Z 00000KT 15SM MIFG SCT120 09/09 A3021 RMK AC3 DENSITY ALT 1290FT SLP236=
202408031000 METAR CYOD 031000Z 00000KT 15SM MIFG BKN160 09/09 A3020 RMK AC7 DENSITY ALT 1315FT SLP234=
202408031100 METAR CYOD 031100Z 16006KT 15SM BKN120 11/09 A3026 RMK AC7 DENSITY ALT 1417FT SLP253=
202408031200 METAR CYOD 031200Z 13004KT 15SM BKN120 11/10 A3019 RMK AC7 DENSITY ALT 1594FT PRESFR SLP228=
202408031300 METAR CYOD 031300Z 31003KT 15SM BKN120 12/11 A3020 RMK AC7 DENSITY ALT 1680FT SLP230=
202408031400 METAR CYOD 031400Z 13005KT 15SM BKN120 15/11 A3017 RMK AC6 DENSITY ALT 2087FT CVCTV CLD EMBD SLP222=
202408031500 METAR CYOD 031500Z 19006KT 15SM BKN120 15/11 A3018 RMK AC7 DENSITY ALT 2119FT CVCTV CLD EMBD SLP225=
202408031600 METAR CYOD 031600Z 17003KT 15SM BKN120 18/12 A3016 RMK AC7 DENSITY ALT 2411FT SLP220=
202408031700 METAR CYOD 031700Z 19005KT 15SM BKN120 18/11 A3016 RMK AC7 DENSITY ALT 2504FT OCNL DIST LTNG S SLP219=
202408031717 SPECI CYOD 031717Z 19005KT 12SM -SHRA OVC120 18/12 A3015 RMK AC8 DENSITY ALT 2513FT SLP217=
202408031800 METAR CYOD 031800Z 21005KT 15SM OVC120 19/12 A3015 RMK AC8 DENSITY ALT 2580FT SLP216=
202408031900 METAR CYOD 031900Z 20004KT 15SM BKN100 20/11 A3013 RMK AC7 DENSITY ALT 2726FT SLP210=
202408032000 METAR CYOD 032000Z 17006KT 15SM OVC100 21/11 A3011 RMK AC8 DENSITY ALT 2899FT SLP203=
202408032100 METAR CYOD 032100Z 12003KT 15SM OVC100 22/11 A3011 RMK AC8 DENSITY ALT 2959FT SLP204=
202408032200 METAR CYOD 032200Z 05010KT 15SM OVC100 20/13 A3010 RMK AC8 DENSITY ALT 2826FT SLP202=
202408032300 METAR CYOD 032300Z 04009KT 15SM OVC100 20/13 A3010 RMK AC8 DENSITY ALT 2838FT SLP199=
202408040000 METAR CYOD 040000Z 05008KT 15SM OVC100 20/13 A3010 RMK AC8 DENSITY ALT 2748FT SLP200=
202408040100 METAR CYOD 040100Z 08006KT 15SM OVC100 19/12 A3008 RMK AC8 DENSITY ALT 2743FT SLP192=
202408040200 METAR CYOD 040200Z 08007KT 15SM BKN075 19/12 A3007 RMK AC7 DENSITY ALT 2693FT SLP188=
202408040300 METAR CYOD 040300Z 07007KT 15SM BKN080 18/13 A3006 RMK AC7 DENSITY ALT 2614FT SLP185=
202408040400 METAR CYOD 040400Z 08006KT 15SM BKN080 17/13 A3008 RMK AC7 DENSITY ALT 2452FT SLP190=
202408040500 METAR CYOD 040500Z 05005KT 15SM BKN070 16/12 A3009 RMK AC5 DENSITY ALT 2347FT SLP194=
202408040600 METAR CYOD 040600Z 04005KT 15SM SCT070 16/12 A3009 RMK AC4 DENSITY ALT 2300FT SLP194=
202408040700 METAR CYOD 040700Z 05007KT 15SM FEW070 15/13 A3009 RMK AC2 DENSITY ALT 2203FT SLP195=
202408040800 METAR CYOD 040800Z 07004KT 15SM FEW055 14/12 A3011 RMK SC2 DENSITY ALT 1970FT AURBO SLP199=
202408040900 METAR CYOD 040900Z 07006KT 15SM FEW050 13/10 A3011 RMK SC1 DENSITY ALT 1879FT AURBO SLP201=
202408041000 METAR CYOD 041000Z 08004KT 15SM SKC 12/10 A3011 RMK DENSITY ALT 1795FT AURBO SLP201=
202408041100 METAR CYOD 041100Z 07003KT 15SM FEW190 12/10 A3010 RMK AC1 DENSITY ALT 1821FT AURBO SLP199=
202408041200 METAR CYOD 041200Z 06004KT 15SM MIFG FEW070 SCT250 11/09 A3010 RMK ACC1CI3 DENSITY ALT 1650FT SLP201=
202408041300 METAR CYOD 041300Z 05006KT 15SM FEW070 BKN250 14/11 A3011 RMK AC1CI5 DENSITY ALT 2036FT SLP202=
202408041400 METAR CYOD 041400Z 12005KT 15SM FEW070 SCT250 16/11 A3013 RMK AC1CI3 DENSITY ALT 2289FT SLP208=
202408041500 METAR CYOD 041500Z 09007KT 15SM FEW070 FEW250 18/11 A3014 RMK AC1CI1 DENSITY ALT 2465FT SLP209=
202408041600 METAR CYOD 041600Z 08010KT 15SM FEW070 FEW200 19/11 A3014 RMK AC1CI1 DENSITY ALT 2649FT SLP209=
202408041700 METAR CYOD 041700Z 11010KT 15SM SCT200 20/11 A3014 RMK CI4 DENSITY ALT 2751FT SLP209=
202408041800 METAR CYOD 041800Z 10011KT 15SM BKN200 22/12 A3014 RMK CI6 DENSITY ALT 3017FT SLP209=
202408041900 METAR CYOD 041900Z 10010KT 15SM BKN200 22/11 A3014 RMK CI6 DENSITY ALT 2970FT SLP210=
202408042000 METAR CYOD 042000Z 08009KT 15SM FEW050 BKN200 22/11 A3014 RMK CF1CI5 DENSITY ALT 2937FT CF TR SLP211=
202408042100 METAR CYOD 042100Z 08013KT 15SM FEW050 SCT200 23/08 A3013 RMK CF1CI3 DENSITY ALT 3121FT CF TR SLP207=
202408042200 METAR CYOD 042200Z 08006KT 15SM FEW050 SCT200 24/09 A3013 RMK CF1CI3 DENSITY ALT 3164FT CF TR SLP207=
202408042300 METAR CYOD 042300Z 07009KT 15SM FEW050 SCT180 23/10 A3012 RMK CF1AC4 DENSITY ALT 3116FT CF TR SLP204=
202408042320 SPECI CYOD 042320Z 10010KT 15SM FEW060 BKN160 23/10 A3013 RMK CF1AC6 DENSITY ALT 3046FT CF TR SLP207=
202408050000 METAR CYOD 050000Z 08006KT 15SM FEW070 BKN160 22/10 A3014 RMK AC1AC6 DENSITY ALT 2976FT SLP211=
202408050100 METAR CYOD 050100Z 05007KT 15SM BKN160 BKN250 22/11 A3013 RMK AC5CI2 DENSITY ALT 2926FT SLP208=
202408050200 METAR CYOD 050200Z 08008KT 12SM FEW070 BKN160 BKN250 21/11 A3011 RMK AC1AC5CI1 DENSITY ALT 2887FT SLP200=
202408050300 METAR CYOD 050300Z 08007KT 12SM SCT160 BKN250 19/11 A3014 RMK AC4CI3 DENSITY ALT 2648FT FU SLP208=
202408050400 METAR CYOD 050400Z 09007KT 12SM BKN150 18/11 A3013 RMK AC7 DENSITY ALT 2511FT FU SLP206=
202408050500 METAR CYOD 050500Z 09009KT 15SM OVC150 18/11 A3014 RMK AC8 DENSITY ALT 2535FT SLP207=
202408050600 METAR CYOD 050600Z 09009KT 10SM SCT060 OVC160 18/11 A3015 RMK SC4AC4 DENSITY ALT 2459FT FU SLP211=
202408050700 METAR CYOD 050700Z 09009KT 10SM OVC070 18/11 A3014 RMK AC8 DENSITY ALT 2431FT FU SLP209=
202408050800 METAR CYOD 050800Z 09007KT 15SM SCT070 OVC120 17/11 A3014 RMK AC4AC4 DENSITY ALT 2348FT FU SLP209=
202408050900 METAR CYOD 050900Z 09008KT 10SM OVC080 17/11 A3015 RMK AC8 DENSITY ALT 2303FT FU SLP210=
202408051000 METAR CYOD 051000Z 08006KT 10SM OVC080 16/11 A3015 RMK AC8 DENSITY ALT 2243FT FU SLP210=
202408051100 METAR CYOD 051100Z 10005KT 15SM FEW050 OVC120 16/11 A3015 RMK SC2AC6 DENSITY ALT 2219FT SLP210=
202408051200 METAR CYOD 051200Z 12009KT 15SM BKN050 OVC120 15/11 A3015 RMK SC5AC3 DENSITY ALT 2144FT SLP211=
202408051216 SPECI CYOD 051216Z CCA 12010KT 8SM -SHRA BKN050 OVC120 15/12 A3015 RMK SC5AC3 DENSITY ALT 2124FT FU SLP213=
202408051300 METAR CYOD 051300Z CCA 12007KT 7SM -SHRA SCT025 OVC040 14/13 A3016 RMK SC3SC5 DENSITY ALT 2028FT OCNL DIST LTNG NE FU SLP218=
202408051400 METAR CYOD 051400Z 09005KT 8SM -SHRA FEW025 OVC045 14/13 A3016 RMK CF1SC7 DENSITY ALT 2033FT SLP218=
202408051500 METAR CYOD 051500Z 06007KT 8SM -SHRA FEW045 OVC060 15/14 A3016 RMK SC2SC6 DENSITY ALT 2117FT SLP220=
202408051600 METAR CYOD 051600Z 07007KT 8SM -SHRA FEW030 BKN060 OVC080 16/14 A3017 RMK SC2SC3AC3 DENSITY ALT 2221FT SLP222=
202408051700 METAR CYOD 051700Z 07007KT 8SM -SHRA FEW035 OVC075 16/15 A3018 RMK SC2AC6 DENSITY ALT 2243FT SLP224=
202408051800 METAR CYOD 051800Z 05010KT 10SM -SHRA FEW010 BKN055 OVC075 16/15 A3018 RMK CF1SC6AC2 DENSITY ALT 2204FT SLP225=
202408051900 METAR CYOD 051900Z 04009KT 10SM -SHRA FEW010 SCT060 OVC080 16/15 A3017 RMK CF1SC2AC5 DENSITY ALT 2253FT SLP221=
202408051918 SPECI CYOD 051918Z 04010KT 8SM FEW010 FEW060 OVC085 16/15 A3017 RMK CF1SC1AC6 DENSITY ALT 2264FT SLP222=
202408051942 SPECI CYOD 051942Z 04009KT 8SM -RA FEW010 FEW050 OVC085 16/15 A3018 RMK CF1SC2AC6 DENSITY ALT 2277FT SLP225=
202408052000 METAR CYOD 052000Z 04011KT 7SM -RA FEW010 BKN040 OVC085 16/15 A3018 RMK CF2SC3AC3 DENSITY ALT 2282FT FU SLP225=
202408052026 SPECI CYOD 052026Z 05009KT 5SM -RA FU FEW010 BKN030 OVC080 16/15 A3018 RMK CF1SC5AC2 DENSITY ALT 2271FT SLP226=
202408052100 METAR CYOD 052100Z 04010KT 5SM -RA FU FEW010 BKN030 OVC050 16/15 A3018 RMK CF1SC5SC2 DENSITY ALT 2297FT SLP225=
202408052130 SPECI CYOD 052130Z 06009KT 6SM -RA FU SCT010 OVC023 16/15 A3018 RMK CF3SC5 DENSITY ALT 2300FT SLP225=
202408052200 METAR CYOD 052200Z 11009KT 6SM -RA FU FEW010 BKN026 BKN040 OVC085 16/14 A3018 RMK CF2SC3SC1AC2 DENSITY ALT 2188FT SLP226=
202408052231 SPECI CYOD 052231Z 10010KT 4SM -RA FU FEW030 SCT045 BKN070 OVC085 15/13 A3018 RMK SC2SC2AC2AC2 DENSITY ALT 2076FT SLP227=
202408052300 METAR CYOD 052300Z 10010KT 2SM -RA FU FEW030 SCT045 BKN065 OVC080 14/12 A3018 RMK SC1SC2SC4AC1 DENSITY ALT 1967FT SLP228=
202408060000 METAR CYOD 060000Z 07007KT 4SM -RA FU OVC065 14/12 A3017 RMK SC8 DENSITY ALT 1943FT PCPN VRY LGT SLP227=
202408060015 SPECI CYOD 060015Z 08008KT 4SM FU BKN065 OVC075 14/12 A3017 RMK SC6AC2 DENSITY ALT 1996FT SLP225=
202408060100 METAR CYOD 060100Z 07008KT 4SM FU OVC075 15/12 A3017 RMK AC8 DENSITY ALT 2058FT SLP226=
202408060200 METAR CYOD 060200Z 07009KT 5SM FU BKN075 15/12 A3016 RMK AC7 DENSITY ALT 2057FT SLP222=
202408060300 METAR CYOD 060300Z 04008KT 5SM FU BKN060 BKN120 14/12 A3016 RMK SC5AC2 DENSITY ALT 2019FT SLP222=
202408060400 METAR CYOD 060400Z 05006KT 6SM FU OVC070 14/12 A3017 RMK AC8 DENSITY ALT 2004FT SLP225=
202408060500 METAR CYOD 060500Z 06008KT 6SM FU OVC070 14/12 A3017 RMK AC8 DENSITY ALT 1968FT SLP224=
202408060600 METAR CYOD 060600Z 05005KT 6SM FU FEW035 BKN110 13/12 A3016 RMK SC1AC6 DENSITY ALT 1854FT SLP224=
202408060700 METAR CYOD 060700Z 04005KT 6SM FU OVC110 13/12 A3016 RMK AC8 DENSITY ALT 1854FT SLP223=
202408060800 METAR CYOD 060800Z 04006KT 6SM FU OVC110 13/12 A3016 RMK AC8 DENSITY ALT 1841FT SLP221=
202408060900 METAR CYOD 060900Z 35006KT 10SM BKN110 OVC250 12/11 A3016 RMK AC5CI3 DENSITY ALT 1665FT FU SLP224=
202408061000 METAR CYOD 061000Z CCA 33003KT 10SM FEW110 OVC250 11/10 A3015 RMK AC2CI6 DENSITY ALT 1554FT FU SLP221=
202408061100 METAR CYOD 061100Z 01004KT 10SM MIFG BKN250 11/10 A3016 RMK CI6 DENSITY ALT 1543FT FU SLP224=
202408061200 METAR CYOD 061200Z 34005KT 5SM MIFG FU FEW010 BKN250 11/11 A3016 RMK SC2CI4 DENSITY ALT 1596FT SLP225=
202408061222 SPECI CYOD 061222Z 35005KT 5SM MIFG FU BKN008 BKN250 12/11 A3016 RMK SC5CI2 DENSITY ALT 1660FT SLP226=
202408061300 METAR CYOD 061300Z 34004KT 5SM BR FU FEW008 SCT080 BKN250 12/12 A3017 RMK SC2AC1CI3 DENSITY ALT 1762FT SLP226=
202408061328 SPECI CYOD 061328Z 36006KT 7SM FEW010 SCT080 BKN210 13/12 A3017 RMK SC2AC1CI4 DENSITY ALT 1871FT FU SLP225=
202408061400 METAR CYOD 061400Z 36006KT 8SM FEW010 SCT080 BKN210 14/12 A3017 RMK CF2AC1CI4 DENSITY ALT 1920FT FU SLP226=
202408061500 METAR CYOD 061500Z 01006KT 8SM FEW010 FEW050 BKN210 15/12 A3017 RMK CF1SC1CI4 DENSITY ALT 2041FT FU SLP226=
202408061600 METAR CYOD 061600Z 35007KT 10SM BKN250 16/11 A3017 RMK CI6 DENSITY ALT 2200FT SLP224=
202408061700 METAR CYOD 061700Z 04006KT 10SM FEW050 SCT140 BKN230 18/11 A3016 RMK SC1AC2CI4 DENSITY ALT 2461FT SLP221=
202408061800 METAR CYOD 061800Z 01007KT 12SM FEW130 SCT210 BKN250 19/10 A3016 RMK AC1CI3CI2 DENSITY ALT 2573FT SLP220=
202408061900 METAR CYOD 061900Z 34005KT 12SM FEW035 SCT130 BKN210 BKN250 21/12 A3017 RMK CU1AC2CI2CI2 DENSITY ALT 2853FT SLP221=
202408062000 METAR CYOD 062000Z 06007KT 12SM FEW040 SCT130 BKN210 BKN250 22/12 A3017 RMK CU2AC1CI3CI1 DENSITY ALT 2961FT SLP220=
202408062100 METAR CYOD 062100Z 33016KT 12SM FEW040 SCT050TCU BKN080 BKN210 20/12 A3017 RMK CU2TCU2AC2CI1 DENSITY ALT 2666FT SLP223=
202408062115 SPECI CYOD 062115Z CCA 29009KT 12SM -TSRA FEW043 BKN055CB BKN085 18/10 A3017 RMK CU2CB3AC2 DENSITY ALT 2389FT CB OHD MOV SW OCNL LTGCCCG SLP224=
202408062131 SPECI CYOD 062131Z 30005KT 15SM FEW040 BKN055TCU BKN090 18/10 A3016 RMK CU2TCU3AC2 DENSITY ALT 2496FT OCNL DIST LTNG W SLP223=
202408062200 METAR CYOD 062200Z 31005KT 15SM FEW045 SCT060TCU BKN110 BKN150 20/09 A3016 RMK CU2TCU2AC1AC2 DENSITY ALT 2639FT SLP223=
202408062236 SPECI CYOD 062236Z 34009KT 15SM -SHRA FEW050 BKN080 BKN150 21/11 A3016 RMK CU2AC3AC2 DENSITY ALT 2878FT PCPN VRY LGT SLP220=
202408062300 METAR CYOD 062300Z 32007KT 15SM FEW050 SCT080 BKN120 BKN250 22/10 A3016 RMK CU2AC2AC1CI1 DENSITY ALT 2912FT OCNL DIST LTNG NW SLP220=
202408070000 METAR CYOD 070000Z 02008KT 15SM FEW050 SCT080 SCT120 BKN250 23/10 A3016 RMK CU1AC2AC1CI2 DENSITY ALT 3015FT CB N MOV S OCNL LTGCCCG LTNG DTCTRS REP STRIKES 12 NM N SLP218=
202408070006 SPECI CYOD 070006Z 02007KT 15SM TS FEW050 FEW060CB SCT100 BKN250 23/10 A3016 RMK CU1CB1AC2CI2 DENSITY ALT 3003FT CB NE MOV S OCNL LTGCG SLP218=
202408070022 SPECI CYOD 070022Z 01015KT 15SM -TSRA FEW050 SCT060CB BKN100 BKN250 20/11 A3016 RMK CU1CB2AC2CI1 DENSITY ALT 2701FT CB OHD MOV S FRQ LTGCCCG SLP222=
202408070100 METAR CYOD 070100Z 29007KT 15SM -TSRA BKN070CB BKN090 BKN250 17/11 A3018 RMK CB5AC1CI1 DENSITY ALT 2278FT CB OVRHD MOVG S OCNL LTGCCCG SLP228=
202408070120 SPECI CYOD 070120Z 27005KT 15SM FEW075 BKN100 BKN250 17/11 A3018 RMK AC2AC4CI1 DENSITY ALT 2294FT SLP229=
202408070200 METAR CYOD 070200Z 32007KT 15SM BKN085 BKN250 16/12 A3018 RMK AC5CI2 DENSITY ALT 2194FT SLP230=
202408070300 METAR CYOD 070300Z 30006KT 15SM SCT085 BKN250 13/11 A3020 RMK AC3CI2 DENSITY ALT 1834FT SLP235=
202408070400 METAR CYOD 070400Z 31007KT 15SM FEW130 SCT170 BKN250 12/11 A3021 RMK AC2AC2CI2 DENSITY ALT 1697FT SLP240=
202408070500 METAR CYOD 070500Z 00000KT 15SM FEW120 BKN220 13/12 A3022 RMK AC2CI5 DENSITY ALT 1740FT SLP243=
202408070600 METAR CYOD 070600Z 31003KT 15SM SCT140 BKN220 11/11 A3023 RMK AC3CI4 DENSITY ALT 1554FT SLP245=
202408070700 METAR CYOD 070700Z 33003KT 15SM FEW130 BKN250 10/10 A3024 RMK AC1CI4 DENSITY ALT 1381FT SLP246=
202408070800 METAR CYOD 070800Z 31004KT 15SM FEW100 SCT250 10/10 A3024 RMK AC1CI3 DENSITY ALT 1354FT SLP248=
202408070900 METAR CYOD 070900Z 33006KT 15SM FEW100 SCT250 08/08 A3025 RMK AC1CI2 DENSITY ALT 1121FT SLP254=
202408071000 METAR CYOD 071000Z 34005KT 15SM FEW085 09/08 A3025 RMK AC2 DENSITY ALT 1145FT SLP254=
202408071100 METAR CYOD 071100Z 33004KT 15SM MIFG SCT085 08/08 A3026 RMK AC4 DENSITY ALT 1093FT SLP257=
202408071200 METAR CYOD 071200Z 00000KT 15SM MIFG BKN085 08/08 A3028 RMK AC5 DENSITY ALT 1086FT SLP262=
202408071300 METAR CYOD 071300Z 06003KT 12SM SCT090 11/10 A3029 RMK AC4 DENSITY ALT 1473FT SLP267=
202408071400 METAR CYOD 071400Z 07007KT 12SM FEW090 13/09 A3030 RMK AC1 DENSITY ALT 1660FT SLP269=
202408071500 METAR CYOD 071500Z 11007KT 12SM FEW090 FEW210 14/09 A3030 RMK AC1CI1 DENSITY ALT 1767FT SLP272=
202408071600 METAR CYOD 071600Z 08006KT 12SM FEW055 FEW210 16/09 A3031 RMK SC2CI1 DENSITY ALT 2024FT SLP274=
202408071700 METAR CYOD 071700Z 10005KT 070V130 7SM FEW055 FEW210 17/09 A3031 RMK SC2CI1 DENSITY ALT 2185FT FU SLP274=
202408071718 SPECI CYOD 071718Z 07008KT 6SM FU FEW055 FEW210 18/09 A3031 RMK SC1CI1 DENSITY ALT 2208FT SLP274=
202408071800 METAR CYOD 071800Z 09007KT 6SM FU FEW040 FEW055 FEW210 18/09 A3031 RMK CU1SC1CI1 DENSITY ALT 2279FT SLP274=
202408071827 SPECI CYOD 071827Z CCA 04006KT 8SM FEW040 18/09 A3031 RMK CU2 DENSITY ALT 2253FT FU SLP274=
202408071900 METAR CYOD 071900Z 05008KT 8SM SCT045 SCT180 19/09 A3032 RMK CU3AC1 DENSITY ALT 2353FT SLP276=
202408072000 METAR CYOD 072000Z 04005KT 010V080 10SM FEW050 FEW180 19/07 A3032 RMK CU2AC1 DENSITY ALT 2405FT SLP277=
202408072100 METAR CYOD 072100Z 03008KT 10SM FEW055 20/06 A3032 RMK CU2 DENSITY ALT 2446FT SLP276=
202408072200 METAR CYOD 072200Z 05008KT 10SM FEW055 20/05 A3031 RMK CU1 DENSITY ALT 2481FT SLP273=
202408072300 METAR CYOD 072300Z 04011KT 15SM FEW055 20/05 A3031 RMK CU1 DENSITY ALT 2516FT SLP273=
202408080000 METAR CYOD 080000Z 06008KT 15SM FEW050 20/05 A3030 RMK CU1 DENSITY ALT 2474FT SLP272=
202408080100 METAR CYOD 080100Z 05007KT 15SM SKC 20/05 A3030 RMK DENSITY ALT 2438FT SLP269=
202408080200 METAR CYOD 080200Z 05004KT 15SM SKC 18/06 A3030 RMK DENSITY ALT 2274FT SLP270=
202408080300 METAR CYOD 080300Z 09004KT 15SM FEW250 16/06 A3031 RMK CI2 DENSITY ALT 1969FT SLP273=
202408080400 METAR CYOD 080400Z 12004KT 15SM FEW250 12/07 A3033 RMK CI1 DENSITY ALT 1439FT SLP280=
202408080500 METAR CYOD 080500Z 14006KT 15SM FEW250 10/07 A3034 RMK CI2 DENSITY ALT 1224FT SLP284=
202408080600 METAR CYOD 080600Z 17004KT 15SM FEW250 09/07 A3035 RMK CI1 DENSITY ALT 1089FT SLP289=
202408080700 METAR CYOD 080700Z 14002KT 15SM FEW250 09/07 A3036 RMK CI1 DENSITY ALT 1064FT SLP290=
202408080800 METAR CYOD 080800Z 00000KT 15SM FEW250 07/07 A3036 RMK CI1 DENSITY ALT 811FT SLP292=
202408080900 METAR CYOD 080900Z 13002KT 15SM SKC 06/05 A3036 RMK DENSITY ALT 633FT SLP294=
202408081000 METAR CYOD 081000Z 00000KT 15SM MIFG SKC 05/05 A3037 RMK DENSITY ALT 538FT SLP296=
202408081100 METAR CYOD 081100Z 00000KT 15SM MIFG SKC 05/04 A3037 RMK DENSITY ALT 456FT SLP297=
202408081200 METAR CYOD 081200Z 00000KT 15SM MIFG SKC 04/03 A3037 RMK DENSITY ALT 357FT SLP299=
202408081300 METAR CYOD 081300Z 08002KT 12SM MIFG SKC 06/05 A3038 RMK DENSITY ALT 620FT SLP301=
202408081400 METAR CYOD 081400Z 11002KT 12SM SKC 10/07 A3039 RMK DENSITY ALT 1118FT SLP302=
202408081500 METAR CYOD 081500Z 15002KT 15SM SKC 13/08 A3039 RMK DENSITY ALT 1591FT SLP301=
202408081600 METAR CYOD 081600Z 14002KT 15SM FEW250 16/09 A3039 RMK CI1 DENSITY ALT 1940FT SLP302=
202408081700 METAR CYOD 081700Z 14005KT 15SM FEW045 FEW250 19/07 A3039 RMK CU1CI1 DENSITY ALT 2222FT SLP303=
202408081800 METAR CYOD 081800Z 13006KT 110V170 15SM FEW050 FEW250 20/07 A3039 RMK CU1CI1 DENSITY ALT 2364FT SLP302=
202408081900 METAR CYOD 081900Z 10006KT 15SM FEW055 FEW250 20/06 A3038 RMK CU2CI1 DENSITY ALT 2394FT SLP298=
202408082000 METAR CYOD 082000Z 02005KT 15SM SCT060 SCT250 20/05 A3037 RMK CU3CI1 DENSITY ALT 2461FT SLP296=
202408082100 METAR CYOD 082100Z 01002KT 15SM SCT060 SCT250 21/07 A3036 RMK CU3CI1 DENSITY ALT 2557FT SLP292=
202408082200 METAR CYOD 082200Z 00000KT 15SM FEW060 FEW250 22/06 A3035 RMK CU2CI1 DENSITY ALT 2636FT SLP288=
202408082300 METAR CYOD 082300Z 12004KT 15SM FEW060 FEW250 22/05 A3034 RMK CU1CI1 DENSITY ALT 2714FT SLP284=
202408090000 METAR CYOD 090000Z 06008KT 15SM FEW060 21/07 A3033 RMK CU1 DENSITY ALT 2641FT SLP281=
202408090100 METAR CYOD 090100Z 07005KT 15SM FEW060 21/07 A3032 RMK CF1 DENSITY ALT 2590FT CF TR SLP278=
202408090200 METAR CYOD 090200Z 09002KT 15SM FEW250 20/07 A3030 RMK CI1 DENSITY ALT 2473FT SLP271=
202408090300 METAR CYOD 090300Z 12002KT 15SM FEW250 16/09 A3031 RMK CI1 DENSITY ALT 2061FT CI TR SLP273=
202408090400 METAR CYOD 090400Z 00000KT 15SM SKC 13/09 A3031 RMK DENSITY ALT 1701FT SLP273=
202408090500 METAR CYOD 090500Z 00000KT 15SM SKC 11/08 A3031 RMK DENSITY ALT 1412FT SLP274=
202408090600 METAR CYOD 090600Z 17002KT 15SM SKC 10/09 A3031 RMK DENSITY ALT 1252FT SLP274=
202408090700 METAR CYOD 090700Z 15005KT 15SM SKC 08/08 A3032 RMK DENSITY ALT 1038FT SLP277=
202408090800 METAR CYOD 090800Z 12002KT 15SM MIFG SKC 08/08 A3032 RMK DENSITY ALT 1011FT SLP277=
202408090900 METAR CYOD 090900Z 00000KT 15SM MIFG SKC 07/07 A3032 RMK DENSITY ALT 901FT SLP277=
202408091000 METAR CYOD 091000Z 00000KT 15SM MIFG SKC 06/06 A3032 RMK DENSITY ALT 763FT SLP278=
202408091100 METAR CYOD 091100Z 03002KT 15SM MIFG FEW250 06/05 A3032 RMK CI1 DENSITY ALT 650FT SLP277=
202408091200 METAR CYOD 091200Z 09002KT 15SM MIFG FEW250 05/05 A3032 RMK CI1 DENSITY ALT 621FT SLP277=
202408091300 METAR CYOD 091300Z 00000KT 15SM MIFG SCT250 07/06 A3032 RMK CI3 DENSITY ALT 774FT SLP278=
202408091400 METAR CYOD 091400Z CCA 00000KT 15SM SCT250 11/09 A3032 RMK CI3 DENSITY ALT 1343FT CONTRAILS SLP275=
202408091500 METAR CYOD 091500Z 00000KT 15SM FEW250 16/09 A3032 RMK CI1 DENSITY ALT 1956FT SLP274=
202408091600 METAR CYOD 091600Z 00000KT 15SM SCT250 18/08 A3031 RMK CI4 DENSITY ALT 2275FT SLP272=
202408091700 METAR CYOD 091700Z 00000KT 15SM SCT250 20/07 A3031 RMK CI3 DENSITY ALT 2534FT SLP272=
202408091800 METAR CYOD 091800Z 16006KT 15SM SCT250 21/07 A3030 RMK CI3 DENSITY ALT 2676FT SLP270=
202408091900 METAR CYOD 091900Z 16008KT 15SM FEW250 22/07 A3030 RMK CI1 DENSITY ALT 2748FT SLP267=
202408092000 METAR CYOD 092000Z 10004KT 15SM SKC 22/07 A3028 RMK DENSITY ALT 2797FT SLP263=
202408092100 METAR CYOD 092100Z 15006KT 15SM FEW250 23/08 A3026 RMK CI1 DENSITY ALT 2924FT SLP256=
202408092200 METAR CYOD 092200Z 10004KT 12SM SKC 23/07 A3024 RMK DENSITY ALT 2952FT FU SLP250=
202408092300 METAR CYOD 092300Z 00000KT 12SM SKC 23/08 A3023 RMK DENSITY ALT 2986FT FU SLP246=
202408100000 METAR CYOD 100000Z CCA 00000KT 12SM SKC 23/08 A3021 RMK DENSITY ALT 3014FT FU SLP241=
202408100100 METAR CYOD 100100Z 11005KT 12SM SKC 23/08 A3020 RMK DENSITY ALT 2967FT FU SLP236=
202408100200 METAR CYOD 100200Z 08004KT 12SM SKC 21/11 A3020 RMK DENSITY ALT 2720FT FU SLP233=
202408100300 METAR CYOD 100300Z 08003KT 12SM FEW180 17/11 A3020 RMK AC1 DENSITY ALT 2328FT FU SLP231=
202408100400 METAR CYOD 100400Z 12002KT 12SM FEW180 15/11 A3020 RMK AC1 DENSITY ALT 2006FT FU SLP232=
202408100500 METAR CYOD 100500Z 13006KT 12SM FEW180 12/09 A3020 RMK AC1 DENSITY ALT 1698FT FU SLP232=
202408100600 METAR CYOD 100600Z 13005KT 12SM SKC 13/10 A3019 RMK DENSITY ALT 1754FT FU SLP230=
202408100700 METAR CYOD 100700Z CCA 16004KT 12SM SKC 11/10 A3019 RMK DENSITY ALT 1576FT FU SLP230=
202408100800 METAR CYOD 100800Z 16002KT 12SM SKC 11/10 A3019 RMK DENSITY ALT 1590FT FU SLP229=
202408100900 METAR CYOD 100900Z 16003KT 12SM SKC 10/10 A3019 RMK DENSITY ALT 1462FT FU SLP228=
202408101000 METAR CYOD 101000Z 14004KT 12SM MIFG SKC 10/09 A3018 RMK DENSITY ALT 1379FT FU SLP227=
202408101100 METAR CYOD 101100Z 13004KT 12SM MIFG SKC 09/09 A3018 RMK DENSITY ALT 1282FT FU SLP228=
202408101200 METAR CYOD 101200Z 00000KT 12SM MIFG FEW180 08/08 A3018 RMK AC1 DENSITY ALT 1132FT FU SLP228=
202408101300 METAR CYOD 101300Z 00000KT 8SM MIFG SKC 08/07 A3019 RMK DENSITY ALT 1145FT SLP230=
202408101400 METAR CYOD 101400Z 00000KT 7SM FEW100 13/11 A3019 RMK AC1 DENSITY ALT 1764FT FU SLP230=
202408101500 METAR CYOD 101500Z 00000KT 8SM SKC 16/10 A3019 RMK DENSITY ALT 2220FT FU SLP230=
202408101600 METAR CYOD 101600Z 00000KT 10SM SKC 19/11 A3018 RMK DENSITY ALT 2525FT SLP227=
202408101700 METAR CYOD 101700Z 15007KT 10SM SKC 21/11 A3017 RMK DENSITY ALT 2866FT FU SLP223=
202408101800 METAR CYOD 101800Z 17006KT 15SM SKC 23/10 A3016 RMK DENSITY ALT 3037FT SLP219=
202408101900 METAR CYOD 101900Z 18009KT 15SM FEW250 24/08 A3015 RMK CI2 DENSITY ALT 3221FT SLP214=
202408102000 METAR CYOD 102000Z 17005KT 15SM FEW250 25/09 A3014 RMK CI1 DENSITY ALT 3323FT SLP210=
202408102100 METAR CYOD 102100Z 19005KT 15SM FEW250 25/09 A3012 RMK CI2 DENSITY ALT 3381FT SLP205=
202408102200 METAR CYOD 102200Z 16005KT 12SM SKC 25/08 A3011 RMK DENSITY ALT 3385FT SLP200=
202408102300 METAR CYOD 102300Z 16010KT 10SM SKC 26/09 A3009 RMK DENSITY ALT 3463FT FU SLP194=
202408110000 METAR CYOD 110000Z 15005KT 10SM SKC 25/10 A3008 RMK DENSITY ALT 3396FT FU SLP193=
202408110100 METAR CYOD 110100Z 12006KT 8SM FEW240 25/10 A3007 RMK CI1 DENSITY ALT 3350FT FU SLP188=
202408110200 METAR CYOD 110200Z 12005KT 8SM SCT240 23/12 A3006 RMK CI4 DENSITY ALT 3240FT FU SLP183=
202408110300 METAR CYOD 110300Z 11004KT 8SM SCT240 21/12 A3006 RMK CI4 DENSITY ALT 2927FT FU SLP183=
202408110400 METAR CYOD 110400Z 12005KT 10SM SCT240 19/12 A3006 RMK CI4 DENSITY ALT 2660FT FU SLP184=
202408110500 METAR CYOD 110500Z 12007KT 10SM BKN210 17/12 A3007 RMK CI5 DENSITY ALT 2417FT FU SLP184=
202408110600 METAR CYOD 110600Z 13005KT 10SM BKN210 16/12 A3006 RMK CI5 DENSITY ALT 2291FT FU SLP183=
202408110700 METAR CYOD 110700Z 14004KT 10SM FEW210 14/12 A3006 RMK CI2 DENSITY ALT 2127FT FU SLP182=
202408110800 METAR CYOD 110800Z 15007KT 12SM FEW210 13/12 A3005 RMK CI1 DENSITY ALT 2000FT FU SLP179=
202408110900 METAR CYOD 110900Z 18002KT 12SM SKC 12/11 A3006 RMK DENSITY ALT 1873FT FU SLP180=
202408111000 METAR CYOD 111000Z 12004KT 12SM MIFG SKC 13/12 A3006 RMK DENSITY ALT 1915FT FU SLP181=
202408111100 METAR CYOD 111100Z 08002KT 12SM MIFG SKC 11/11 A3006 RMK DENSITY ALT 1752FT FU SLP183=
202408111200 METAR CYOD 111200Z 09003KT 15SM MIFG FEW210 10/09 A3007 RMK CI1 DENSITY ALT 1531FT SLP188=
202408111300 METAR CYOD 111300Z 00000KT 15SM MIFG FEW110 10/09 A3008 RMK AC1 DENSITY ALT 1561FT SLP190=
202408111400 METAR CYOD 111400Z 00000KT 15SM FEW080 15/12 A3007 RMK AC1 DENSITY ALT 2180FT SLP186=
202408111500 METAR CYOD 111500Z 11003KT 15SM FEW080 18/12 A3007 RMK AC1 DENSITY ALT 2612FT SLP186=
202408111600 METAR CYOD 111600Z 00000KT 15SM SCT080 21/12 A3007 RMK AC3 DENSITY ALT 2919FT SLP185=
202408111700 METAR CYOD 111700Z 17005KT 15SM FEW100 SCT250 23/12 A3006 RMK AC2CI1 DENSITY ALT 3169FT SLP181=
202408111800 METAR CYOD 111800Z 16005KT 15SM FEW100 FEW250 25/10 A3007 RMK AC1CI1 DENSITY ALT 3450FT SLP183=
202408111900 METAR CYOD 111900Z 15011KT 15SM FEW065 FEW250 27/09 A3005 RMK CU1CI1 DENSITY ALT 3596FT SLP176=
202408112000 METAR CYOD 112000Z 14008KT 15SM FEW065 27/10 A3004 RMK CU1 DENSITY ALT 3682FT SLP173=
202408112100 METAR CYOD 112100Z 19007KT 15SM FEW065 27/09 A3002 RMK CU1 DENSITY ALT 3718FT SLP168=
202408112200 METAR CYOD 112200Z 12004KT 15SM FEW065 28/09 A3001 RMK CU2 DENSITY ALT 3805FT SLP162=
202408112300 METAR CYOD 112300Z 00000KT 15SM FEW065 28/08 A3000 RMK CU2 DENSITY ALT 3831FT SLP159=
202408120000 METAR CYOD 120000Z 13006KT 15SM FEW080 28/09 A2999 RMK CU2 DENSITY ALT 3809FT SLP157=
202408120100 METAR CYOD 120100Z 14007KT 15SM FEW080 27/09 A2997 RMK CU1 DENSITY ALT 3722FT SLP153=
202408120200 METAR CYOD 120200Z 12006KT 15SM SKC 25/10 A2997 RMK DENSITY ALT 3530FT SLP150=
202408120300 METAR CYOD 120300Z 12007KT 15SM SKC 22/11 A2997 RMK DENSITY ALT 3118FT SLP151=
202408120400 METAR CYOD 120400Z 13007KT 15SM SKC 18/11 A2998 RMK DENSITY ALT 2706FT SLP153=
202408120500 METAR CYOD 120500Z 14007KT 15SM SKC 17/11 A2998 RMK DENSITY ALT 2507FT SLP152=
202408120600 METAR CYOD 120600Z 13008KT 15SM SKC 15/11 A2998 RMK DENSITY ALT 2306FT SLP153=
202408120700 METAR CYOD 120700Z 14006KT 15SM SKC 14/10 A2998 RMK DENSITY ALT 2187FT SLP154=
202408120800 METAR CYOD 120800Z 14004KT 15SM SKC 14/10 A2998 RMK DENSITY ALT 2169FT SLP151=
202408120900 METAR CYOD 120900Z 12002KT 15SM SKC 13/09 A2997 RMK DENSITY ALT 2014FT SLP151=
202408121000 METAR CYOD 121000Z 12003KT 15SM SKC 13/09 A2997 RMK DENSITY ALT 2012FT SLP148=
202408121100 METAR CYOD 121100Z 12002KT 15SM SKC 11/09 A2997 RMK DENSITY ALT 1743FT SLP149=
202408121200 METAR CYOD 121200Z 00000KT 15SM SKC 09/08 A2997 RMK DENSITY ALT 1570FT SLP150=
202408121300 METAR CYOD 121300Z 00000KT 15SM SKC 11/08 A2996 RMK DENSITY ALT 1753FT SLP148=
202408121400 METAR CYOD 121400Z 12006KT 15SM FEW250 16/10 A2996 RMK CI1 DENSITY ALT 2422FT SLP145=
202408121500 METAR CYOD 121500Z 14003KT 15SM FEW150 FEW250 19/11 A2996 RMK AC1CI1 DENSITY ALT 2766FT SLP144=
202408121600 METAR CYOD 121600Z 11004KT 15SM FEW180 FEW250 21/12 A2995 RMK AC1CI1 DENSITY ALT 3052FT SLP143=
202408121700 METAR CYOD 121700Z 12006KT 15SM FEW180 24/11 A2993 RMK AC1 DENSITY ALT 3482FT SLP136=
202408121800 METAR CYOD 121800Z 11010KT 15SM FEW100 26/10 A2992 RMK AC1 DENSITY ALT 3664FT SLP131=
202408121900 METAR CYOD 121900Z 11008KT 15SM FEW100 SCT250 27/10 A2991 RMK AC1CI2 DENSITY ALT 3821FT SLP127=
202408122000 METAR CYOD 122000Z 14005KT 15SM FEW180 SCT250 28/09 A2989 RMK AC1CI3 DENSITY ALT 3977FT SLP119=
202408122100 METAR CYOD 122100Z 15012KT 15SM FEW090 BKN250 29/09 A2988 RMK AC2CI5 DENSITY ALT 4054FT SLP116=
202408122200 METAR CYOD 122200Z 14013KT 15SM FEW080 SCT250 28/07 A2986 RMK AC2CI2 DENSITY ALT 4015FT MDT CU ASOCTD SE SLP110=
202408122300 METAR CYOD 122300Z 18008KT 15SM FEW080TCU SCT180 BKN250 29/09 A2984 RMK TCU2AC2CI1 DENSITY ALT 4114FT SLP105=
202408130000 METAR CYOD 130000Z 10003KT 15SM FEW080 SCT180 BKN250 29/08 A2983 RMK AC2AC2CI1 DENSITY ALT 4118FT SLP102=
202408130100 METAR CYOD 130100Z 14008KT 15SM BKN060 OVC130 26/10 A2983 RMK SC5AC3 DENSITY ALT 3816FT SLP103=
202408130200 METAR CYOD 130200Z 17008KT 15SM SCT060 BKN110 OVC250 24/10 A2982 RMK SC3AC2CI3 DENSITY ALT 3599FT SLP098=
202408130300 METAR CYOD 130300Z 21003KT 15SM SCT180 BKN240 20/11 A2982 RMK AC3CI4 DENSITY ALT 3072FT SLP100=
202408130400 METAR CYOD 130400Z 13008KT 15SM SCT130 BKN240 18/11 A2983 RMK AC3CI2 DENSITY ALT 2895FT SLP102=
202408130500 METAR CYOD 130500Z 14006KT 15SM SCT130 BKN240 18/12 A2984 RMK AC3CI4 DENSITY ALT 2814FT SLP103=
202408130600 METAR CYOD 130600Z 15004KT 15SM SCT130 BKN240 17/12 A2984 RMK AC4CI3 DENSITY ALT 2772FT SLP102=
202408130700 METAR CYOD 130700Z 13005KT 15SM SCT130 BKN240 18/11 A2983 RMK AC4CI1 DENSITY ALT 2795FT SLP097=
202408130800 METAR CYOD 130800Z 07003KT 15SM FEW130 SCT240 16/10 A2981 RMK AC2CI1 DENSITY ALT 2642FT SLP092=
202408130900 METAR CYOD 130900Z 07004KT 15SM BKN180 15/10 A2980 RMK AC7 DENSITY ALT 2508FT SLP088=
202408131000 METAR CYOD 131000Z 17004KT 15SM OVC120 15/11 A2979 RMK AC8 DENSITY ALT 2565FT SLP086=
202408131100 METAR CYOD 131100Z 21005KT 15SM BKN070 OVC090 15/11 A2980 RMK AC6AC2 DENSITY ALT 2483FT SLP089=
202408131108 SPECI CYOD 131108Z 20003KT 15SM -SHRA BKN065 OVC090 15/11 A2980 RMK SC6AC2 DENSITY ALT 2482FT SLP090=
202408131150 SPECI CYOD 131150Z 00000KT 15SM BKN070 OVC250 16/11 A2980 RMK AC6CI2 DENSITY ALT 2583FT SLP088=
202408131200 METAR CYOD 131200Z 00000KT 15SM SCT070 BKN140 BKN250 15/12 A2980 RMK AC3AC2CI2 DENSITY ALT 2505FT SLP087=
202408131300 METAR CYOD 131300Z 06006KT 15SM BKN070 OVC120 OVC240 15/12 A2978 RMK AC5AC3CI1 DENSITY ALT 2567FT SLP085=
202408131343 SPECI CYOD 131343Z 12003KT 15SM -SHRA BKN100 BKN150 16/12 A2979 RMK AC5AC2 DENSITY ALT 2645FT SLP088=
202408131400 METAR CYOD 131400Z 09005KT 15SM -SHRA FEW060 BKN100 BKN150 16/13 A2978 RMK SC1AC5AC1 DENSITY ALT 2675FT SLP086=
202408131500 METAR CYOD 131500Z 08004KT 15SM SCT090 BKN150 16/13 A2978 RMK AC3AC4 DENSITY ALT 2701FT SLP089=
202408131600 METAR CYOD 131600Z 13007KT 15SM FEW090 BKN150 BKN240 17/13 A2979 RMK AC2AC4CI1 DENSITY ALT 2765FT SLP091=
202408131700 METAR CYOD 131700Z 15005KT 15SM FEW090 SCT150 21/13 A2979 RMK AC2AC2 DENSITY ALT 3243FT SLP089=
202408131800 METAR CYOD 131800Z 12005KT 15SM FEW090 FEW150 23/13 A2978 RMK AC1AC1 DENSITY ALT 3566FT SLP084=
202408131900 METAR CYOD 131900Z 07005KT 030V110 15SM FEW040 FEW150 24/15 A2978 RMK CF1AC2 DENSITY ALT 3707FT SLP081=
202408132000 METAR CYOD 132000Z 09007KT 15SM FEW050 FEW100 FEW240 26/14 A2977 RMK CU1AC1CI2 DENSITY ALT 3895FT SLP079=
202408132100 METAR CYOD 132100Z 33002KT 15SM FEW050 FEW150 BKN240 27/13 A2976 RMK CU1AC1CI3 DENSITY ALT 3995FT SLP077=
202408132200 METAR CYOD 132200Z 06006KT 15SM FEW060 BKN240 28/15 A2975 RMK CU2CI3 DENSITY ALT 4130FT CB SE MOV NE OCNL DIST LTNG SE SLP073=
202408132300 METAR CYOD 132300Z 08009KT 15SM FEW060 FEW150 SCT240 27/15 A2975 RMK CU2AC1CI2 DENSITY ALT 4033FT CB SE MOV NE OCNL DIST LTNG SE SLP074=
202408140000 METAR CYOD 140000Z 09006KT 15SM TS SCT060CB SCT150 BKN240 25/14 A2976 RMK CB3AC1CI3 DENSITY ALT 3860FT OCNL LTGICCC S LTNG DTCTRS REP STRIKES 9 NM S SLP077=
202408140047 SPECI CYOD 140047Z CCA 04005KT 15SM FEW060CB BKN150 BKN240 25/14 A2976 RMK CB2AC3CI2 DENSITY ALT 3765FT CB SW MOV NE FRQ LTGCCCG 22NM NW SLP077=
202408140100 METAR CYOD 140100Z 02004KT 15SM FEW060CB BKN150 BKN240 24/15 A2976 RMK CB2AC3CI2 DENSITY ALT 3724FT CB SW MOV NE OCNL LTGCCCG 20NM NW SLP077=
202408140200 METAR CYOD 140200Z 18002KT 15SM SCT060TCU BKN150 BKN240 22/15 A2977 RMK TCU3AC3CI1 DENSITY ALT 3476FT FRQ DIST LTNG SW SLP081=
202408140300 METAR CYOD 140300Z 00000KT 15SM FEW060TCU SCT150 BKN240 20/16 A2978 RMK TCU2AC2CI2 DENSITY ALT 3159FT SLP085=
202408140400 METAR CYOD 140400Z 22005KT 15SM FEW070 SCT150 BKN250 17/15 A2978 RMK AC1AC2CI2 DENSITY ALT 2792FT SLP089=
202408140500 METAR CYOD 140500Z 26003KT 15SM FEW060 FEW250 16/15 A2978 RMK SC1CI2 DENSITY ALT 2709FT SLP088=
202408140600 METAR CYOD 140600Z 22003KT 15SM FEW250 15/14 A2979 RMK CI2 DENSITY ALT 2575FT SLP089=
202408140700 METAR CYOD 140700Z 19002KT 15SM MIFG FEW250 15/14 A2979 RMK CI1 DENSITY ALT 2516FT SLP090=
202408140800 METAR CYOD 140800Z 23002KT 15SM MIFG SKC 14/14 A2979 RMK DENSITY ALT 2466FT SLP087=
202408140900 METAR CYOD 140900Z 26003KT 15SM MIFG SKC 14/13 A2979 RMK DENSITY ALT 2412FT SLP086=
202408141000 METAR CYOD 141000Z 27003KT 15SM MIFG SKC 14/13 A2979 RMK DENSITY ALT 2369FT SLP086=
202408141100 METAR CYOD 141100Z 21004KT 12SM MIFG SKC 14/13 A2981 RMK DENSITY ALT 2327FT SLP093=
202408141200 METAR CYOD 141200Z 24002KT 10SM MIFG FEW060 FEW250 12/12 A2982 RMK SC1CI1 DENSITY ALT 2170FT SLP099=
202408141300 METAR CYOD 141300Z 27004KT 10SM MIFG FEW060 FEW250 13/13 A2983 RMK SC1CI1 DENSITY ALT 2256FT SLP104=
202408141400 METAR CYOD 141400Z 24003KT 12SM FEW090 FEW250 15/14 A2984 RMK AC1CI2 DENSITY ALT 2431FT SLP108=
202408141500 METAR CYOD 141500Z 23006KT 15SM FEW090 FEW250 17/14 A2985 RMK AC1CI2 DENSITY ALT 2716FT SLP110=
202408141600 METAR CYOD 141600Z 28009KT 15SM FEW150 FEW250 20/15 A2985 RMK AC1CI1 DENSITY ALT 3123FT SLP110=
202408141700 METAR CYOD 141700Z 23006KT 15SM FEW150 FEW250 23/15 A2985 RMK AC1CI1 DENSITY ALT 3424FT SLP109=
202408141800 METAR CYOD 141800Z 25009KT 9SM FEW150 24/15 A2985 RMK AC1 DENSITY ALT 3643FT SLP108=
202408141838 SPECI CYOD 141838Z 27009KT 4SM FU SCT150 26/15 A2985 RMK AC4 DENSITY ALT 3787FT SLP109=
202408141900 METAR CYOD 141900Z 26010KT 2 1/2SM FU BKN150 24/15 A2986 RMK AC6 DENSITY ALT 3603FT SLP111=
202408141930 SPECI CYOD 141930Z 27013KT 1 1/4SM FU BKN150 25/16 A2986 RMK FU2AC5 DENSITY ALT 3697FT SLP111=
202408142000 METAR CYOD 142000Z 27012KT 1 1/4SM FU BKN120 23/15 A2987 RMK FU5AC2 DENSITY ALT 3485FT SLP116=
202408142100 METAR CYOD 142100Z 26012KT 1 1/4SM FU BKN120 23/16 A2988 RMK FU4AC3 DENSITY ALT 3454FT SLP121=
202408142132 SPECI CYOD 142132Z 29012KT 2 1/2SM FU BKN120 23/15 A2989 RMK FU3AC4 DENSITY ALT 3390FT SLP123=
202408142200 METAR CYOD 142200Z 30015KT 4SM FU BKN027 BKN120 22/15 A2989 RMK FU2SC4AC1 DENSITY ALT 3325FT SLP125=
202408142300 METAR CYOD 142300Z 30013KT 280V340 4SM FU BKN030 22/15 A2991 RMK SC6 DENSITY ALT 3302FT SLP130=
202408150000 METAR CYOD 150000Z 30011KT 3SM FU BKN030 21/14 A2992 RMK SC7 DENSITY ALT 3184FT SLP135=
202408150100 METAR CYOD 150100Z 30012KT 3SM FU BKN030 21/14 A2993 RMK FU2SC4 DENSITY ALT 3109FT OCNL DIST LTNG E SLP141=
202408150200 METAR CYOD 150200Z 31011KT 3SM FU FEW025 BKN035 20/14 A2995 RMK FU2CF1SC5 DENSITY ALT 2988FT SLP146=
202408150300 METAR CYOD 150300Z 30007KT 3SM FU SCT025 BKN040 18/14 A2997 RMK FU2CF1SC3 DENSITY ALT 2746FT SLP152=
202408150400 METAR CYOD 150400Z 29005KT 4SM FU SCT040 16/14 A2998 RMK SC3 DENSITY ALT 2484FT SLP157=
202408150500 METAR CYOD 150500Z 31007KT 4SM FU BKN040 17/14 A2999 RMK SC6 DENSITY ALT 2526FT SLP158=
202408150600 METAR CYOD 150600Z 32008KT 4SM FU BKN040 16/14 A2999 RMK SC5 DENSITY ALT 2396FT SLP157=
202408150700 METAR CYOD 150700Z 30006KT 5SM FU FEW020 BKN045 15/14 A3000 RMK SC1SC4 DENSITY ALT 2358FT SLP161=
202408150800 METAR CYOD 150800Z 31006KT 5SM FU BKN040 15/14 A3001 RMK SC6 DENSITY ALT 2309FT SLP164=
202408150900 METAR CYOD 150900Z 30006KT 4SM FU SCT040 13/13 A3002 RMK SC3 DENSITY ALT 2073FT SLP168=
202408151000 METAR CYOD 151000Z 30007KT 4SM FU FEW040 13/12 A3003 RMK SC2 DENSITY ALT 1954FT SLP174=
202408151100 METAR CYOD 151100Z 31006KT 4SM FU FEW040 11/11 A3005 RMK SC1 DENSITY ALT 1766FT SLP181=
202408151121 SPECI CYOD 151121Z 31006KT 6SM FU FEW013 SCT040 12/11 A3006 RMK SC2SC1 DENSITY ALT 1797FT SLP183=
202408151143 SPECI CYOD 151143Z 34008KT 5SM BR FU SCT007 BKN012 13/12 A3006 RMK ST4SC3 DENSITY ALT 1960FT SLP185=
202408151200 METAR CYOD 151200Z 31004KT 5SM BR FU BKN007 OVC012 13/13 A3007 RMK ST6SC2 DENSITY ALT 2019FT SLP187=
202408151232 SPECI CYOD 151232Z 25002KT 5SM BR FU SCT007 SCT012 SCT040 13/12 A3008 RMK ST3SC1SC1 DENSITY ALT 1950FT SLP191=
202408151300 METAR CYOD 151300Z 24004KT 6SM BR FU FEW012 13/12 A3009 RMK ST2 DENSITY ALT 1872FT SLP194=
202408151336 SPECI CYOD 151336Z 29006KT 2SM BR FU FEW012 13/13 A3010 RMK ST1 DENSITY ALT 1968FT SLP197=
202408151400 METAR CYOD 151400Z 32007KT 6SM BR FU BKN005 13/13 A3010 RMK FU5 DENSITY ALT 1982FT SLP199=
202408151446 SPECI CYOD 151446Z 30004KT 1 1/4SM BR FU BKN003 14/13 A3010 RMK FU6 DENSITY ALT 2010FT SLP199=
202408151500 METAR CYOD 151500Z 32003KT 6SM FU BKN003 14/13 A3011 RMK FU6 DENSITY ALT 1997FT SLP202=
202408151600 METAR CYOD 151600Z 00000KT 3SM FU BKN006 15/13 A3011 RMK SF7 DENSITY ALT 2136FT SLP203=
202408151626 SPECI CYOD 151626Z 27002KT 6SM FU BKN009 16/13 A3011 RMK SC5 DENSITY ALT 2351FT SLP203=
202408151700 METAR CYOD 151700Z 17006KT 6SM FU BKN012 17/14 A3011 RMK SC5 DENSITY ALT 2481FT SLP201=
202408151800 METAR CYOD 151800Z 24004KT 200V270 8SM FEW023 20/13 A3010 RMK CU2 DENSITY ALT 2772FT SLP197=
202408151900 METAR CYOD 151900Z 35004KT 9SM FEW030 21/12 A3009 RMK CU1 DENSITY ALT 2896FT SLP192=
202408152000 METAR CYOD 152000Z 33005KT 310V010 12SM FEW040 23/12 A3008 RMK CU1 DENSITY ALT 3122FT SLP189=
202408152100 METAR CYOD 152100Z 23005KT 12SM FEW040 24/10 A3007 RMK CU1 DENSITY ALT 3262FT SLP187=
202408152200 METAR CYOD 152200Z 31005KT 12SM FEW040 24/10 A3006 RMK CF1 DENSITY ALT 3307FT SLP183=
202408152300 METAR CYOD 152300Z 34002KT 12SM FEW040 27/10 A3006 RMK CF1 DENSITY ALT 3677FT SLP182=
202408160000 METAR CYOD 160000Z 12005KT 12SM FEW040 24/11 A3005 RMK CF1 DENSITY ALT 3344FT SLP179=
202408160100 METAR CYOD 160100Z 10004KT 12SM FEW060 24/11 A3005 RMK CU1 DENSITY ALT 3267FT SLP180=
202408160200 METAR CYOD 160200Z 14004KT 10SM FEW060 21/13 A3006 RMK SC1 DENSITY ALT 3019FT SLP182=
202408160300 METAR CYOD 160300Z 14005KT 10SM FEW120 18/13 A3007 RMK AC1 DENSITY ALT 2637FT SLP188=
202408160400 METAR CYOD 160400Z 09002KT 10SM FEW120 17/12 A3008 RMK AC1 DENSITY ALT 2380FT SLP193=
202408160500 METAR CYOD 160500Z 08004KT 10SM BKN120 16/13 A3008 RMK AC5 DENSITY ALT 2339FT SLP192=
202408160600 METAR CYOD 160600Z 00000KT 10SM FEW110 FEW180 SCT220 14/12 A3009 RMK AC1AC1CI2 DENSITY ALT 2017FT SLP194=
202408160700 METAR CYOD 160700Z 17002KT 10SM FEW100 SCT170 BKN210 13/12 A3010 RMK AC2AC2CI1 DENSITY ALT 1917FT SLP197=
202408160800 METAR CYOD 160800Z 00000KT 10SM FEW110 BKN160 BKN220 13/12 A3010 RMK AC2AC3CI1 DENSITY ALT 1919FT SLP196=
202408160900 METAR CYOD 160900Z 14003KT 10SM SCT100 BKN150 14/12 A3010 RMK AC4AC3 DENSITY ALT 2011FT SLP194=
202408161000 METAR CYOD 161000Z 10002KT 10SM FEW080 BKN100 OVC120 14/12 A3009 RMK AC2AC4AC2 DENSITY ALT 2111FT SLP192=
202408161100 METAR CYOD 161100Z 26003KT 10SM -SHRA BKN080 OVC110 13/12 A3011 RMK AC5AC3 DENSITY ALT 1948FT PCPN VRY LGT SLP199=
202408161200 METAR CYOD 161200Z 02002KT 10SM -SHRA BKN070 OVC090 14/13 A3012 RMK AC5AC3 DENSITY ALT 1995FT PCPN VRY LGT SLP204=
202408161300 METAR CYOD 161300Z 00000KT 9SM -RA SCT060 OVC080 14/13 A3015 RMK SC3AS5 DENSITY ALT 1953FT SLP211=
202408161400 METAR CYOD 161400Z 13003KT 9SM -RA SCT070 OVC080 15/14 A3015 RMK AC4AS4 DENSITY ALT 2073FT PCPN VRY LGT SLP212=
202408161500 METAR CYOD 161500Z 10003KT 9SM -RA OVC090 15/14 A3015 RMK AC8 DENSITY ALT 2099FT SLP215=
202408161600 METAR CYOD 161600Z 09002KT 9SM -RA OVC110 15/14 A3015 RMK AC8 DENSITY ALT 2114FT SLP216=
202408161700 METAR CYOD 161700Z 09003KT 9SM -RA OVC100 16/14 A3015 RMK AC8 DENSITY ALT 2232FT PCPN VRY LGT SLP217=
202408161800 METAR CYOD 161800Z 07006KT 9SM OVC100 16/14 A3015 RMK AC8 DENSITY ALT 2313FT SLP217=
202408161900 METAR CYOD 161900Z 08007KT 9SM OVC110 18/14 A3014 RMK AC8 DENSITY ALT 2533FT SLP215=
202408162000 METAR CYOD 162000Z 08008KT 12SM OVC110 19/14 A3013 RMK AC8 DENSITY ALT 2690FT SLP211=
202408162100 METAR CYOD 162100Z 06010KT 12SM OVC110 20/12 A3013 RMK AC8 DENSITY ALT 2783FT SLP207=
202408162200 METAR CYOD 162200Z 07009KT 12SM OVC110 21/13 A3012 RMK AC8 DENSITY ALT 2870FT SLP205=
202408162300 METAR CYOD 162300Z 09008KT 12SM BKN110 20/12 A3012 RMK AC7 DENSITY ALT 2803FT SLP206=
202408170000 METAR CYOD 170000Z 09008KT 12SM BKN120 OVC180 20/13 A3012 RMK AC6AC2 DENSITY ALT 2783FT SLP205=
202408170100 METAR CYOD 170100Z 07007KT 10SM -SHRA SCT090 OVC120 19/12 A3011 RMK AS4AC4 DENSITY ALT 2630FT PCPN VRY LGT SLP204=
202408170140 SPECI CYOD 170140Z 08007KT 8SM SCT090 OVC120 18/13 A3011 RMK AS3AC5 DENSITY ALT 2509FT FU SLP204=
202408170200 METAR CYOD 170200Z 08009KT 8SM FEW090 OVC120 18/12 A3011 RMK AC2AC6 DENSITY ALT 2495FT FU SLP203=
202408170300 METAR CYOD 170300Z 09005KT 8SM OVC120 16/12 A3011 RMK AC8 DENSITY ALT 2336FT FU SLP205=
202408170400 METAR CYOD 170400Z 07005KT 8SM FEW060 BKN120 16/12 A3012 RMK SC1AC6 DENSITY ALT 2288FT FU SLP206=
202408170500 METAR CYOD 170500Z 06006KT 7SM BKN130 15/13 A3011 RMK AC7 DENSITY ALT 2193FT FU SLP205=
202408170600 METAR CYOD 170600Z 07008KT 7SM SCT120 14/11 A3011 RMK AC4 DENSITY ALT 2072FT FU SLP204=
202408170700 METAR CYOD 170700Z 07007KT 8SM BKN160 14/11 A3010 RMK AC6 DENSITY ALT 2004FT SLP200=
202408170800 METAR CYOD 170800Z 08008KT 8SM FEW120 BKN160 14/10 A3009 RMK AC1AC4 DENSITY ALT 2049FT FU SLP195=
202408170900 METAR CYOD 170900Z 08008KT 7SM BKN150 14/10 A3009 RMK AC5 DENSITY ALT 2065FT FU SLP194=
202408171000 METAR CYOD 171000Z 06008KT 8SM SCT150 13/10 A3008 RMK AC3 DENSITY ALT 1974FT FU SLP192=
202408171100 METAR CYOD 171100Z 07008KT 8SM SCT060 BKN110 14/11 A3008 RMK SC3AC4 DENSITY ALT 2052FT FU SLP192=
202408171200 METAR CYOD 171200Z 07007KT 8SM SCT060 BKN110 14/11 A3008 RMK SC4AC3 DENSITY ALT 2055FT FU SLP191=
202408171300 METAR CYOD 171300Z 08007KT 12SM FEW110 BKN150 14/11 A3008 RMK AC2AC5 DENSITY ALT 2031FT FU SLP191=
202408171400 METAR CYOD 171400Z 08007KT 12SM SCT060 BKN150 15/11 A3007 RMK SC3AC4 DENSITY ALT 2196FT FU SLP190=
202408171500 METAR CYOD 171500Z 08006KT 12SM FEW060 BKN150 17/11 A3006 RMK SC2AC4 DENSITY ALT 2446FT FU SLP185=
202408171600 METAR CYOD 171600Z 11007KT 12SM FEW065 SCT150 BKN250 18/12 A3005 RMK SC2AC1CI2 DENSITY ALT 2572FT FU SLP181=
202408171700 METAR CYOD 171700Z 13008KT 12SM FEW150 BKN250 21/12 A3004 RMK AC2CI3 DENSITY ALT 2935FT FU SLP176=
202408171800 METAR CYOD 171800Z 12010KT 10SM FEW150 SCT250 22/13 A3002 RMK AC2CI2 DENSITY ALT 3131FT FU SLP169=
202408171900 METAR CYOD 171900Z 12007KT 10SM FEW150 BKN250 23/13 A3001 RMK AC2CI3 DENSITY ALT 3312FT FU SLP165=
202408172000 METAR CYOD 172000Z 12008KT 10SM FEW080 BKN250 24/11 A3000 RMK AC2CI3 DENSITY ALT 3406FT FU SLP161=
202408172100 METAR CYOD 172100Z 10008KT 10SM SCT050 BKN080 23/12 A2999 RMK SC4AC3 DENSITY ALT 3321FT OCNL LTGCCCG 13NM S FU SLP157=
202408172142 SPECI CYOD 172142Z 13004KT 12SM -SHRA BKN060 OVC080 22/12 A2998 RMK SC5AC3 DENSITY ALT 3216FT OCNL LTGCCCG 12NM S FU SLP155=
202408172151 SPECI CYOD 172151Z 13004KT 12SM -TSRA SCT050CB OVC080 22/14 A2998 RMK CB4AC4 DENSITY ALT 3151FT CB S MOVG N OCNL LTGCCCG FU SLP157=
202408172200 METAR CYOD 172200Z 11005KT 12SM -TSRA FEW050CB OVC080 21/14 A2998 RMK CB2AC6 DENSITY ALT 3081FT PCPN VRY LGT CB S MOVG NW OCNL LTGCCCG FU SLP158=
202408172214 SPECI CYOD 172214Z 12004KT 12SM -SHRA BKN060 OVC080 21/13 A2998 RMK SC6AC2 DENSITY ALT 3084FT OCNL DIST LTNG SE SLP158=
202408172300 METAR CYOD 172300Z 30009KT 12SM -SHRA OVC060 17/16 A2999 RMK SC8 DENSITY ALT 2652FT OCNL LTGCC 23NM S SLP162=
202408180000 METAR CYOD 180000Z 33007KT 8SM -SHRA SCT060 OVC090 18/16 A2998 RMK SC4AC4 DENSITY ALT 2755FT PCPN VRY LGT OCNL DIST LTNG S FU SLP157=
202408180031 SPECI CYOD 180031Z 18008KT 2SM -SHRA OVC060 17/16 A3000 RMK SC8 DENSITY ALT 2572FT SLP167=
202408180100 METAR CYOD 180100Z 15003KT 3SM -SHRA OVC060 17/16 A3000 RMK SC8 DENSITY ALT 2546FT OCNL LTGICCG LTNG DTCTRS REP STRIKES 25 NM SW SLP166=
202408180132 SPECI CYOD 180132Z 05004KT 6SM -SHRA OVC060 16/15 A2999 RMK SC8 DENSITY ALT 2487FT SLP164=
202408180200 METAR CYOD 180200Z 01004KT 12SM FEW011 OVC060 16/15 A2999 RMK SF1SC7 DENSITY ALT 2505FT SLP162=
202408180300 METAR CYOD 180300Z 00000KT 8SM -SHRA OVC045 16/15 A3000 RMK SC8 DENSITY ALT 2416FT PCPN VRY LGT SLP164=
202408180400 METAR CYOD 180400Z 00000KT 12SM BKN060 OVC100 16/15 A2999 RMK SC5AC3 DENSITY ALT 2477FT SLP161=
202408180500 METAR CYOD 180500Z 00000KT 10SM SCT070 BKN100 15/15 A2999 RMK AC4AC1 DENSITY ALT 2360FT BR SLP160=
202408180600 METAR CYOD 180600Z CCA 00000KT 12SM SCT050 BKN100 15/14 A3000 RMK SC4AC2 DENSITY ALT 2294FT SLP162=
202408180700 METAR CYOD 180700Z 00000KT 15SM OVC070 15/15 A3000 RMK AC8 DENSITY ALT 2322FT SLP159=
202408180800 METAR CYOD 180800Z 00000KT 12SM OVC060 15/15 A3000 RMK SC8 DENSITY ALT 2322FT SLP159=
202408180830 SPECI CYOD 180830Z 00000KT 8SM -SHRA OVC050 15/15 A3000 RMK SC8 DENSITY ALT 2375FT SLP159=
202408180849 SPECI CYOD 180849Z 00000KT 8SM BKN020 OVC040 15/15 A3000 RMK SC6SC2 DENSITY ALT 2362FT SLP159=
202408180900 METAR CYOD 180900Z 03004KT 8SM OVC020 15/15 A3000 RMK SC8 DENSITY ALT 2359FT SLP159=
202408181000 METAR CYOD 181000Z 07005KT 8SM OVC013 15/15 A3000 RMK ST8 DENSITY ALT 2376FT SLP163=
202408181100 METAR CYOD 181100Z 09004KT 10SM OVC015 15/15 A3001 RMK ST8 DENSITY ALT 2349FT SLP167=
202408181200 METAR CYOD 181200Z 12004KT 6SM BR OVC015 15/14 A3001 RMK ST8 DENSITY ALT 2294FT SLP167=
202408181231 SPECI CYOD 181231Z 14003KT 4SM BR OVC010 15/14 A3001 RMK ST8 DENSITY ALT 2295FT SLP169=
202408181300 METAR CYOD 181300Z 14004KT 4SM BR OVC010 15/14 A3002 RMK ST8 DENSITY ALT 2284FT SLP170=
202408181400 METAR CYOD 181400Z 13007KT 4SM BR FEW004 OVC020 15/14 A3002 RMK SF2SC6 DENSITY ALT 2296FT SLP174=
202408181425 SPECI CYOD 181425Z 15004KT 3SM BR OVC004 15/15 A3003 RMK ST8 DENSITY ALT 2340FT SLP176=
202408181500 METAR CYOD 181500Z 17005KT 2SM BR OVC004 16/15 A3004 RMK ST8 DENSITY ALT 2356FT SLP180=
202408181600 METAR CYOD 181600Z 00000KT 2SM BR OVC004 17/16 A3005 RMK ST8 DENSITY ALT 2465FT SLP182=
202408181650 SPECI CYOD 181650Z 12003KT 6SM BR OVC005 17/16 A3005 RMK ST8 DENSITY ALT 2581FT SLP181=
202408181700 METAR CYOD 181700Z 00000KT 6SM BR OVC006 18/16 A3005 RMK ST8 DENSITY ALT 2607FT SLP182=
202408181800 METAR CYOD 181800Z 03002KT 10SM FEW008 OVC020 18/16 A3006 RMK SF2SC6 DENSITY ALT 2680FT SLP184=
202408181900 METAR CYOD 181900Z 36004KT 8SM SCT015 BKN030 20/16 A3006 RMK SC3SC3 DENSITY ALT 2935FT SLP185=
202408182000 METAR CYOD 182000Z 33005KT 10SM BKN025 22/15 A3006 RMK SC5 DENSITY ALT 3098FT SLP182=
202408182100 METAR CYOD 182100Z 31003KT 10SM BKN030 23/16 A3006 RMK SC6 DENSITY ALT 3186FT FU SLP181=
202408182200 METAR CYOD 182200Z 12002KT 10SM BKN040 23/15 A3006 RMK SC6 DENSITY ALT 3235FT FU SLP181=
202408182300 METAR CYOD 182300Z 06004KT 10SM BKN030 23/16 A3005 RMK SC5 DENSITY ALT 3295FT FU SLP176=
202408190000 METAR CYOD 190000Z 06003KT 10SM SCT040 22/15 A3006 RMK SC4 DENSITY ALT 3157FT FU SLP181=
202408190100 METAR CYOD 190100Z 00000KT 8SM FEW080 23/15 A3006 RMK AC1 DENSITY ALT 3211FT FU SLP180=
202408190200 METAR CYOD 190200Z 00000KT 8SM SKC 21/16 A3005 RMK DENSITY ALT 3067FT SLP180=
202408190300 METAR CYOD 190300Z 00000KT 8SM FEW150 18/15 A3006 RMK AC1 DENSITY ALT 2574FT SLP187=
202408190400 METAR CYOD 190400Z 00000KT 12SM MIFG BKN160 16/15 A3005 RMK AC6 DENSITY ALT 2405FT SLP183=
202408190500 METAR CYOD 190500Z 00000KT 12SM MIFG SCT180 15/15 A3005 RMK AC4 DENSITY ALT 2275FT SLP181=
202408190600 METAR CYOD 190600Z 00000KT 8SM MIFG FEW250 14/14 A3006 RMK CI1 DENSITY ALT 2102FT SLP184=
202408190700 METAR CYOD 190700Z 00000KT 12SM MIFG FEW080 14/14 A3006 RMK AC1 DENSITY ALT 2131FT SLP182=
202408190743 SPECI CYOD 190743Z 06003KT 4SM BR BCFG FEW080 13/13 A3004 RMK AC1 DENSITY ALT 2014FT VIS VRB 2-6 SLP177=
202408190800 METAR CYOD 190800Z 05003KT 1/2SM R31R/P6000FT/N FG FEW080 13/12 A3004 RMK AC1 DENSITY ALT 2042FT SLP176=
202408190829 SPECI CYOD 190829Z 00000KT 2SM PRFG BR FEW080 13/13 A3003 RMK AC1 DENSITY ALT 2052FT VIS VRB 1-3 SLP173=
202408190900 METAR CYOD 190900Z 00000KT 1 3/4SM PRFG BR SKC 12/12 A3002 RMK DENSITY ALT 1912FT VIS VRB 1/2-3 SLP172=
202408191000 METAR CYOD 191000Z 00000KT 1/2SM R31R/3000FT/D FG FEW080 11/11 A3002 RMK AC1 DENSITY ALT 1804FT SLP170=
202408191028 SPECI CYOD 191028Z 00000KT 1 3/4SM PRFG BR SCT001 BKN070 12/12 A3001 RMK ST3AC3 DENSITY ALT 1897FT VIS VRB 1/2-3 SLP167=
202408191100 METAR CYOD 191100Z 06005KT 6SM BR SCT080 13/12 A2999 RMK AC4 DENSITY ALT 1990FT SLP160=
202408191113 SPECI CYOD 191113Z 00000KT 12SM FEW100 13/12 A3000 RMK AC2 DENSITY ALT 1983FT SLP162=
202408191200 METAR CYOD 191200Z 09006KT 10SM BKN100 BKN250 14/13 A2998 RMK AC5CI1 DENSITY ALT 2139FT SLP157=
202408191300 METAR CYOD 191300Z 06006KT 10SM SCT080 BKN130 16/15 A2998 RMK AC3AC3 DENSITY ALT 2413FT SLP153=
202408191400 METAR CYOD 191400Z 09006KT 12SM BKN090 BKN120 16/15 A2997 RMK AC5AC2 DENSITY ALT 2505FT SLP149=
202408191500 METAR CYOD 191500Z 12009KT 12SM FEW090 FEW250 19/16 A2995 RMK AC2CI1 DENSITY ALT 2888FT SLP145=
202408191600 METAR CYOD 191600Z 12007KT 12SM FEW250 22/17 A2992 RMK CI1 DENSITY ALT 3331FT SLP135=
202408191700 METAR CYOD 191700Z 11012KT 12SM FEW160 25/17 A2991 RMK AC2 DENSITY ALT 3638FT SLP129=
202408191800 METAR CYOD 191800Z 14011KT 12SM FEW250 27/17 A2988 RMK CI1 DENSITY ALT 3962FT SLP117=
202408191900 METAR CYOD 191900Z 16011KT 12SM FEW250 28/18 A2987 RMK CI2 DENSITY ALT 4054FT SLP113=
202408192000 METAR CYOD 192000Z 19011KT 12SM FEW140 FEW250 29/17 A2985 RMK AC2CI1 DENSITY ALT 4183FT SLP108=
202408192100 METAR CYOD 192100Z 17011KT 12SM FEW140 SCT250 29/17 A2985 RMK AC2CI1 DENSITY ALT 4241FT SLP107=
202408192200 METAR CYOD 192200Z 19013KT 12SM FEW150 SCT250 30/14 A2984 RMK AC2CI1 DENSITY ALT 4344FT SLP105=
202408192300 METAR CYOD 192300Z 20015G21KT 12SM FEW150 31/12 A2983 RMK AC1 DENSITY ALT 4353FT SLP101=
202408200000 METAR CYOD 200000Z 26012G17KT 12SM FEW150 29/15 A2984 RMK AC1 DENSITY ALT 4200FT SLP102=
202408200100 METAR CYOD 200100Z 28013KT 12SM FEW150 27/16 A2984 RMK AC1 DENSITY ALT 4017FT SLP103=
202408200200 METAR CYOD 200200Z 25005KT 15SM FEW150 25/16 A2984 RMK AC1 DENSITY ALT 3747FT SLP103=
202408200300 METAR CYOD 200300Z 00000KT 8SM FEW150 20/16 A2983 RMK AC1 DENSITY ALT 3200FT SLP103=
202408200400 METAR CYOD 200400Z CCA 14006KT 15SM SCT140 18/16 A2984 RMK AC4 DENSITY ALT 2972FT SLP105=
202408200500 METAR CYOD 200500Z 11005KT 15SM OVC130 19/17 A2986 RMK AC8 DENSITY ALT 2972FT FRQ DIST LTGICCCCG SW SLP108=
202408200600 METAR CYOD 200600Z 11006KT 15SM OVC100 19/17 A2982 RMK AC8 DENSITY ALT 3078FT LTNG DTCTRS REP STRIKES 25 NM SW SLP092=
202408200614 SPECI CYOD 200614Z 15012KT 12SM -SHRA OVC100 20/16 A2981 RMK AC8 DENSITY ALT 3193FT LTNG DTCTRS REP STRIKES 20 NM SW SLP090=
202408200626 SPECI CYOD 200626Z 21007KT 15SM -TSRA OVC060CB 21/16 A2983 RMK CB8 DENSITY ALT 3229FT CB OHD MOV NE CONS LTGICCCCG SLP097=
202408200700 METAR CYOD 200700Z 21021G26KT 10SM -TSRA OVC050CB 20/16 A2989 RMK CB8 DENSITY ALT 3078FT CB OHD MOV NE CONS LTGICCCCG PRESRR SLP118=
202408200715 SPECI CYOD 200715Z 19023G32KT 6SM -TSRA OVC050CB 18/15 A2991 RMK CB8 DENSITY ALT 2761FT CB OHD MOV NE CONS LTGICCCCG PRESRR SLP126=
202408200800 METAR CYOD 200800Z 11022G27KT 6SM -TSRA FEW011 OVC040CB 16/14 A2982 RMK SF2CB6 DENSITY ALT 2694FT CB OHD MOV NE FRQ LTGICCCCG PRESFR SLP095=
202408200811 SPECI CYOD 200811Z 23003G18KT 12SM -TSRA SCT013 OVC050CB 17/14 A2986 RMK SF3CB5 DENSITY ALT 2668FT CB OHD MOV NE FRQ LTGICCCCG SLP109=
202408200900 METAR CYOD 200900Z CCA 10010KT 12SM -TSRA OVC050CB 16/14 A2980 RMK CB8 DENSITY ALT 2679FT CB OHD MOV NE OCNL LTGICCCCG SLP088=
202408201000 METAR CYOD 201000Z 00000KT 15SM -TSRA BKN050CB OVC120 15/14 A2978 RMK CB6AS2 DENSITY ALT 2618FT CB NE MOV NE OCNL LTGICCG SLP081=
202408201023 SPECI CYOD 201023Z 00000KT 15SM FEW060 SCT110 BKN200 14/14 A2976 RMK SC2AS1CI2 DENSITY ALT 2515FT PRESFR SLP073=
202408201100 METAR CYOD 201100Z 00000KT 15SM BKN110 14/13 A2975 RMK AC6 DENSITY ALT 2431FT SLP072=
202408201200 METAR CYOD 201200Z 00000KT 15SM MIFG FEW110 BKN250 13/13 A2976 RMK AC1CI4 DENSITY ALT 2350FT SLP077=
202408201300 METAR CYOD 201300Z 24007KT 15SM BKN110 BKN250 14/13 A2981 RMK AC5CI1 DENSITY ALT 2360FT SLP094=
202408201333 SPECI CYOD 201333Z 22008KT 15SM -SHRA BKN110 15/14 A2982 RMK AC7 DENSITY ALT 2479FT SLP096=
202408201400 METAR CYOD 201400Z 21007KT 15SM -SHRA BKN090 BKN120 16/15 A2980 RMK AC5AC1 DENSITY ALT 2641FT SLP092=
202408201424 SPECI CYOD 201424Z 20006KT 15SM BKN110 17/15 A2980 RMK AC5 DENSITY ALT 2832FT FRQ DIST LTNG W QUAD SLP089=
202408201500 METAR CYOD 201500Z 17005KT 15SM SCT140 BKN250 19/15 A2978 RMK AC4CI1 DENSITY ALT 3056FT OCNL LTGCC 25NM W SLP085=
202408201600 METAR CYOD 201600Z 27006KT 15SM BKN070 19/15 A2980 RMK AC6 DENSITY ALT 3058FT OCNL LTGCC 30NM N SLP093=
202408201700 METAR CYOD 201700Z 26006KT 15SM SCT090 BKN130 21/15 A2978 RMK AC4AC2 DENSITY ALT 3290FT SLP084=
202408201800 METAR CYOD 201800Z 30010KT 15SM FEW100 22/15 A2978 RMK AC2 DENSITY ALT 3452FT SLP084=
202408201900 METAR CYOD 201900Z 25007KT 15SM FEW100 24/15 A2978 RMK AC1 DENSITY ALT 3631FT SLP081=
202408202000 METAR CYOD 202000Z 30010KT 15SM FEW100 25/14 A2978 RMK AC1 DENSITY ALT 3746FT SLP082=
202408202100 METAR CYOD 202100Z 31005KT 15SM FEW100 FEW250 25/12 A2978 RMK AC1CI1 DENSITY ALT 3805FT SLP085=
202408202200 METAR CYOD 202200Z 32007KT 15SM FEW065 SCT250 26/11 A2978 RMK CU1CI2 DENSITY ALT 3867FT SLP085=
202408202300 METAR CYOD 202300Z 29002KT 15SM FEW065 BKN250 26/09 A2978 RMK CU1CI5 DENSITY ALT 3792FT SLP085=
202408210000 METAR CYOD 210000Z 12002KT 15SM SCT090 BKN250 26/08 A2978 RMK AC3CI3 DENSITY ALT 3800FT SLP086=
202408210100 METAR CYOD 210100Z 14003KT 15SM SCT090 BKN250 23/13 A2978 RMK AC3CI2 DENSITY ALT 3489FT MDT CU EMBD SLP087=
202408210200 METAR CYOD 210200Z 00000KT 15SM SCT090 BKN250 21/14 A2977 RMK AC3CI3 DENSITY ALT 3277FT SLP083=
202408210300 METAR CYOD 210300Z 14006KT 15SM VCSH BKN090 19/14 A2980 RMK AC6 DENSITY ALT 3075FT SLP091=
202408210400 METAR CYOD 210400Z 19006KT 15SM -SHRA BKN090 18/14 A2982 RMK AC6 DENSITY ALT 2875FT PCPN VRY LGT SLP099=
202408210423 SPECI CYOD 210423Z 20004KT 15SM BKN090 19/13 A2982 RMK AC6 DENSITY ALT 2955FT SLP099=
202408210500 METAR CYOD 210500Z 33003KT 15SM SCT090 15/13 A2983 RMK AC3 DENSITY ALT 2523FT SLP103=
202408210600 METAR CYOD 210600Z 00000KT 15SM SCT110 14/13 A2984 RMK AC3 DENSITY ALT 2386FT SLP108=
202408210700 METAR CYOD 210700Z 00000KT 15SM SKC 14/13 A2985 RMK DENSITY ALT 2394FT SLP111=
202408210800 METAR CYOD 210800Z 23004KT 15SM SKC 12/11 A2987 RMK DENSITY ALT 2027FT SLP116=
202408210900 METAR CYOD 210900Z 00000KT 15SM FEW090 12/11 A2987 RMK AS1 DENSITY ALT 2047FT SLP116=
202408211000 METAR CYOD 211000Z 00000KT 15SM FEW090 11/10 A2988 RMK AS1 DENSITY ALT 1875FT SLP122=
202408211100 METAR CYOD 211100Z 00000KT 15SM FEW090 11/10 A2990 RMK AC1 DENSITY ALT 1811FT SLP128=
202408211200 METAR CYOD 211200Z 00000KT 15SM MIFG FEW090 10/09 A2990 RMK AC1 DENSITY ALT 1690FT SLP128=
202408211300 METAR CYOD 211300Z 00000KT 15SM MIFG FEW090 FEW250 09/09 A2991 RMK AC1FU2 DENSITY ALT 1653FT SLP133=
202408211400 METAR CYOD 211400Z 28002KT 15SM FEW090 FEW250 13/11 A2991 RMK AC1CI2 DENSITY ALT 2106FT SLP132=
202408211500 METAR CYOD 211500Z 26004KT 15SM FEW090 FEW250 16/12 A2992 RMK AC1CI1 DENSITY ALT 2536FT SLP134=
202408211600 METAR CYOD 211600Z 28004KT 15SM FEW090 FEW250 20/12 A2991 RMK AC1CI1 DENSITY ALT 2963FT SLP130=
202408211700 METAR CYOD 211700Z 26005KT 15SM FEW040 FEW090 FEW250 22/12 A2992 RMK CU1AC1CI1 DENSITY ALT 3209FT SLP133=
202408211800 METAR CYOD 211800Z 23007KT 15SM FEW050 FEW090 24/11 A2991 RMK CU1AC1 DENSITY ALT 3450FT SLP131=
202408211900 METAR CYOD 211900Z 28008KT 15SM FEW090 25/10 A2991 RMK AC1 DENSITY ALT 3541FT SLP128=
202408212000 METAR CYOD 212000Z 30006KT 270V330 15SM FEW060 FEW130 25/10 A2990 RMK CU1AC1 DENSITY ALT 3636FT SLP128=
202408212100 METAR CYOD 212100Z 28003KT 180V330 15SM FEW060 FEW250 26/10 A2990 RMK CU1CI1 DENSITY ALT 3653FT SLP127=
202408212200 METAR CYOD 212200Z 33005KT 300V010 15SM FEW060 SCT250 26/10 A2990 RMK CU1CI2 DENSITY ALT 3735FT SLP127=
202408212300 METAR CYOD 212300Z 00000KT 15SM FEW060 SCT250 26/09 A2990 RMK CU1CI3 DENSITY ALT 3696FT SLP127=
202408220000 METAR CYOD 220000Z 34006KT 15SM FEW070 SCT250 25/11 A2989 RMK CU1CI2 DENSITY ALT 3663FT SLP124=
202408220100 METAR CYOD 220100Z 32006KT 15SM FEW055 BKN070 BKN210 24/12 A2988 RMK CU1AC4CI2 DENSITY ALT 3564FT SLP123=
202408220200 METAR CYOD 220200Z 01012KT 15SM FEW050 SCT070 BKN180 BKN250 22/13 A2989 RMK CU1AC2AC2CI2 DENSITY ALT 3295FT SLP127=
202408220300 METAR CYOD 220300Z 36009KT 15SM FEW070 SCT180 BKN250 20/14 A2993 RMK AC2AC2CI3 DENSITY ALT 2982FT SLP140=
202408220400 METAR CYOD 220400Z 36008KT 15SM SCT070 BKN250 19/14 A2995 RMK AC3CI4 DENSITY ALT 2839FT SLP143=
202408220500 METAR CYOD 220500Z 01012KT 10SM FEW070 BKN250 18/14 A2995 RMK AC2CI4 DENSITY ALT 2733FT SLP142=
202408220516 SPECI CYOD 220516Z 02012KT 5SM FU FEW020 FEW070 BKN240 18/14 A2996 RMK CF1AC2CI5 DENSITY ALT 2697FT SLP145=
202408220535 SPECI CYOD 220535Z 01010KT 3SM FU SCT020 BKN070 BKN240 18/14 A2997 RMK FU2CF1AC2CI2 DENSITY ALT 2667FT OCNL DIST LTNG SW SLP148=
202408220600 METAR CYOD 220600Z 01014KT 3SM FU SCT020 BKN070 BKN100 BKN180 17/13 A2997 RMK FU2CF1AC2AC2AC1 DENSITY ALT 2572FT OCNL DIST LTNG SW SLP150=
202408220642 SPECI CYOD 220642Z 01009KT 4SM FU BKN020 OVC070 16/13 A2999 RMK SC6AC2 DENSITY ALT 2484FT FRQ LTGCCCG 26NM SW SLP156=
202408220700 METAR CYOD 220700Z 01009KT 4SM -SHRA FU BKN020 OVC060TCU 16/13 A3000 RMK SC7TCU1 DENSITY ALT 2448FT CONS LTGCCCG 26NM SW SLP158=
202408220709 SPECI CYOD 220709Z CCA 35008KT 5/8SM R31R/P6000FT/D -TSRA FU BKN020 OVC060CB 15/13 A3000 RMK SC6CB2 DENSITY ALT 2330FT CB OHD MOV S OCNL LTGCC SLP161=
202408220800 METAR CYOD 220800Z 36007KT 3SM -TSRA FU BKN017 OVC020CB 14/13 A3002 RMK SC5CB3 DENSITY ALT 2187FT CB OHD MOV S CONS LTGCCCG SLP166=
202408220811 SPECI CYOD 220811Z 36008KT 4SM TS FU BKN018 OVC020CB 14/13 A3002 RMK SC6CB2 DENSITY ALT 2176FT CB OHD MOV S CONS LTGCCCG SLP166=
202408220900 METAR CYOD 220900Z CCA 34009KT 5SM FU FEW020CB BKN035 OVC070 14/12 A3003 RMK CB2SC5AC1 DENSITY ALT 2105FT CB E MOV SE FRQ LTGCCCG 11NM E SLP171=
202408221000 METAR CYOD 221000Z 35009KT 7SM SCT040 BKN070 OVC150 13/11 A3004 RMK SC3AC2AC3 DENSITY ALT 1949FT FRQ DIST LTNG S E FU SLP173=
202408221100 METAR CYOD 221100Z 02007KT 8SM SCT040 SCT160 BKN220 12/10 A3005 RMK SC3AC1CI2 DENSITY ALT 1828FT SLP179=
202408221200 METAR CYOD 221200Z 33008KT 8SM FEW020 SCT040 BKN230 09/09 A3007 RMK SC2SC1CI2 DENSITY ALT 1462FT SLP186=
202408221300 METAR CYOD 221300Z 34008KT 9SM BKN028 BKN230 11/09 A3006 RMK SC6CI1 DENSITY ALT 1673FT SLP185=
202408221400 METAR CYOD 221400Z 35009KT 9SM SCT020 OVC025 12/09 A3008 RMK SC3SC5 DENSITY ALT 1787FT SLP191=
202408221500 METAR CYOD 221500Z 01008KT 340V040 9SM OVC028 13/08 A3008 RMK SC8 DENSITY ALT 1865FT SLP193=
202408221600 METAR CYOD 221600Z 01006KT 15SM FEW025 OVC030 13/08 A3009 RMK SC2SC6 DENSITY ALT 1880FT SLP196=
202408221700 METAR CYOD 221700Z 04006KT 15SM OVC030 14/08 A3008 RMK SC8 DENSITY ALT 2025FT SLP194=
202408221800 METAR CYOD 221800Z 36004KT 15SM OVC030 15/08 A3008 RMK SC8 DENSITY ALT 2099FT SLP193=
202408221900 METAR CYOD 221900Z 29004KT 15SM OVC030 16/12 A3008 RMK SC8 DENSITY ALT 2313FT SLP191=
202408222000 METAR CYOD 222000Z 32005KT 290V360 15SM OVC030 16/09 A3006 RMK SC8 DENSITY ALT 2293FT SLP187=
202408222100 METAR CYOD 222100Z 28002KT 15SM BKN035 16/09 A3005 RMK SC7 DENSITY ALT 2367FT SLP183=
202408222200 METAR CYOD 222200Z 27005KT 230V310 15SM FEW035 18/10 A3002 RMK CU2 DENSITY ALT 2659FT SLP173=
202408222300 METAR CYOD 222300Z 27005KT 15SM FEW035 19/10 A3001 RMK CU2 DENSITY ALT 2694FT SLP169=
202408230000 METAR CYOD 230000Z 21006KT 15SM FEW037 19/11 A2999 RMK CU1 DENSITY ALT 2728FT SLP165=
202408230100 METAR CYOD 230100Z 18003KT 10SM SKC 18/10 A2998 RMK DENSITY ALT 2675FT SLP160=
202408230200 METAR CYOD 230200Z 18004KT 10SM FEW250 16/11 A2997 RMK CI1 DENSITY ALT 2409FT SLP158=
202408230300 METAR CYOD 230300Z 15006KT 10SM SKC 13/11 A2997 RMK DENSITY ALT 2107FT SLP159=
202408230400 METAR CYOD 230400Z 15006KT 10SM SKC 11/10 A2997 RMK DENSITY ALT 1843FT SLP161=
202408230500 METAR CYOD 230500Z 16005KT 10SM SKC 10/09 A2997 RMK DENSITY ALT 1712FT SLP160=
202408230600 METAR CYOD 230600Z 16006KT 12SM SKC 09/09 A2997 RMK DENSITY ALT 1566FT SLP159=
202408230700 METAR CYOD 230700Z 15005KT 10SM SKC 09/08 A2996 RMK DENSITY ALT 1549FT SLP156=
202408230800 METAR CYOD 230800Z 17005KT 8SM SKC 09/08 A2996 RMK DENSITY ALT 1483FT SLP155=
202408230900 METAR CYOD 230900Z 14004KT 8SM SKC 09/08 A2995 RMK DENSITY ALT 1510FT SLP152=
202408231000 METAR CYOD 231000Z 14004KT 8SM SKC 08/08 A2994 RMK DENSITY ALT 1451FT SLP148=
202408231100 METAR CYOD 231100Z 14005KT 8SM SKC 08/08 A2993 RMK DENSITY ALT 1490FT SLP144=
202408231200 METAR CYOD 231200Z 14005KT 6SM BR SKC 08/08 A2992 RMK DENSITY ALT 1421FT SLP143=
202408231300 METAR CYOD 231300Z 14005KT 6SM BR FEW080 09/09 A2992 RMK AC1 DENSITY ALT 1572FT SLP140=
202408231400 METAR CYOD 231400Z 14006KT 6SM BR FEW080 11/10 A2992 RMK AC1 DENSITY ALT 1869FT SLP139=
202408231500 METAR CYOD 231500Z 14007KT 9SM FEW070 14/12 A2991 RMK AC1 DENSITY ALT 2269FT SLP137=
202408231600 METAR CYOD 231600Z 15009KT 12SM FEW250 17/13 A2990 RMK CI1 DENSITY ALT 2715FT SLP132=
202408231700 METAR CYOD 231700Z 13008KT 15SM FEW150 FEW250 21/15 A2988 RMK AC1CI1 DENSITY ALT 3174FT SLP123=
202408231800 METAR CYOD 231800Z 17009KT 15SM FEW150 FEW250 24/14 A2986 RMK AC1CI1 DENSITY ALT 3532FT SLP116=
202408231900 METAR CYOD 231900Z 16014KT 15SM FEW150 FEW250 25/13 A2984 RMK AC1CI1 DENSITY ALT 3696FT SLP109=
202408232000 METAR CYOD 232000Z 20015KT 15SM FEW150 FEW250 26/12 A2983 RMK AC1CI1 DENSITY ALT 3804FT SLP104=
202408232100 METAR CYOD 232100Z 19016KT 15SM FEW150 FEW250 26/12 A2982 RMK AC1CI1 DENSITY ALT 3841FT SLP100=
202408232200 METAR CYOD 232200Z 19010KT 15SM FEW150 FEW250 27/14 A2980 RMK AC1CI1 DENSITY ALT 3962FT SLP096=
202408232300 METAR CYOD 232300Z 15015KT 15SM FEW250 26/13 A2978 RMK CI1 DENSITY ALT 3941FT SLP089=
202408240000 METAR CYOD 240000Z 14009KT 15SM FEW220 26/14 A2978 RMK CI1 DENSITY ALT 3860FT SLP088=
202408240100 METAR CYOD 240100Z 14010KT 12SM FEW160 SCT210 24/14 A2978 RMK AC2CI1 DENSITY ALT 3718FT SLP088=
202408240200 METAR CYOD 240200Z 13008KT 12SM SCT160 BKN210 22/14 A2978 RMK AC4CI1 DENSITY ALT 3389FT SLP090=
202408240300 METAR CYOD 240300Z 13009KT 12SM FEW160 BKN190 20/14 A2978 RMK AC2AC3 DENSITY ALT 3177FT SLP090=
202408240400 METAR CYOD 240400Z 12010KT 10SM FEW160 FEW190 SCT210 19/12 A2978 RMK AC1AC1CI2 DENSITY ALT 3052FT SLP086=
202408240500 METAR CYOD 240500Z 11009KT 10SM FEW190 SCT250 18/12 A2977 RMK AC1CI2 DENSITY ALT 2927FT SLP082=
202408240600 METAR CYOD 240600Z 11009KT 10SM SCT150 SCT190 BKN250 17/13 A2975 RMK AC3AC1CI1 DENSITY ALT 2883FT SLP074=
202408240700 METAR CYOD 240700Z 09009KT 9SM FEW150 BKN250 16/13 A2973 RMK AC2CI4 DENSITY ALT 2696FT SLP065=
202408240800 METAR CYOD 240800Z 09010KT 8SM SCT130 BKN180 BKN250 16/14 A2971 RMK AC3AC3CI1 DENSITY ALT 2807FT SLP059=
202408240900 METAR CYOD 240900Z 09011KT 8SM SCT130 OVC180 17/14 A2971 RMK AC4AC4 DENSITY ALT 2845FT SLP057=
202408240915 SPECI CYOD 240915Z 11009KT 8SM -SHRA BKN110 OVC180 17/14 A2971 RMK AS5AC3 DENSITY ALT 2850FT SLP057=
202408240940 SPECI CYOD 240940Z 09008KT 8SM FEW070 OVC120 16/14 A2972 RMK AC2AS6 DENSITY ALT 2799FT OCNL DIST LTNG SW SLP062=
202408241000 METAR CYOD 241000Z 09010KT 8SM -RA FEW060CB OVC120 16/14 A2972 RMK CB2AS6 DENSITY ALT 2810FT CB S MOV NW CONS DIST LTNG SW SLP061=
202408241040 SPECI CYOD 241040Z 09005KT 7SM -TSRA SCT060CB BKN080 OVC120 16/14 A2971 RMK CB3AS4AC1 DENSITY ALT 2786FT CB OHD MOV NW OCNL LTGCC SLP059=
202408241100 METAR CYOD 241100Z 06004KT 6SM -TSRA SCT060CB BKN080 OVC110 16/14 A2970 RMK CB3AC3AS2 DENSITY ALT 2762FT CB OHD MOV NW OCNL LTGCC SLP057=
202408241118 SPECI CYOD 241118Z 05003KT 6SM -RA SCT055CB BKN070 OVC110 15/14 A2969 RMK CB3AC4AS1 DENSITY ALT 2727FT CB W MOV NW CONS LTGCCCG 15NM W QUAD SLP054=
202408241200 METAR CYOD 241200Z 03007KT 7SM -RA SCT070 BKN110 OVC180 15/14 A2968 RMK AC3AS3AC2 DENSITY ALT 2725FT FRQ LTGCCCG 20NM NW SLP048=
202408241227 SPECI CYOD 241227Z 05005KT 7SM SCT070 OVC120 16/14 A2968 RMK AC3AC5 DENSITY ALT 2776FT SLP049=
202408241300 METAR CYOD 241300Z 05008KT 9SM BKN090 OVC140 16/14 A2964 RMK AC5AC3 DENSITY ALT 2871FT SLP037=
202408241400 METAR CYOD 241400Z 08003KT 9SM BKN140 BKN190 16/15 A2965 RMK AC6AC1 DENSITY ALT 2843FT SLP042=
202408241500 METAR CYOD 241500Z 10011KT 9SM BKN035 BKN120 18/15 A2964 RMK SC6AC1 DENSITY ALT 3068FT SLP039=
202408241600 METAR CYOD 241600Z 10012KT 9SM BKN025 BKN100 19/15 A2963 RMK SC6AC1 DENSITY ALT 3303FT SLP032=
202408241700 METAR CYOD 241700Z 11013KT 12SM FEW023 OVC260 19/15 A2960 RMK SC1CI7 DENSITY ALT 3315FT SLP023=
202408241800 METAR CYOD 241800Z 14015KT 12SM FEW023 BKN260 21/16 A2958 RMK SC1CI7 DENSITY ALT 3558FT SLP015=
202408241900 METAR CYOD 241900Z 18014KT 15SM BKN180 BKN260 23/10 A2957 RMK AC5CI1 DENSITY ALT 3686FT SLP013=
202408242000 METAR CYOD 242000Z 17015KT 15SM FEW050 FEW180 24/08 A2956 RMK CU1AC1 DENSITY ALT 3883FT SLP009=
202408242100 METAR CYOD 242100Z 17013KT 140V200 15SM FEW180 25/07 A2955 RMK AC1 DENSITY ALT 4018FT SLP006=
202408242200 METAR CYOD 242200Z 18021G28KT 15SM FEW180 FEW250 26/04 A2955 RMK AC1CI1 DENSITY ALT 4053FT SLP002=
202408242300 METAR CYOD 242300Z 19012KT 15SM FEW180 26/05 A2954 RMK AC1 DENSITY ALT 4097FT SLP001=
202408250000 METAR CYOD 250000Z 19015KT 15SM FEW180 FEW240 26/04 A2954 RMK AC1CI1 DENSITY ALT 4028FT SLP000=
202408250100 METAR CYOD 250100Z 19014KT 15SM FEW100 SCT240 24/04 A2955 RMK AC1CI2 DENSITY ALT 3872FT SLP003=
202408250200 METAR CYOD 250200Z 19011KT 15SM FEW120 BKN240 22/04 A2956 RMK AC2CI3 DENSITY ALT 3624FT SLP009=
202408250300 METAR CYOD 250300Z 20007KT 15SM FEW120 BKN240 19/06 A2957 RMK AC2CI4 DENSITY ALT 3250FT SLP014=
202408250400 METAR CYOD 250400Z 20007KT 12SM BKN250 17/09 A2959 RMK CI6 DENSITY ALT 3023FT SLP021=
202408250500 METAR CYOD 250500Z 24011KT 12SM SCT250 17/13 A2962 RMK CI3 DENSITY ALT 2957FT SLP031=
202408250600 METAR CYOD 250600Z 20007KT 12SM FEW025 SCT250 15/12 A2963 RMK SC1CI2 DENSITY ALT 2693FT SLP035=
202408250618 SPECI CYOD 250618Z 20008KT 12SM BKN023 BKN250 15/12 A2963 RMK SC5CI1 DENSITY ALT 2670FT SLP035=
202408250700 METAR CYOD 250700Z 21010KT 12SM OVC019 16/13 A2963 RMK SC8 DENSITY ALT 2810FT SLP035=
202408250800 METAR CYOD 250800Z 23010KT 12SM OVC018 16/13 A2963 RMK SC8 DENSITY ALT 2839FT SLP031=
202408250900 METAR CYOD 250900Z 22009KT 12SM OVC014 16/13 A2964 RMK SC8 DENSITY ALT 2794FT SLP034=
202408250906 SPECI CYOD 250906Z 23009KT 12SM -RA OVC014 16/13 A2964 RMK SC8 DENSITY ALT 2794FT TCU EMBD SLP035=
202408250915 SPECI CYOD 250915Z 23010KT 2SM -RA OVC013 15/14 A2964 RMK SC8 DENSITY ALT 2726FT TCU EMBD SLP036=
202408250941 SPECI CYOD 250941Z 29013KT 7SM SCT014 OVC020 15/13 A2965 RMK SC4SC4 DENSITY ALT 2686FT SLP039=
202408251000 METAR CYOD 251000Z 29013KT 10SM BKN013 OVC020 15/13 A2966 RMK SC5SC3 DENSITY ALT 2631FT SLP043=
202408251017 SPECI CYOD 251017Z 30016KT 8SM -RA BKN012 OVC020 14/13 A2968 RMK SC6SC2 DENSITY ALT 2567FT SLP048=
202408251100 METAR CYOD 251100Z 28010KT 8SM -RA BKN016 BKN020 OVC050 13/11 A2972 RMK SC5SC2SC1 DENSITY ALT 2312FT SLP063=
202408251200 METAR CYOD 251200Z 30011KT 10SM -RA BKN020 OVC027 12/10 A2977 RMK SC5SC3 DENSITY ALT 2153FT PCPN VRY LGT SLP082=
202408251300 METAR CYOD 251300Z 29009KT 10SM -RA OVC020 11/10 A2982 RMK SC8 DENSITY ALT 1994FT SLP101=
202408251400 METAR CYOD 251400Z 28009KT 15SM OVC020 11/10 A2986 RMK SC8 DENSITY ALT 1959FT SLP116=
202408251500 METAR CYOD 251500Z 31017KT 15SM OVC020 12/09 A2990 RMK SC8 DENSITY ALT 2018FT SLP131=
202408251600 METAR CYOD 251600Z 31018KT 15SM OVC020 12/08 A2993 RMK SC8 DENSITY ALT 2001FT SLP144=
202408251700 METAR CYOD 251700Z 30014KT 15SM OVC025 14/08 A2996 RMK SC8 DENSITY ALT 2137FT SLP152=
202408251800 METAR CYOD 251800Z 30012KT 15SM BKN030 15/08 A2998 RMK SC6 DENSITY ALT 2316FT SLP160=
202408251900 METAR CYOD 251900Z 28011KT 15SM BKN035 17/08 A3000 RMK SC5 DENSITY ALT 2465FT SLP163=
202408252000 METAR CYOD 252000Z 27014KT 15SM FEW040 18/08 A3000 RMK CU1 DENSITY ALT 2587FT SLP165=
202408252100 METAR CYOD 252100Z 32012KT 15SM FEW040 19/08 A3002 RMK CU1 DENSITY ALT 2686FT SLP170=
202408252200 METAR CYOD 252200Z 28010KT 15SM FEW040 20/09 A3003 RMK CU1 DENSITY ALT 2795FT SLP174=
202408252300 METAR CYOD 252300Z 29011KT 15SM FEW050 20/08 A3004 RMK CU1 DENSITY ALT 2810FT SLP179=
202408260000 METAR CYOD 260000Z 30010KT 15SM FEW050 20/07 A3006 RMK CU1 DENSITY ALT 2772FT SLP185=
202408260100 METAR CYOD 260100Z 30009KT 15SM FEW050 19/08 A3007 RMK SC1 DENSITY ALT 2677FT SLP192=
202408260200 METAR CYOD 260200Z 29005KT 15SM SKC 17/08 A3009 RMK DENSITY ALT 2328FT SLP198=
202408260300 METAR CYOD 260300Z 00000KT 15SM FEW250 13/09 A3010 RMK CI1 DENSITY ALT 1845FT SLP205=
202408260400 METAR CYOD 260400Z 00000KT 15SM SKC 11/09 A3012 RMK DENSITY ALT 1628FT SLP212=
202408260500 METAR CYOD 260500Z 00000KT 15SM MIFG SKC 10/08 A3013 RMK DENSITY ALT 1415FT SLP217=
202408260600 METAR CYOD 260600Z 00000KT 15SM MIFG SKC 09/08 A3014 RMK DENSITY ALT 1287FT SLP219=
202408260700 METAR CYOD 260700Z 00000KT 15SM MIFG SKC 08/07 A3015 RMK DENSITY ALT 1112FT SLP222=
202408260800 METAR CYOD 260800Z 00000KT 15SM MIFG SKC 07/07 A3016 RMK DENSITY ALT 1030FT SLP224=
202408260900 METAR CYOD 260900Z 00000KT 15SM MIFG SKC 06/06 A3016 RMK DENSITY ALT 906FT SLP224=
202408261000 METAR CYOD 261000Z 00000KT 15SM MIFG SKC 06/06 A3016 RMK DENSITY ALT 920FT SLP226=
202408261100 METAR CYOD 261100Z 00000KT 15SM MIFG SKC 06/05 A3017 RMK DENSITY ALT 835FT SLP228=
202408261200 METAR CYOD 261200Z 00000KT 15SM MIFG FEW090 06/05 A3019 RMK AC1 DENSITY ALT 868FT SLP233=
202408261300 METAR CYOD 261300Z 00000KT 15SM MIFG SCT085 06/05 A3020 RMK AC4 DENSITY ALT 844FT SLP237=
202408261400 METAR CYOD 261400Z 13007KT 15SM BKN085 11/09 A3019 RMK AC6 DENSITY ALT 1571FT SLP234=
202408261500 METAR CYOD 261500Z 14007KT 15SM SCT085 14/09 A3020 RMK AC4 DENSITY ALT 1888FT SLP237=
202408261600 METAR CYOD 261600Z 09008KT 15SM SCT085 15/10 A3019 RMK AC4 DENSITY ALT 2070FT SLP235=
202408261700 METAR CYOD 261700Z 12009KT 15SM FEW090 19/11 A3019 RMK AC2 DENSITY ALT 2488FT SLP232=
202408261800 METAR CYOD 261800Z 11010KT 15SM FEW090 FEW250 22/12 A3017 RMK AC1CI1 DENSITY ALT 2898FT SLP225=
202408261900 METAR CYOD 261900Z 16012KT 15SM FEW250 23/09 A3015 RMK CI1 DENSITY ALT 3109FT SLP217=
202408262000 METAR CYOD 262000Z 16013KT 15SM FEW250 25/10 A3012 RMK CI2 DENSITY ALT 3303FT SLP208=
202408262100 METAR CYOD 262100Z 12015KT 15SM SCT250 25/09 A3011 RMK CI4 DENSITY ALT 3336FT SLP203=
202408262200 METAR CYOD 262200Z 13012KT 15SM BKN250 25/09 A3010 RMK CI6 DENSITY ALT 3337FT SLP199=
202408262300 METAR CYOD 262300Z 13013KT 15SM BKN250 24/09 A3008 RMK CI7 DENSITY ALT 3312FT SLP195=
202408270000 METAR CYOD 270000Z 14011KT 15SM FEW160 BKN250 25/09 A3007 RMK AC1CI6 DENSITY ALT 3371FT SLP191=
202408270100 METAR CYOD 270100Z 12010KT 15SM SCT160 BKN250 22/10 A3006 RMK AC3CI4 DENSITY ALT 3075FT SLP188=
202408270200 METAR CYOD 270200Z 12012KT 15SM SCT160 BKN250 21/09 A3005 RMK AC4CI3 DENSITY ALT 2972FT SLP180=
202408270300 METAR CYOD 270300Z 12011KT 15SM FEW160 SCT250 19/09 A3004 RMK AC2CI2 DENSITY ALT 2752FT SLP178=
202408270400 METAR CYOD 270400Z 12011KT 15SM SKC 18/09 A3003 RMK DENSITY ALT 2603FT SLP174=
202408270500 METAR CYOD 270500Z 13011KT 15SM SKC 17/09 A3002 RMK DENSITY ALT 2432FT SLP170=
202408270600 METAR CYOD 270600Z 13008KT 15SM SKC 15/09 A3001 RMK DENSITY ALT 2206FT SLP166=
202408270700 METAR CYOD 270700Z 12012KT 15SM SKC 15/09 A3000 RMK DENSITY ALT 2236FT SLP161=
202408270800 METAR CYOD 270800Z 13011KT 15SM SCT100 15/08 A2998 RMK AC3 DENSITY ALT 2218FT SLP154=
202408270900 METAR CYOD 270900Z 12011KT 15SM FEW250 14/08 A2995 RMK CI2 DENSITY ALT 2189FT SLP144=
202408271000 METAR CYOD 271000Z 12011KT 15SM SCT250 15/08 A2992 RMK CI4 DENSITY ALT 2294FT SLP133=
202408271100 METAR CYOD 271100Z 12011KT 15SM BKN250 14/07 A2991 RMK CI6 DENSITY ALT 2191FT SLP129=
202408271200 METAR CYOD 271200Z 12011KT 15SM FEW080 SCT250 13/08 A2988 RMK AC1CI3 DENSITY ALT 2153FT SLP121=
202408271300 METAR CYOD 271300Z 11008KT 15SM BKN250 13/08 A2987 RMK CI5 DENSITY ALT 2104FT SLP118=
202408271400 METAR CYOD 271400Z 12012KT 15SM BKN250 15/08 A2983 RMK CI7 DENSITY ALT 2431FT SLP105=
202408271500 METAR CYOD 271500Z 12012KT 15SM BKN210 16/09 A2981 RMK CI7 DENSITY ALT 2651FT SLP096=
202408271600 METAR CYOD 271600Z 13013KT 15SM FEW180 BKN210 19/11 A2980 RMK AC2CI4 DENSITY ALT 3033FT SLP093=
202408271700 METAR CYOD 271700Z 14016KT 15SM BKN250 21/10 A2977 RMK CI5 DENSITY ALT 3318FT SLP082=
202408271800 METAR CYOD 271800Z 14012KT 15SM BKN250 23/10 A2976 RMK CI7 DENSITY ALT 3511FT SLP080=
202408271900 METAR CYOD 271900Z 16012KT 15SM BKN210 24/11 A2976 RMK CI7 DENSITY ALT 3601FT SLP077=
202408272000 METAR CYOD 272000Z 16011KT 15SM FEW160 BKN210 26/10 A2974 RMK AC1CI6 DENSITY ALT 3870FT SLP071=
202408272100 METAR CYOD 272100Z 15010KT 15SM FEW160 BKN210 27/10 A2973 RMK AC1CI6 DENSITY ALT 4043FT SLP066=
202408272200 METAR CYOD 272200Z 18008KT 15SM FEW160 BKN210 28/08 A2971 RMK AC2CI5 DENSITY ALT 4100FT SLP058=
202408272300 METAR CYOD 272300Z 17009KT 15SM SCT160 OVC210 27/07 A2970 RMK AC3CI5 DENSITY ALT 4001FT SLP056=
202408280000 METAR CYOD 280000Z 13005KT 15SM BKN150 OVC210 26/10 A2969 RMK AC5CI3 DENSITY ALT 3968FT SLP053=
202408280100 METAR CYOD 280100Z 15006KT 15SM SCT150 OVC250 24/12 A2969 RMK AC4CI4 DENSITY ALT 3793FT SLP054=
202408280200 METAR CYOD 280200Z 17009KT 15SM FEW170 OVC250 23/09 A2969 RMK AC1CI7 DENSITY ALT 3576FT SLP055=
202408280300 METAR CYOD 280300Z 16006KT 15SM SCT170 BKN250 20/10 A2971 RMK AC3CI4 DENSITY ALT 3151FT SLP063=
202408280400 METAR CYOD 280400Z 22007KT 15SM OVC190 20/09 A2974 RMK AC8 DENSITY ALT 3172FT SLP070=
202408280500 METAR CYOD 280500Z 00000KT 15SM BKN150 20/10 A2972 RMK AC6 DENSITY ALT 3212FT SLP062=
202408280600 METAR CYOD 280600Z 20004KT 15SM BKN150 17/11 A2975 RMK AC7 DENSITY ALT 2789FT SLP074=
202408280700 METAR CYOD 280700Z 09004KT 15SM OVC150 15/11 A2974 RMK AC8 DENSITY ALT 2629FT SLP071=
202408280800 METAR CYOD 280800Z 00000KT 15SM OVC150 16/11 A2974 RMK AC8 DENSITY ALT 2705FT SLP069=
202408280900 METAR CYOD 280900Z CCA 00000KT 15SM -SHRA OVC070 16/11 A2976 RMK AC8 DENSITY ALT 2645FT SLP075=
202408281000 METAR CYOD 281000Z 00000KT 15SM OVC070 15/12 A2975 RMK AC8 DENSITY ALT 2530FT SLP072=
202408281024 SPECI CYOD 281024Z 05004KT 15SM -SHRA OVC080 16/12 A2974 RMK AC8 DENSITY ALT 2735FT SLP069=
202408281100 METAR CYOD 281100Z 15006KT 15SM -SHRA OVC060 15/12 A2978 RMK SC8 DENSITY ALT 2571FT PCPN VRY LGT SLP083=
202408281200 METAR CYOD 281200Z 00000KT 15SM -SHRA OVC060 15/13 A2979 RMK SC8 DENSITY ALT 2494FT SLP087=
202408281300 METAR CYOD 281300Z 00000KT 10SM -SHRA OVC060 14/14 A2981 RMK SC8 DENSITY ALT 2415FT SLP094=
202408281339 SPECI CYOD 281339Z 04005KT 15SM OVC090 15/14 A2981 RMK AC8 DENSITY ALT 2498FT SLP094=
202408281400 METAR CYOD 281400Z 04007KT 15SM OVC090 15/14 A2980 RMK AC8 DENSITY ALT 2496FT SLP094=
202408281500 METAR CYOD 281500Z 00000KT 15SM OVC080 15/14 A2982 RMK AC8 DENSITY ALT 2526FT SLP101=
202408281526 SPECI CYOD 281526Z 19002KT 12SM -SHRA OVC070 15/14 A2983 RMK AC8 DENSITY ALT 2462FT SLP106=
202408281600 METAR CYOD 281600Z 14003KT 10SM -SHRA OVC055 15/14 A2985 RMK SC8 DENSITY ALT 2481FT SLP112=
202408281700 METAR CYOD 281700Z 34004KT 15SM FEW007 OVC090 16/15 A2985 RMK SF2AC6 DENSITY ALT 2561FT SLP110=
202408281721 SPECI CYOD 281721Z 34005KT 15SM -SHRA FEW007 OVC070 16/15 A2985 RMK SF2AC6 DENSITY ALT 2669FT SLP112=
202408281746 SPECI CYOD 281746Z 03004KT 15SM FEW007 BKN015 OVC060 17/16 A2986 RMK SF1SC5SC2 DENSITY ALT 2764FT SLP113=
202408281800 METAR CYOD 281800Z 04008KT 15SM OVC010 17/15 A2986 RMK SC8 DENSITY ALT 2741FT SLP117=
202408281900 METAR CYOD 281900Z 04008KT 15SM BKN013 OVC090 17/15 A2988 RMK SC5AC3 DENSITY ALT 2675FT SLP122=
202408282000 METAR CYOD 282000Z 01008KT 15SM OVC015 17/15 A2988 RMK SC8 DENSITY ALT 2751FT SLP123=
202408282100 METAR CYOD 282100Z 02009KT 15SM OVC015 17/15 A2989 RMK SC8 DENSITY ALT 2748FT SLP128=
202408282150 SPECI CYOD 282150Z 03010KT 15SM SCT020 OVC075 18/15 A2989 RMK SC4AC4 DENSITY ALT 2812FT SLP125=
202408282200 METAR CYOD 282200Z 03008KT 15SM -SHRA SCT020 OVC075 18/15 A2989 RMK SC4AC4 DENSITY ALT 2812FT SLP126=
202408282300 METAR CYOD 282300Z 04007KT 15SM -SHRA SCT015 OVC065 18/15 A2989 RMK SC4SC4 DENSITY ALT 2793FT SLP127=
202408282322 SPECI CYOD 282322Z 01009KT 12SM -SHRA OVC015 18/15 A2989 RMK SC8 DENSITY ALT 2780FT SLP128=
202408282351 SPECI CYOD 282351Z 01011KT 15SM OVC015 18/15 A2990 RMK SC8 DENSITY ALT 2759FT SLP129=
202408290000 METAR CYOD 290000Z 01011KT 15SM OVC017 17/15 A2990 RMK SC8 DENSITY ALT 2733FT SLP130=
202408290100 METAR CYOD 290100Z 01010KT 15SM OVC018 16/14 A2990 RMK SC8 DENSITY ALT 2600FT SLP132=
202408290200 METAR CYOD 290200Z 35007KT 15SM FEW018 BKN140 16/13 A2991 RMK SC2AC5 DENSITY ALT 2521FT SLP134=
202408290300 METAR CYOD 290300Z 35005KT 15SM BKN130 15/13 A2991 RMK AC6 DENSITY ALT 2422FT SLP136=
202408290400 METAR CYOD 290400Z 33004KT 15SM BKN120 14/13 A2991 RMK AC7 DENSITY ALT 2252FT SLP135=
202408290500 METAR CYOD 290500Z 33004KT 15SM SCT070 OVC130 14/13 A2991 RMK AC4AC4 DENSITY ALT 2241FT SLP136=
202408290600 METAR CYOD 290600Z 31007KT 15SM BKN050 14/13 A2990 RMK SC7 DENSITY ALT 2308FT SLP131=
202408290700 METAR CYOD 290700Z 31008KT 15SM OVC080 14/14 A2990 RMK AC8 DENSITY ALT 2351FT SLP132=
202408290800 METAR CYOD 290800Z 31005KT 15SM SCT100 13/12 A2990 RMK AC4 DENSITY ALT 2170FT SLP131=
202408290900 METAR CYOD 290900Z 29004KT 15SM SKC 12/12 A2989 RMK DENSITY ALT 2048FT SLP130=
202408291000 METAR CYOD 291000Z 30004KT 12SM SKC 11/11 A2989 RMK DENSITY ALT 1935FT SLP129=
202408291100 METAR CYOD 291100Z 24003KT 10SM MIFG SKC 10/09 A2989 RMK DENSITY ALT 1704FT SLP130=
202408291200 METAR CYOD 291200Z 24004KT 6SM BR FEW100 09/08 A2991 RMK AC1 DENSITY ALT 1556FT SLP138=
202408291300 METAR CYOD 291300Z 22004KT 8SM FEW100 08/08 A2992 RMK AC1 DENSITY ALT 1421FT SLP141=
202408291400 METAR CYOD 291400Z 25004KT 15SM FEW180 FEW250 10/09 A2992 RMK AC1CI1 DENSITY ALT 1680FT SLP141=
202408291500 METAR CYOD 291500Z 25006KT 15SM SCT180 SCT250 13/11 A2991 RMK AC3CI1 DENSITY ALT 2101FT SLP137=
202408291600 METAR CYOD 291600Z 23007KT 15SM FEW180 16/10 A2989 RMK AC1 DENSITY ALT 2479FT SLP129=
202408291700 METAR CYOD 291700Z 26006KT 230V300 15SM FEW180 18/11 A2988 RMK AC1 DENSITY ALT 2798FT SLP122=
202408291800 METAR CYOD 291800Z 26009KT 15SM FEW180 20/12 A2986 RMK AC1 DENSITY ALT 3035FT SLP117=
202408291900 METAR CYOD 291900Z 27013KT 230V290 15SM FEW040 FEW180 21/11 A2985 RMK CF1AC1 DENSITY ALT 3208FT SLP110=
202408292000 METAR CYOD 292000Z 28014KT 15SM FEW050 FEW250 23/10 A2984 RMK CU1CI1 DENSITY ALT 3403FT SLP109=
202408292100 METAR CYOD 292100Z 26016G26KT 15SM FEW060 FEW260 23/09 A2984 RMK CU2CI1 DENSITY ALT 3415FT SLP108=
202408292200 METAR CYOD 292200Z 29014KT 15SM SCT065 SCT260 22/09 A2983 RMK CU4CI1 DENSITY ALT 3339FT SLP107=
202408292300 METAR CYOD 292300Z 31012KT 270V340 15SM SCT070 SCT260 24/09 A2983 RMK CU4CI1 DENSITY ALT 3506FT SLP105=
202408300000 METAR CYOD 300000Z 28016KT 15SM FEW070 FEW260 23/07 A2983 RMK CU1CI1 DENSITY ALT 3393FT SLP108=
202408300100 METAR CYOD 300100Z 30010KT 15SM FEW065 SCT110 22/07 A2984 RMK CU1AC2 DENSITY ALT 3275FT SLP113=
202408300200 METAR CYOD 300200Z 33022KT 15SM -SHRA SCT070TCU BKN110 BKN250 18/09 A2990 RMK TCU4AC2CI1 DENSITY ALT 2790FT SLP133=
202408300245 SPECI CYOD 300245Z 32006KT 12SM FEW060TCU SCT080 BKN110 BKN250 15/11 A2990 RMK TCU2AC2AC1CI1 DENSITY ALT 2377FT SLP136=
202408300300 METAR CYOD 300300Z 30006KT 12SM FEW060TCU SCT080 SCT110 SCT250 13/10 A2990 RMK TCU1AC2AC1CI1 DENSITY ALT 2172FT SLP136=
202408300400 METAR CYOD 300400Z 26007KT 12SM FEW110 FEW250 13/10 A2992 RMK AC1CI1 DENSITY ALT 2109FT SLP140=
202408300500 METAR CYOD 300500Z 28007KT 12SM FEW110 FEW250 13/10 A2993 RMK AC1CI1 DENSITY ALT 2079FT SLP142=
202408300600 METAR CYOD 300600Z 26005KT 12SM FEW110 FEW250 11/09 A2993 RMK AC1CI2 DENSITY ALT 1846FT SLP142=
202408300700 METAR CYOD 300700Z 22003KT 12SM FEW250 09/09 A2993 RMK CI1 DENSITY ALT 1623FT SLP143=
202408300800 METAR CYOD 300800Z 23005KT 12SM FEW110 SCT250 09/08 A2994 RMK AC2CI2 DENSITY ALT 1501FT SLP144=
202408300900 METAR CYOD 300900Z 25005KT 12SM FEW110 SCT250 09/08 A2994 RMK AC1CI2 DENSITY ALT 1556FT SLP146=
202408301000 METAR CYOD 301000Z 24006KT 12SM FEW110 SCT250 09/07 A2995 RMK AC1CI2 DENSITY ALT 1474FT SLP148=
202408301100 METAR CYOD 301100Z 24008KT 12SM FEW110 SCT250 09/07 A2996 RMK AC1CI3 DENSITY ALT 1501FT SLP150=
202408301200 METAR CYOD 301200Z 23006KT 15SM FEW110 BKN220 09/08 A2995 RMK AC1CI4 DENSITY ALT 1488FT SLP148=
202408301300 METAR CYOD 301300Z 21003KT 15SM FEW110 BKN220 08/07 A2995 RMK AC1CI5 DENSITY ALT 1421FT SLP148=
202408301400 METAR CYOD 301400Z 22006KT 15SM FEW110 BKN220 11/09 A2994 RMK AC1CI5 DENSITY ALT 1778FT SLP147=
202408301500 METAR CYOD 301500Z 24007KT 15SM FEW140 BKN220 15/10 A2994 RMK AC1CI4 DENSITY ALT 2310FT SLP147=
202408301600 METAR CYOD 301600Z 24007KT 15SM BKN110 BKN220 16/09 A2995 RMK AC7CI1 DENSITY ALT 2390FT SLP149=
202408301700 METAR CYOD 301700Z 25008KT 15SM FEW075 OVC100 16/10 A2996 RMK AC1AC8 DENSITY ALT 2380FT SLP153=
202408301709 SPECI CYOD 301709Z 25008KT 12SM -RA FEW075 OVC100 16/09 A2996 RMK AC1AS8 DENSITY ALT 2403FT SLP153=
202408301800 METAR CYOD 301800Z 26008KT 12SM FEW070 OVC100 18/09 A2996 RMK AC1AS8 DENSITY ALT 2647FT SLP152=
202408301821 SPECI CYOD 301821Z 27008KT 12SM -RA FEW070 OVC100 18/09 A2996 RMK AC1AS8 DENSITY ALT 2625FT SLP152=
202408301900 METAR CYOD 301900Z 27007KT 12SM -RA BKN070 OVC100 16/10 A2995 RMK AC6AS2 DENSITY ALT 2438FT SLP153=
202408302000 METAR CYOD 302000Z 26005KT 12SM -RA BKN070 OVC090 16/11 A2994 RMK AC6AC2 DENSITY ALT 2409FT SLP151=
202408302100 METAR CYOD 302100Z 21003KT 180V240 12SM SCT070 BKN110 16/11 A2994 RMK AC3AC4 DENSITY ALT 2523FT SLP148=
202408302200 METAR CYOD 302200Z 23009KT 15SM FEW040 SCT110 BKN210 19/11 A2993 RMK CU1AC4CI3 DENSITY ALT 2784FT SLP144=
202408302300 METAR CYOD 302300Z 29010KT 15SM FEW040 BKN110 BKN220 20/09 A2992 RMK CU2AC3CI1 DENSITY ALT 2921FT SLP142=
202408310000 METAR CYOD 310000Z 27015KT 15SM FEW090 SCT170 20/08 A2992 RMK AC2AC1 DENSITY ALT 2963FT SLP140=

# No short TAF reports from CYOD in databse.

###################################
#  large TAF from CYOD
###################################
202408010217 TAF AMD CYOD 010217Z 0102/0124 30015G25KT P6SM -SHRA SCT050 BKN090
                       TEMPO 0102/0104 30030G40KT 4SM -SHRA BR
                       SCT050 BKN070 OVC100
                      PROB30 0102/0104 VRB30G45KT 2SM TSRA BR FEW020
                       OVC060CB FM010500 28010KT P6SM FEW020 FEW070
                       FM011900 28012KT P6SM FEW070 RMK NXT FCST
                       BY 010300Z=
202408010240 TAF CYOD 010240Z 0103/0124 33015G25KT P6SM -SHRA SCT050 BKN090
                       TEMPO 0103/0104 33020G35KT 4SM -SHRA BR
                       SCT050 BKN070 OVC100
                      PROB30 0103/0104 VRB30G40KT 2SM TSRA BR FEW020
                       OVC060CB FM010500 28010KT P6SM FEW020 FEW070
                       FM011900 28012KT P6SM FEW070 RMK NXT FCST
                       BY 010600Z=
202408010409 TAF AMD CYOD 010409Z 0104/0124 35005KT P6SM -SHRA SCT040 BKN090
                       TEMPO 0104/0105 VRB15G25KT 5SM -TSRA BR
                       SCT040 BKN070CB OVC100 FM010500 28010KT
                       P6SM FEW020 FEW070 FM011900 28012KT P6SM
                       FEW070 RMK NXT FCST BY 010600Z=
202408010540 TAF CYOD 010540Z 0106/0206 25008KT P6SM BKN100
                      BECMG 0106/0107 FEW100 FM010700 25008KT P6SM
                       FEW020 FEW100
                      TEMPO 0109/0114 5SM BR SKC
                      PROB30 0110/0114 1SM BR BKN020 FM011900 28012KT
                       P6SM SCT070
                      BECMG 0200/0202 30005KT RMK NXT FCST BY 011200Z=
202408011140 TAF CYOD 011140Z 0112/0212 25005KT P6SM FEW250 FM011900 28010KT
                       P6SM SCT070
                      BECMG 0200/0202 30005KT RMK NXT FCST BY 011500Z=
202408011440 TAF CYOD 011440Z 0115/0212 28008KT P6SM FEW250 FM011900 28010KT
                       P6SM SCT070
                      BECMG 0200/0202 30005KT RMK NXT FCST BY 011800Z=
202408011740 TAF CYOD 011740Z 0118/0218 28008KT P6SM FEW040 SCT080
                      BECMG 0200/0202 VRB03KT
                      BECMG 0215/0217 33008KT RMK NXT FCST BY 012100Z=
202408012040 TAF CYOD 012040Z 0121/0218 28008KT P6SM FEW040 FEW120
                      BECMG 0200/0202 VRB03KT
                      BECMG 0215/0217 33008KT RMK NXT FCST BY 020000Z=
202408012340 TAF CYOD 012340Z 0200/0224 25010KT P6SM FEW060
                      BECMG 0200/0202 27005KT
                      BECMG 0202/0204 VRB03KT FM020900 VRB03KT
                       P6SM SCT080
                      TEMPO 0209/0213 P6SM VCSH BKN080 FM021500
                       32008KT P6SM FEW060 FEW250
                      BECMG 0215/0217 33012KT RMK NXT FCST BY 020300Z=
202408020240 TAF CYOD 020240Z 0203/0224 VRB03KT P6SM SKC FM020600 VRB03KT P6SM
                       SCT080
                      TEMPO 0209/0213 P6SM VCSH BKN080 FM021500
                       32008KT P6SM FEW060 FEW250
                      BECMG 0215/0217 33012KT RMK NXT FCST BY 020600Z=
202408020540 TAF CYOD 020540Z 0206/0306 VRB03KT P6SM SKC FM020800 VRB03KT P6SM
                       SCT080
                      TEMPO 0209/0212 P6SM VCSH BKN080
                      BECMG 0212/0214 30005KT FM021500 32008KT
                       P6SM FEW060 FEW250
                      BECMG 0215/0217 33012KT FM030000 35008KT
                       P6SM FEW060 SCT120
                      BECMG 0302/0304 VRB03KT RMK NXT FCST BY 021200Z=
202408020909 TAF AMD CYOD 020909Z 0209/0306 VRB03KT P6SM SCT090
                      TEMPO 0209/0212 P6SM -SHRA BKN090
                      PROB30 0210/0212 4SM -TSRA BR BKN080CB OVC100
                       FM021500 32008KT P6SM FEW060 FEW250
                      BECMG 0215/0217 33012KT FM030000 35008KT
                       P6SM FEW060 SCT120
                      BECMG 0302/0304 VRB03KT RMK NXT FCST BY 021200Z=
202408020932 TAF AMD CYOD 020932Z 0209/0306 VRB03KT P6SM SCT090
                      TEMPO 0209/0211 5SM -TSRA BR BKN080CB OVC100
                       FM021100 VRB03KT P6SM SCT090
                      TEMPO 0211/0212 P6SM -SHRA BKN090
                      PROB30 0211/0212 4SM -TSRA BR BKN080CB OVC100
                       FM021500 32008KT P6SM FEW060 FEW250
                      BECMG 0215/0217 33012KT FM030000 35008KT
                       P6SM FEW060 SCT120
                      BECMG 0302/0304 VRB03KT RMK NXT FCST BY 021200Z=
202408021140 TAF CYOD 021140Z 0212/0312 34008KT P6SM SCT090
                      TEMPO 0212/0213 P6SM -SHRA BKN090
                      PROB30 0212/0213 4SM -TSRA BR BKN080CB OVC100
                       FM021600 35012KT P6SM FEW060 FEW200
                      BECMG 0300/0302 33008KT
                      BECMG 0303/0305 VRB03KT RMK NXT FCST BY 021500Z=
202408021440 TAF CYOD 021440Z 0215/0312 32005KT P6SM SCT080 FM021700 35012KT
                       P6SM FEW060 FEW200
                      BECMG 0300/0302 33008KT
                      BECMG 0303/0305 VRB03KT RMK NXT FCST BY 021800Z=
202408021740 TAF CYOD 021740Z 0218/0318 35012KT P6SM FEW070 FEW250
                      BECMG 0300/0302 33008KT
                      BECMG 0303/0305 VRB03KT RMK NXT FCST BY 022100Z=
202408022040 TAF CYOD 022040Z 0221/0318 34012KT P6SM FEW200
                      BECMG 0300/0302 33008KT
                      BECMG 0303/0305 VRB03KT RMK NXT FCST BY 030000Z=
202408022340 TAF CYOD 022340Z 0300/0324 29008KT P6SM FEW200
                      BECMG 0302/0304 VRB03KT FM031000 12005KT
                       P6SM BKN120 FM032200 09008KT P6SM BKN080
                       RMK NXT FCST BY 030300Z=
202408030240 TAF CYOD 030240Z 0303/0324 VRB03KT P6SM FEW100 SCT250 FM031000
                       12005KT P6SM BKN120 FM032200 09008KT P6SM
                       BKN080 RMK NXT FCST BY 030600Z=
202408030540 TAF CYOD 030540Z 0306/0406 VRB03KT P6SM FEW100 SCT250 FM031000
                       12005KT P6SM BKN120 FM032200 09008KT P6SM
                       BKN080 RMK NXT FCST BY 031200Z=
202408031140 TAF CYOD 031140Z 0312/0412 16005KT P6SM BKN120
                      TEMPO 0312/0322 P6SM -SHRA FM032200 02008KT
                       P6SM BKN080 FM040900 07005KT P6SM BKN050
                       RMK NXT FCST BY 031500Z=
202408031440 TAF CYOD 031440Z 0315/0412 16005KT P6SM BKN120
                      TEMPO 0315/0322 P6SM -SHRA FM032200 02008KT
                       P6SM BKN080 FM040900 07005KT P6SM BKN050
                       RMK NXT FCST BY 031800Z=
202408031740 TAF CYOD 031740Z 0318/0418 18005KT P6SM OVC120
                      TEMPO 0318/0324 P6SM -SHRA
                      BECMG 0320/0322 12008KT FM040000 09008KT
                       P6SM BKN080 FM040900 07005KT P6SM BKN060
                       OVC200 RMK NXT FCST BY 032100Z=
202408032040 TAF CYOD 032040Z 0321/0418 17005KT P6SM OVC100
                      BECMG 0322/0323 11008KT FM040300 09008KT
                       P6SM OVC080 FM040900 07005KT P6SM BKN060
                       OVC200 RMK NXT FCST BY 040000Z=
202408032340 TAF CYOD 032340Z 0400/0424 04008KT P6SM OVC100 FM040300 09008KT
                       P6SM OVC080 FM040900 07005KT P6SM BKN060
                       OVC200 FM041800 10010KT P6SM BKN060 OVC160
                       RMK NXT FCST BY 040300Z=
202408040240 TAF CYOD 040240Z 0403/0424 08008KT P6SM BKN080 FM040900 07005KT
                       P6SM BKN060 OVC200 FM041800 10010KT P6SM
                       BKN060 OVC160 RMK NXT FCST BY 040600Z=
202408040540 TAF CYOD 040540Z 0406/0506 05005KT P6SM BKN070 FM040900 07005KT
                       P6SM BKN060 OVC200 FM041800 10010KT P6SM
                       BKN060 OVC160 RMK NXT FCST BY 041200Z=
202408041140 TAF CYOD 041140Z 0412/0512 07005KT P6SM SCT200 FM041800 10012KT
                       P6SM BKN060 OVC160
                      BECMG 0501/0503 10005KT FM051100 10005KT
                       P6SM -SHRA BKN040 OVC060 RMK NXT FCST BY
                       041500Z=
202408041440 TAF CYOD 041440Z 0415/0512 12005KT P6SM FEW070 SCT200 FM041800
                       10012KT P6SM BKN060 OVC160
                      BECMG 0501/0503 10005KT FM051100 10005KT
                       P6SM -SHRA BKN040 OVC060 RMK NXT FCST BY
                       041800Z=
202408041740 TAF CYOD 041740Z 0418/0518 10012KT P6SM SCT160
                      BECMG 0501/0503 10005KT FM051100 10005KT
                       P6SM -SHRA BKN040 OVC060 RMK NXT FCST BY
                       042100Z=
202408042040 TAF CYOD 042040Z 0421/0518 10010KT P6SM FEW050 BKN160
                      BECMG 0501/0503 10005KT FM051100 10005KT
                       P6SM -SHRA BKN040 OVC060 RMK NXT FCST BY
                       050000Z=
202408042340 TAF CYOD 042340Z 0500/0524 10010KT P6SM FEW060 BKN080 BKN160
                      BECMG 0501/0503 10005KT FM051100 10005KT
                       P6SM BKN040 OVC060
                      TEMPO 0511/0518 P6SM -SHRA FM051800 10010KT
                       P6SM -SHRA BKN030 OVC060 RMK NXT FCST BY
                       050300Z=
202408050240 TAF CYOD 050240Z 0503/0524 08008KT P6SM FEW070 BKN160 BKN250 FM051100
                       10005KT P6SM BKN040 OVC070
                      TEMPO 0511/0518 P6SM -SHRA FM051800 10010KT
                       P6SM -SHRA BKN030 OVC060 RMK NXT FCST BY
                       050600Z=
202408050540 TAF CYOD 050540Z 0506/0606 09008KT P6SM OVC150 FM051100 08005KT
                       P6SM BKN040 OVC060
                      TEMPO 0511/0518 P6SM -SHRA FM051800 10010KT
                       P6SM -SHRA BKN030 OVC060 FM060000 10010KT
                       P6SM FEW060 OVC100
                      TEMPO 0600/0606 P6SM -SHRA RMK NXT FCST BY
                       051200Z=
202408051140 TAF CYOD 051140Z 0512/0612 10005KT P6SM SCT040 OVC120
                      TEMPO 0512/0518 P6SM -SHRA BKN040 OVC060
                       FM051800 10010KT P6SM -SHRA BKN030 OVC060
                       FM060000 10010KT P6SM FEW060 OVC100
                      TEMPO 0600/0604 P6SM -SHRA FM060400 07008KT
                       P6SM -SHRA BKN025 OVC060 RMK NXT FCST BY
                       051500Z=
202408051440 TAF CYOD 051440Z 0515/0612 10005KT P6SM SCT040 OVC120
                      TEMPO 0515/0518 P6SM -SHRA FEW025 BKN040
                       OVC060 FM051800 10010KT P6SM -SHRA BKN030
                       OVC060 FM060000 10010KT P6SM FEW060 OVC100
                       TEMPO 0600/0604 P6SM -SHRA FM060400 07008KT
                       P6SM -SHRA BKN025 OVC060 RMK NXT FCST BY
                       051800Z=
202408051740 TAF CYOD 051740Z 0518/0618 10010KT P6SM -SHRA BKN030 OVC060
                      TEMPO 0518/0524 P6SM NSW SCT030 BKN060 FM060000
                       10010KT P6SM FEW060 OVC100 FM060400 07008KT
                       P6SM -SHRA BKN025 OVC060 FM060800 04005KT
                       P6SM BKN030 OVC050 FM061300 04005KT 6SM
                       FU BKN050 OVC090
                      BECMG 0615/0617 04008G18KT BKN120 RMK NXT
                       FCST BY 052100Z=
202408052040 TAF CYOD 052040Z 0521/0618 05010KT 5SM -SHRA FU FEW010 BKN030 OVC060
                       TEMPO 0521/0524 P6SM NSW SCT030 BKN060 FM060000
                       05010KT 6SM FU FEW060 OVC100 FM060400 07008KT
                       6SM -SHRA FU BKN025 OVC060 FM060800 04005KT
                       6SM FU BKN030 OVC050 FM061300 04005KT 6SM
                       FU BKN050 OVC090
                      BECMG 0615/0617 04008G18KT BKN120 RMK NXT
                       FCST BY 060000Z=
202408052136 TAF AMD CYOD 052136Z 0521/0618 05010KT 5SM -RA FU SCT010 OVC020
                       TEMPO 0521/0524 P6SM NSW SCT020 BKN060
                      PROB30 0521/0524 3SM -RA FU SCT006 OVC009
                       FM060000 05010KT 6SM FU FEW060 OVC100 FM060400
                       07008KT 6SM -SHRA FU BKN025 OVC060 FM060800
                       04005KT 6SM FU BKN030 OVC050 FM061300 04005KT
                       6SM FU BKN050 OVC090
                      BECMG 0615/0617 04008G18KT BKN120 RMK NXT
                       FCST BY 060000Z=
202408052300 TAF AMD CYOD 060028Z 0600/0624 08010KT 3SM FU OVC060
                      TEMPO 0600/0607 6SM -RA FU SCT020 OVC060
                       FM060700 07008KT 5SM FU BKN020 BKN080 FM061300
                       04005KT P6SM BKN050 OVC090 FM062100 04008G18KT
                       6SM -SHRA FU SCT050 BKN080 RMK NXT FCST
                       BY 060300Z=
202408052315 TAF AMD CYOD 052315Z 0523/0618 10010KT 2SM -RA FU SCT020 BKN050
                       OVC080
                      TEMPO 0523/0603 4SM -RA FU FEW020 SCT050
                       BKN080 FM060300 08010KT 4SM -RA FU SCT020
                       BKN050 OVC080
                      TEMPO 0603/0607 P6SM -RA FEW020 SCT050 BKN080
                       FM060700 07008KT 5SM FU BKN020 BKN080 FM061300
                       04005KT P6SM BKN050 OVC090 RMK NXT FCST
                       BY 060000Z=
202408052340 TAF CYOD 052340Z 0600/0624 10010KT 2SM -RA FU SCT020 BKN050 OVC080
                       TEMPO 0600/0602 4SM -RA FU FEW020 SCT050
                       BKN080 FM060200 08010KT 4SM -RA FU SCT020
                       BKN050 OVC080
                      TEMPO 0602/0607 P6SM -RA FEW020 SCT050 BKN080
                       FM060700 07008KT 5SM FU BKN020 BKN080 FM061300
                       04005KT P6SM BKN050 OVC090 FM062100 04008G18KT
                       6SM -SHRA FU SCT050 BKN080 RMK NXT FCST
                       BY 060300Z=
202408060028 TAF AMD CYOD 060028Z 0600/0624 08010KT 3SM FU OVC060
                      TEMPO 0600/0607 6SM -RA FU SCT020 OVC060
                       FM060700 07008KT 5SM FU BKN020 BKN080 FM061300
                       04005KT P6SM BKN050 OVC090 FM062100 04008G18KT
                       6SM -SHRA FU SCT050 BKN080 RMK NXT FCST
                       BY 060300Z=
202408060240 TAF CYOD 060240Z 0603/0624 07008KT 3SM FU BKN070
                      TEMPO 0603/0607 6SM -RA FU SCT020 OVC070
                       FM060700 06008KT 5SM FU BKN020 BKN080 FM061300
                       04005KT P6SM BKN050 OVC090 FM062100 04008G18KT
                       6SM -SHRA FU SCT050 BKN080 RMK NXT FCST
                       BY 060600Z=
202408060540 TAF CYOD 060540Z 0606/0706 06008KT 6SM FU FEW030 BKN070
                      TEMPO 0606/0613 5SM FU FM061300 04005KT P6SM
                       BKN050 OVC090 FM062100 04008G18KT 5SM -SHRA
                       FU SCT050 BKN080
                      BECMG 0703/0705 VRB03KT RMK NXT FCST BY 061200Z=
202408061140 TAF CYOD 061140Z 0612/0712 03005KT P6SM FEW100 BKN250
                      BECMG 0617/0619 03008G18KT FM062100 03008G18KT
                       P6SM SCT050 BKN080
                      TEMPO 0621/0705 5SM -SHRA FU BKN050 OVC080
                       BECMG 0703/0705 VRB03KT FM070500 VRB03KT
                       5SM FU SCT050 BKN080 RMK NXT FCST BY 061500Z=
202408061206 TAF AMD CYOD 061206Z 0612/0712 03005KT P6SM FEW010 BKN250
                      TEMPO 0612/0616 3SM FU BR
                      BECMG 0617/0619 03008G18KT FM062100 03008G18KT
                       P6SM SCT050 BKN080
                      TEMPO 0621/0705 5SM -SHRA FU BKN050 OVC080
                       BECMG 0703/0705 VRB03KT FM070500 VRB03KT
                       5SM FU SCT050 BKN080 RMK NXT FCST BY 061500Z=
202408061231 TAF AMD CYOD 061231Z 0612/0712 03005KT P6SM FEW008 BKN250
                      TEMPO 0612/0616 3SM FU BR BKN008
                      BECMG 0617/0619 03008G18KT FM062100 03008G18KT
                       P6SM SCT050 BKN080
                      TEMPO 0621/0705 5SM -SHRA FU BKN050 OVC080
                       BECMG 0703/0705 VRB03KT FM070500 VRB03KT
                       5SM FU SCT050 BKN080 RMK NXT FCST BY 061500Z=
202408061442 TAF CYOD 061442Z 0615/0712 01005KT P6SM FEW010 SCT080 BKN210
                      TEMPO 0615/0616 5SM FU
                      BECMG 0617/0619 03008G18KT FM062100 03008G18KT
                       P6SM SCT050 BKN080
                      TEMPO 0621/0705 5SM -SHRA FU BKN050 OVC080
                       BECMG 0703/0705 VRB03KT FM070500 VRB03KT
                       5SM FU SCT050 BKN080 RMK NXT FCST BY 061800Z=
202408061740 TAF CYOD 061740Z 0618/0718 03008KT P6SM FEW050 SCT120 BKN220
                      BECMG 0618/0619 03008G18KT FM062100 03008G18KT
                       P6SM SCT050 SCT250
                      TEMPO 0621/0705 5SM -SHRA FU BKN050 BKN180
                       BECMG 0703/0705 VRB03KT FM070500 VRB03KT
                       5SM FU SCT050 BKN120
                      BECMG 0713/0715 04006KT FM071500 04006KT
                       P6SM FEW025 RMK NXT FCST BY 062100Z=
202408062040 TAF CYOD 062040Z 0621/0718 03010KT P6SM SCT050 SCT250
                      TEMPO 0621/0705 5SM -SHRA BR BKN050 BKN180
                       PROB30 0621/0624 VRB15G25KT 3SM -TSRA BR
                       BKN050CB FM070500 VRB03KT 5SM FU SCT050
                       BKN120
                      BECMG 0713/0715 04006KT FM071500 04006KT
                       P6SM FEW025 RMK NXT FCST BY 070000Z=
202408062114 TAF AMD CYOD 062114Z 0621/0718 36012KT P6SM SCT050 SCT250
                      TEMPO 0621/0705 5SM -SHRA BR BKN050 BKN180
                       PROB30 0621/0624 VRB15G25KT 3SM -TSRA BR
                       BKN050CB FM070500 VRB03KT 5SM FU SCT050
                       BKN120
                      BECMG 0713/0715 04006KT FM071500 04006KT
                       P6SM FEW025 RMK NXT FCST BY 070000Z=
202408062126 TAF AMD CYOD 062126Z 0621/0718 30010KT P6SM FEW040 BKN050 BKN080
                       TEMPO 0621/0623 VRB15G25KT 6SM -TSRA BR
                       BKN050CB FM062215 36012KT P6SM SCT050 SCT250
                       TEMPO 0622/0705 5SM -SHRA BR BKN050 BKN180
                       PROB30 0622/0624 VRB15G25KT 3SM -TSRA BR
                       BKN050CB FM070500 VRB03KT 5SM FU SCT050
                       BKN120
                      BECMG 0713/0715 04006KT FM071500 04006KT
                       P6SM FEW025 RMK NXT FCST BY 070000Z=
202408062300 TAF AMD CYOD 070005Z 0700/0724 02008KT P6SM FEW050 SCT080 BKN200
                       TEMPO 0700/0702 VRB15G25KT 2SM TSRA BR BKN060CB
                       FM070200 36012KT P6SM SCT050 BKN200
                      TEMPO 0702/0705 P6SM -SHRA BKN050 BKN200
                       PROB30 0702/0703 VRB15G25KT 3SM -TSRA BR
                       BKN050CB FM070500 VRB03KT 6SM FU SCT050
                       BKN120
                      BECMG 0709/0711 03005KT 5SM FU FM071800 04008KT
                       P6SM SCT060 RMK NXT FCST BY 070300Z=
202408062340 TAF CYOD 062340Z 0700/0724 36012KT P6SM SCT050 SCT250
                      TEMPO 0700/0705 5SM -SHRA BR BKN050 BKN180
                       PROB30 0700/0703 VRB15G25KT 3SM -TSRA BR
                       BKN050CB FM070500 VRB03KT 6SM FU SCT050
                       BKN120
                      BECMG 0709/0711 03005KT 5SM FU FM071800 04008KT
                       P6SM SCT060 RMK NXT FCST BY 070300Z=
202408070005 TAF AMD CYOD 070005Z 0700/0724 02008KT P6SM FEW050 SCT080 BKN200
                       TEMPO 0700/0702 VRB15G25KT 2SM TSRA BR BKN060CB
                       FM070200 36012KT P6SM SCT050 BKN200
                      TEMPO 0702/0705 P6SM -SHRA BKN050 BKN200
                       PROB30 0702/0703 VRB15G25KT 3SM -TSRA BR
                       BKN050CB FM070500 VRB03KT 6SM FU SCT050
                       BKN120
                      BECMG 0709/0711 03005KT 5SM FU FM071800 04008KT
                       P6SM SCT060 RMK NXT FCST BY 070300Z=
202408070241 TAF CYOD 070241Z 0703/0724 34005KT P6SM BKN080 BKN250
                      BECMG 0709/0711 03005KT 6SM FU FM071800 04008KT
                       P6SM SCT060 RMK NXT FCST BY 070600Z=
202408070540 TAF CYOD 070540Z 0706/0806 VRB03KT P6SM FEW100 BKN200
                      BECMG 0709/0711 03005KT 6SM FU FM071800 04008KT
                       P6SM -SHRA SCT060 BKN080 FM080100 VRB03KT
                       P6SM FEW080 BKN250 RMK NXT FCST BY 071200Z=
202408071140 TAF CYOD 071140Z 0712/0812 34005KT P6SM SCT080
                      TEMPO 0712/0715 6SM FU FM071800 04008KT P6SM
                       FEW060 FM080000 06008KT P6SM SKC RMK NXT
                       FCST BY 071500Z=
202408071440 TAF CYOD 071440Z 0715/0812 06008KT P6SM FEW090 FM071800 06008KT
                       P6SM FEW060 FM080000 06008KT P6SM SKC RMK
                       NXT FCST BY 071800Z=
202408071740 TAF CYOD 071740Z 0718/0818 08008KT P6SM FEW060 FEW220
                      TEMPO 0718/0721 6SM FU FM080000 VRB03KT P6SM
                       FEW220 RMK NXT FCST BY 072100Z=
202408072040 TAF CYOD 072040Z 0721/0818 04008KT P6SM FEW050 FEW180 FM080000
                       VRB03KT P6SM FEW220 RMK NXT FCST BY 080000Z=
202408072340 TAF CYOD 072340Z 0800/0824 04008KT P6SM FEW050
                      BECMG 0800/0802 VRB03KT FEW250 RMK NXT FCST
                       BY 080300Z=
202408080240 TAF CYOD 080240Z 0803/0824 VRB03KT P6SM FEW250 RMK NXT FCST BY
                       080600Z=
202408080540 TAF CYOD 080540Z 0806/0906 VRB03KT P6SM FEW250 RMK NXT FCST BY
                       081200Z=
202408081140 TAF CYOD 081140Z 0812/0912 VRB03KT P6SM SKC FM081900 13005KT P6SM
                       FEW250
                      BECMG 0900/0902 VRB03KT RMK NXT FCST BY 081500Z=
202408081440 TAF CYOD 081440Z 0815/0912 VRB03KT P6SM SKC FM081900 13005KT P6SM
                       FEW250
                      BECMG 0900/0902 VRB03KT RMK NXT FCST BY 081800Z=
202408081741 TAF CYOD 081741Z 0818/0918 14005KT P6SM FEW040 FEW250
                      BECMG 0900/0902 VRB03KT SKC RMK NXT FCST
                       BY 082100Z=
202408082040 TAF CYOD 082040Z 0821/0918 09005KT P6SM SCT060 SCT250
                      BECMG 0900/0902 VRB03KT SKC RMK NXT FCST
                       BY 090000Z=
202408082340 TAF CYOD 082340Z 0900/0924 VRB03KT P6SM FEW060 FEW250
                      BECMG 0915/0917 13008KT RMK NXT FCST BY 090300Z=
202408090240 TAF CYOD 090240Z 0903/0924 VRB03KT P6SM FEW060 FEW250
                      BECMG 0915/0917 13008KT RMK NXT FCST BY 090600Z=
202408090540 TAF CYOD 090540Z 0906/1006 VRB03KT P6SM SKC
                      BECMG 0915/0917 13008KT RMK NXT FCST BY 091200Z=
202408091140 TAF CYOD 091140Z 0912/1012 VRB03KT P6SM SKC
                      BECMG 0915/0917 13008KT FEW040 FEW250 FM100200
                       VRB03KT P6SM SKC RMK NXT FCST BY 091500Z=
202408091440 TAF CYOD 091440Z 0915/1012 VRB03KT P6SM FEW250
                      BECMG 0917/0919 13008KT FEW040 FEW250 FM100200
                       VRB03KT P6SM SKC RMK NXT FCST BY 091800Z=
202408091740 TAF CYOD 091740Z 0918/1018 VRB03KT P6SM FEW250
                      BECMG 0918/0919 13005KT FM100200 VRB03KT
                       P6SM SKC
                      BECMG 1016/1018 16008KT RMK NXT FCST BY 092100Z=
202408092040 TAF CYOD 092040Z 0921/1018 15005KT P6SM FEW250 FM100200 VRB03KT
                       P6SM SKC
                      BECMG 1016/1018 16008KT RMK NXT FCST BY 100000Z=
202408092340 TAF CYOD 092340Z 1000/1024 VRB03KT P6SM SKC
                      TEMPO 1009/1013 P6SM MIFG
                      BECMG 1016/1018 16008KT RMK NXT FCST BY 100300Z=
202408100240 TAF CYOD 100240Z 1003/1024 VRB03KT P6SM SKC
                      TEMPO 1009/1013 P6SM MIFG
                      BECMG 1016/1018 16008KT RMK NXT FCST BY 100600Z=
202408100540 TAF CYOD 100540Z 1006/1106 VRB03KT P6SM FEW180
                      TEMPO 1009/1013 P6SM MIFG
                      BECMG 1016/1018 16008KT RMK NXT FCST BY 101200Z=
202408101140 TAF CYOD 101140Z 1012/1112 VRB03KT P6SM SKC
                      TEMPO 1012/1013 P6SM MIFG
                      BECMG 1016/1018 16008KT FM101800 16008KT
                       P6SM SCT060 FM110300 12005KT P6SM FEW240
                       FM110700 11005KT P6SM BKN180 RMK NXT FCST
                       BY 101500Z=
202408101440 TAF CYOD 101440Z 1015/1112 VRB03KT P6SM FEW100
                      TEMPO 1015/1018 6SM FU
                      BECMG 1016/1018 16008KT FM101800 16008KT
                       P6SM SCT060 FM110300 12005KT P6SM FEW240
                       FM110700 11005KT P6SM BKN180 RMK NXT FCST
                       BY 101800Z=
202408101740 TAF CYOD 101740Z 1018/1118 16008KT P6SM SKC
                      BECMG 1018/1020 SCT060 FM110300 12005KT P6SM
                       FEW240 FM110700 11005KT P6SM BKN180 FM111200
                       VRB03KT P6SM SKC RMK NXT FCST BY 102100Z=
202408102040 TAF CYOD 102040Z 1021/1118 16008KT P6SM FEW060 FEW240 FM110300
                       12005KT P6SM FEW240 FM110700 11005KT P6SM
                       BKN180 FM111200 VRB03KT P6SM SKC RMK NXT
                       FCST BY 110000Z=
202408102340 TAF CYOD 102340Z 1100/1124 16008KT P6SM SKC FM110300 12005KT P6SM
                       SCT240 FM110700 11005KT P6SM BKN180 FM111200
                       VRB03KT P6SM SCT180
                      BECMG 1116/1118 16008KT RMK NXT FCST BY 110300Z=
202408110240 TAF CYOD 110240Z 1103/1124 12005KT P6SM SCT240
                      BECMG 1104/1106 BKN220 FM110700 11005KT P6SM
                       BKN180 FM111200 VRB03KT P6SM SCT180
                      BECMG 1116/1118 16008KT RMK NXT FCST BY 110600Z=
202408110541 TAF CYOD 110541Z 1106/1206 12005KT P6SM BKN210
                      BECMG 1107/1109 SCT180 FM111200 VRB03KT P6SM
                       SCT180
                      BECMG 1116/1118 16008KT FM112000 15010KT
                       P6SM FEW180
                      BECMG 1201/1203 11005KT RMK NXT FCST BY 111200Z=
202408111140 TAF CYOD 111140Z 1112/1212 VRB03KT P6SM SKC
                      BECMG 1116/1118 16008KT FM112000 14010KT
                       P6SM FEW080 FM120300 11005KT P6SM SKC RMK
                       NXT FCST BY 111500Z=
202408111440 TAF CYOD 111440Z 1115/1212 VRB03KT P6SM FEW080
                      BECMG 1116/1118 16008KT FM112000 14010KT
                       P6SM FEW080 FM120300 11005KT P6SM SKC RMK
                       NXT FCST BY 111800Z=
202408111740 TAF CYOD 111740Z 1118/1218 16008KT P6SM FEW100 SCT240 FM112000
                       14010KT P6SM FEW060 FM120300 11005KT P6SM
                       SKC RMK NXT FCST BY 112100Z=
202408112040 TAF CYOD 112040Z 1121/1218 14010KT P6SM FEW060 FM120300 11005KT
                       P6SM SKC RMK NXT FCST BY 120000Z=
202408112340 TAF CYOD 112340Z 1200/1224 16005KT P6SM FEW060 FM120300 12005KT
                       P6SM SKC
                      BECMG 1210/1212 VRB03KT
                      BECMG 1218/1220 15010KT RMK NXT FCST BY 120300Z=
202408120240 TAF CYOD 120240Z 1203/1224 12005KT P6SM SKC
                      BECMG 1210/1212 VRB03KT
                      BECMG 1218/1220 15010KT RMK NXT FCST BY 120600Z=
202408120541 TAF CYOD 120541Z 1206/1306 13007KT P6SM SKC
                      BECMG 1210/1212 VRB03KT
                      BECMG 1218/1220 15010KT FM122100 15010KT
                       P6SM FEW090
                      BECMG 1300/1302 15008KT FM130300 12005KT
                       P6SM BKN090 BKN250 RMK NXT FCST BY 121200Z=
202408121140 TAF CYOD 121140Z 1212/1312 VRB03KT P6SM SKC
                      BECMG 1218/1220 15010KT FEW090 FM130300 12005KT
                       P6SM BKN090 BKN250 RMK NXT FCST BY 121500Z=
202408121440 TAF CYOD 121440Z 1215/1312 VRB03KT P6SM FEW240
                      BECMG 1218/1220 15010KT FEW090 FM130300 12005KT
                       P6SM BKN090 BKN250 RMK NXT FCST BY 121800Z=
202408121740 TAF CYOD 121740Z 1218/1318 VRB03KT P6SM FEW240
                      BECMG 1218/1220 15010KT FEW090 FM130300 12005KT
                       P6SM BKN090 BKN250
                      TEMPO 1303/1307 P6SM -SHRA BKN050 OVC090
                       FM130700 VRB03KT P6SM SCT090 BKN160 RMK
                       NXT FCST BY 122100Z=
202408122040 TAF CYOD 122040Z 1221/1318 15010KT P6SM FEW090 SCT200 FM130300
                       12005KT P6SM BKN090 BKN250
                      TEMPO 1303/1307 P6SM -SHRA BKN050 OVC090
                       FM130700 VRB03KT P6SM SCT090 BKN160 RMK
                       NXT FCST BY 130000Z=
202408122340 TAF CYOD 122340Z 1300/1324 18010KT P6SM FEW080 BKN250 FM130100
                       18010KT P6SM BKN100 BKN250
                      TEMPO 1301/1306 P6SM -SHRA BKN080
                      BECMG 1301/1303 12005KT FM130600 VRB03KT
                       P6SM SCT100 BKN180 FM131300 14008KT P6SM
                       BKN100 BKN150 FM131900 10008KT P6SM FEW060
                       SCT150 RMK NXT FCST BY 130300Z=
202408130240 TAF CYOD 130240Z 1303/1324 18010KT P6SM BKN100 BKN250
                      TEMPO 1303/1306 P6SM -SHRA BKN060 FM130600
                       VRB03KT P6SM SCT100 BKN180 FM131300 14008KT
                       P6SM BKN100 BKN150 FM131900 10008KT P6SM
                       FEW060 SCT150 RMK NXT FCST BY 130600Z=
202408130540 TAF CYOD 130540Z 1306/1406 14008KT P6SM BKN100 BKN240
                      BECMG 1306/1308 VRB03KT FM131300 14008KT
                       P6SM BKN100 BKN150 FM131900 10008KT P6SM
                       SCT060 SCT150 FM132100 34008KT P6SM OVC060
                       TEMPO 1321/1404 P6SM -SHRA RMK NXT FCST
                       BY 131200Z=
202408131140 TAF CYOD 131140Z 1312/1412 21005KT P6SM BKN070 OVC100
                      BECMG 1312/1314 10008KT FM131900 10008KT
                       P6SM SCT060 SCT120 FM132100 08008KT P6SM
                       FEW060 FEW120 SCT260
                      TEMPO 1321/1404 P6SM -SHRA BKN060
                      PROB30 1321/1403 VRB15G25KT 2SM TSRA BR BKN060CB
                       FM140400 VRB03KT P6SM FEW060 FEW260 RMK
                       NXT FCST BY 131500Z=
202408131440 TAF CYOD 131440Z 1315/1412 10008KT P6SM FEW060 BKN100 BKN150
                      TEMPO 1315/1317 P6SM -SHRA FM131900 10008KT
                       P6SM SCT060 SCT120 FM132100 08008KT P6SM
                       FEW060 FEW120 SCT260
                      TEMPO 1321/1404 P6SM -SHRA BKN060
                      PROB30 1321/1403 VRB15G25KT 2SM TSRA BR BKN060CB
                       FM140400 VRB03KT P6SM FEW060 FEW260 RMK
                       NXT FCST BY 131800Z=
202408131740 TAF CYOD 131740Z 1318/1418 11008KT P6SM FEW090 SCT150 FM132100
                       08008KT P6SM SCT060 BKN250
                      TEMPO 1321/1404 P6SM -SHRA BKN060
                      PROB30 1321/1404 VRB15G25KT 2SM TSRA BR BKN060CB
                       FM140400 VRB03KT P6SM FEW060 FEW250
                      BECMG 1414/1416 29012KT FM141600 29012KT
                       P6SM FEW060 BKN250 RMK NXT FCST BY 132100Z=
202408132040 TAF CYOD 132040Z 1321/1418 08008KT P6SM SCT060 BKN240
                      TEMPO 1321/1404 P6SM -SHRA BKN060
                      PROB30 1321/1404 VRB15G25KT 2SM TSRA BR BKN060CB
                       FM140400 VRB03KT P6SM FEW060 FEW250
                      BECMG 1414/1416 29012KT FM141600 29012KT
                       P6SM FEW060 BKN250 RMK NXT FCST BY 140000Z=
202408132300 TAF AMD CYOD 140151Z 1401/1424 VRB03KT P6SM FEW060 BKN150 BKN240
                       PROB30 1401/1404 VRB15G25KT 2SM TSRA BR
                       BKN060CB FM140400 VRB03KT P6SM FEW060 FEW250
                       FM141600 28010KT P6SM FEW060 BKN250 FM142000
                       30012KT P6SM SCT060 BKN120
                      TEMPO 1420/1424 6SM FU RMK NXT FCST BY 140300Z=
202408132340 TAF CYOD 132340Z 1400/1424 08008KT P6SM SCT060 BKN240
                      TEMPO 1400/1404 P6SM -SHRA BKN060
                      PROB30 1400/1404 VRB15G25KT 2SM TSRA BR BKN060CB
                       FM140400 VRB03KT P6SM FEW060 FEW250 FM141600
                       28010KT P6SM FEW060 BKN250 FM142000 30012KT
                       P6SM SCT060 BKN120
                      TEMPO 1420/1424 6SM FU RMK NXT FCST BY 140300Z=
202408140006 TAF AMD CYOD 140006Z 1400/1424 08008KT P6SM SCT060 BKN240
                      TEMPO 1400/1404 VRB15G25KT 2SM TSRA BR BKN060CB
                       FM140400 VRB03KT P6SM FEW060 FEW250 FM141600
                       28010KT P6SM FEW060 BKN250 FM142000 30012KT
                       P6SM SCT060 BKN120
                      TEMPO 1420/1424 6SM FU RMK NXT FCST BY 140300Z=
202408140151 TAF AMD CYOD 140151Z 1401/1424 VRB03KT P6SM FEW060 BKN150 BKN240
                       PROB30 1401/1404 VRB15G25KT 2SM TSRA BR
                       BKN060CB FM140400 VRB03KT P6SM FEW060 FEW250
                       FM141600 28010KT P6SM FEW060 BKN250 FM142000
                       30012KT P6SM SCT060 BKN120
                      TEMPO 1420/1424 6SM FU RMK NXT FCST BY 140300Z=
202408140240 TAF CYOD 140240Z 1403/1424 VRB03KT P6SM SCT060 BKN150 BKN240
                      PROB30 1403/1404 VRB15G25KT 2SM TSRA BR BKN060CB
                       FM140400 VRB03KT P6SM FEW060 FEW250 FM141600
                       28010KT P6SM FEW060 BKN250 FM142000 30012KT
                       P6SM SCT060 BKN120
                      TEMPO 1420/1424 6SM FU RMK NXT FCST BY 140600Z=
202408140540 TAF CYOD 140540Z 1406/1506 VRB03KT P6SM FEW060 FEW250
                      TEMPO 1410/1413 P6SM MIFG FM141600 28010KT
                       P6SM FEW060 BKN250 FM142000 28012KT P6SM
                       SCT060 BKN120
                      TEMPO 1420/1424 P6SM -SHRA FM150000 33008KT
                       P6SM FEW040
                      TEMPO 1500/1505 6SM FU FM150500 33005KT P6SM
                       SKC RMK NXT FCST BY 141200Z=
202408141140 TAF CYOD 141140Z 1412/1512 VRB03KT P6SM SKC
                      TEMPO 1412/1413 P6SM MIFG FM141600 28010KT
                       P6SM FEW060 BKN250 FM142000 28012KT P6SM
                       SCT060 BKN120
                      TEMPO 1420/1424 P6SM -SHRA
                      PROB30 1420/1424 5SM TSRA BR BKN060CB OVC120
                       FM150000 33008KT P6SM FEW040
                      TEMPO 1500/1505 6SM FU FM150500 33005KT P6SM
                       SKC RMK NXT FCST BY 141500Z=
202408141440 TAF CYOD 141440Z 1415/1512 VRB03KT P6SM FEW090 FEW250 FM141600
                       28010KT P6SM FEW060 BKN250 FM142000 28012KT
                       P6SM SCT060 BKN120
                      TEMPO 1420/1424 P6SM -SHRA
                      PROB30 1420/1424 5SM TSRA BR BKN060CB OVC120
                       FM150000 33008KT P6SM FEW040
                      TEMPO 1500/1510 5SM FU FM151000 33005KT P6SM
                       SKC RMK NXT FCST BY 141800Z=
202408141740 TAF CYOD 141740Z 1418/1518 28008KT P6SM FEW150 FEW250 FM142000
                       28012KT P6SM SCT060 BKN120
                      TEMPO 1420/1424 P6SM -SHRA
                      PROB30 1420/1424 5SM TSRA BR BKN060CB OVC120
                       FM150000 33008KT P6SM BKN060
                      TEMPO 1500/1510 5SM FU FM151400 33005KT P6SM
                       FEW040 RMK NXT FCST BY 142100Z=
202408141834 TAF AMD CYOD 141834Z 1418/1518 27008KT P6SM FEW150
                      TEMPO 1418/1420 4SM FU FM142000 28012KT P6SM
                       SCT060 BKN120
                      TEMPO 1420/1424 4SM -SHRA FU
                      PROB30 1420/1424 3SM TSRA FU BKN060CB OVC120
                       FM150000 33008KT 6SM FU BKN060
                      TEMPO 1500/1512 3SM FU
                      PROB30 1500/1510 1SM FU FM151400 33005KT
                       P6SM FEW040 RMK NXT FCST BY 142100Z=
202408141910 TAF AMD CYOD 141910Z 1419/1518 27008KT 5SM FU FEW150
                      TEMPO 1419/1420 2SM FU FM142000 28012KT 6SM
                       FU SCT060 BKN120
                      TEMPO 1420/1424 3SM -SHRA FU
                      PROB30 1420/1424 2SM TSRA FU BKN060CB OVC120
                       FM150000 33008KT 6SM FU BKN060
                      TEMPO 1500/1512 3SM FU
                      PROB30 1500/1510 1SM FU FM151400 33005KT
                       P6SM FEW040 RMK NXT FCST BY 142100Z=
202408141934 TAF AMD CYOD 141934Z 1419/1518 27008KT 1SM FU BKN150
                      TEMPO 1419/1420 4SM FU
                      PROB30 1419/1420 3/4SM FU FM142000 28012KT
                       5SM FU SCT060 BKN120
                      TEMPO 1420/1424 1SM -SHRA FU
                      PROB30 1420/1424 1SM TSRA FU BKN060CB OVC120
                       FM150000 33008KT 4SM FU BKN060
                      TEMPO 1500/1512 1SM FU
                      PROB30 1500/1510 1/2SM FU FM151400 33005KT
                       P6SM FEW040 RMK NXT FCST BY 142100Z=
202408142040 TAF CYOD 142040Z 1421/1518 28012KT 5SM FU BKN120
                      TEMPO 1421/1424 1SM FU FM150000 33008KT 4SM
                       FU BKN060
                      TEMPO 1500/1512 1SM FU
                      PROB30 1500/1510 1/2SM FU FM151400 33005KT
                       P6SM FEW040 RMK NXT FCST BY 150000Z=
202408142340 TAF CYOD 142340Z 1500/1524 30012KT 4SM FU BKN030
                      TEMPO 1500/1506 1SM FU
                      BECMG 1500/1502 28008KT FM150600 28005KT
                       1SM FU BKN030
                      TEMPO 1506/1519 4SM FU
                      PROB30 1506/1519 1/2SM FU FM151900 33008KT
                       6SM FU SCT050
                      TEMPO 1519/1524 4SM FU RMK NXT FCST BY 150300Z=
202408150240 TAF CYOD 150240Z 1503/1524 28008KT 3SM FU BKN030
                      TEMPO 1503/1506 1SM FU FM150600 28005KT 1SM
                       FU BKN030
                      TEMPO 1506/1519 4SM FU
                      PROB30 1506/1519 1/2SM FU FM151900 33008KT
                       6SM FU SCT050
                      TEMPO 1519/1524 4SM FU RMK NXT FCST BY 150600Z=
202408150540 TAF CYOD 150540Z 1506/1606 30008KT 4SM FU BKN040
                      TEMPO 1506/1510 1SM FU FM151000 28005KT 1SM
                       FU BKN040
                      TEMPO 1510/1516 4SM FU
                      PROB30 1510/1516 1/2SM FU FM151600 34005KT
                       4SM FU SCT040
                      TEMPO 1516/1519 2SM FU FM151900 36008KT 6SM
                       FU SCT050
                      TEMPO 1519/1606 4SM FU RMK NXT FCST BY 151200Z=
202408151140 TAF CYOD 151140Z 1512/1612 31005KT 6SM FU FEW012 SCT040
                      TEMPO 1512/1515 1SM FU BR
                      PROB30 1512/1515 1/2SM FG FU BKN012 FM151500
                       34006KT P6SM SCT040
                      TEMPO 1515/1519 3SM FU
                      BECMG 1523/1601 08005KT FM160500 VRB03KT
                       3SM FU FEW050 SCT220 RMK NXT FCST BY 151500Z=
202408151440 TAF CYOD 151440Z 1515/1612 31005KT 6SM FU FEW012 FEW040
                      TEMPO 1515/1517 2SM FU BR BKN005 FM151700
                       34006KT 6SM FU SCT040
                      TEMPO 1517/1605 3SM FU
                      BECMG 1523/1601 08005KT FM160500 VRB03KT
                       3SM FU FEW050 SCT220 RMK NXT FCST BY 151800Z=
202408151446 TAF AMD CYOD 151446Z 1515/1612 31005KT 6SM FU FEW012 FEW040
                      TEMPO 1515/1517 1 1/4SM FU BR BKN003 FM151700
                       34006KT 6SM FU SCT040
                      TEMPO 1517/1605 3SM FU
                      BECMG 1523/1601 08005KT FM160500 VRB03KT
                       3SM FU FEW050 SCT220 RMK NXT FCST BY 151800Z=
202408151708 TAF AMD CYOD 151708Z 1517/1612 31005KT 6SM FU FEW012 FEW040
                      TEMPO 1517/1518 1 1/4SM FU BR BKN012 FM151800
                       34006KT 6SM FU SCT040
                      TEMPO 1518/1605 3SM FU
                      BECMG 1523/1601 08005KT FM160500 VRB03KT
                       3SM FU FEW050 SCT220 RMK NXT FCST BY 151800Z=
202408151740 TAF CYOD 151740Z 1518/1618 31005KT 6SM FU FEW012 FEW030
                      TEMPO 1518/1519 1 1/4SM FU BR BKN012 FM151900
                       34006KT 6SM FU SCT030 SCT250
                      TEMPO 1519/1605 3SM FU
                      BECMG 1523/1601 08005KT FM160500 VRB03KT
                       3SM FU FEW050 SCT220 FM160900 VRB03KT 2SM
                       FU BKN080 OVC180
                      BECMG 1613/1615 08005KT RMK NXT FCST BY 152100Z=
202408152040 TAF CYOD 152040Z 1521/1618 34005KT P6SM SCT030
                      TEMPO 1521/1605 5SM FU
                      BECMG 1523/1601 08005KT FM160500 VRB03KT
                       3SM FU FEW050 SCT220 FM160900 VRB03KT 2SM
                       FU BKN080 OVC180
                      BECMG 1613/1615 08005KT RMK NXT FCST BY 160000Z=
202408152340 TAF CYOD 152340Z 1600/1624 VRB03KT P6SM FEW040
                      TEMPO 1600/1608 5SM FU FM160800 VRB03KT P6SM
                       BKN080 BKN180
                      TEMPO 1608/1615 4SM FU FM161500 09005KT 3SM
                       FU BKN080 OVC180
                      BECMG 1617/1619 09010KT RMK NXT FCST BY 160300Z=
202408160240 TAF CYOD 160240Z 1603/1624 VRB03KT P6SM FEW060
                      TEMPO 1603/1608 5SM FU FM160800 VRB03KT P6SM
                       BKN080 BKN180
                      TEMPO 1608/1615 4SM FU FM161500 09005KT 3SM
                       FU BKN080 OVC180
                      BECMG 1617/1619 09010KT RMK NXT FCST BY 160600Z=
202408160540 TAF CYOD 160540Z 1606/1706 09005KT P6SM BKN110 BKN230 FM160800
                       09005KT P6SM OVC080
                      TEMPO 1608/1615 5SM FU FM161500 09005KT 6SM
                       FU FEW060 OVC120
                      TEMPO 1615/1622 3SM FU
                      BECMG 1617/1619 09010KT FM162200 09010KT
                       3SM FU OVC120 RMK NXT FCST BY 161200Z=
202408161140 TAF CYOD 161140Z 1612/1712 VRB03KT P6SM SCT080 OVC100
                      TEMPO 1612/1615 5SM -SHRA FU BKN080 FM161500
                       09005KT P6SM FEW060 OVC100
                      TEMPO 1615/1709 4SM FU
                      BECMG 1617/1619 09010KT FM170900 09008KT
                       6SM FU BKN120 RMK NXT FCST BY 161500Z=
202408161440 TAF CYOD 161440Z 1615/1712 09005KT P6SM FEW070 OVC080
                      TEMPO 1615/1709 5SM -SHRA FU
                      BECMG 1617/1619 09010KT FM170900 09008KT
                       6SM FU BKN120 RMK NXT FCST BY 161800Z=
202408161740 TAF CYOD 161740Z 1618/1718 09005KT P6SM FEW080 OVC100
                      TEMPO 1618/1709 6SM -SHRA FU
                      BECMG 1618/1619 09008KT FM170900 09005KT
                       6SM FU SCT120 FM171300 10008KT 6SM FU SCT250
                       RMK NXT FCST BY 162100Z=
202408162040 TAF CYOD 162040Z 1621/1718 09008KT P6SM FEW080 OVC100
                      TEMPO 1621/1709 6SM -SHRA FU FM170900 09005KT
                       6SM FU SCT120 FM171300 10008KT 6SM FU SCT250
                       RMK NXT FCST BY 170000Z=
202408162340 TAF CYOD 162340Z 1700/1724 09008KT P6SM FEW080 OVC100
                      TEMPO 1700/1709 6SM -SHRA FU FM170900 09005KT
                       6SM FU SCT120 FM171300 10008KT 6SM FU SCT250
                       FM172200 10010KT 5SM -SHRA FU BKN070 OVC120
                       RMK NXT FCST BY 170300Z=
202408170240 TAF CYOD 170240Z 1703/1724 09008KT P6SM FEW080 OVC100
                      TEMPO 1703/1709 6SM -SHRA FU FM170900 09005KT
                       6SM FU SCT120 FM171300 10008KT 6SM FU SCT250
                       FM172200 10010KT 5SM -SHRA FU BKN070 OVC120
                       RMK NXT FCST BY 170600Z=
202408170540 TAF CYOD 170540Z 1706/1806 06006KT P6SM BKN130 FM170900 09006KT
                       6SM FU SCT120 FM171300 10008KT 6SM FU SCT250
                       FM172200 10010KT 5SM -SHRA FU BKN070 OVC120
                       FM180500 11006KT P6SM OVC050 RMK NXT FCST
                       BY 171200Z=
202408171140 TAF CYOD 171140Z 1712/1812 07008KT 6SM FU BKN060 BKN110 FM172000
                       10010KT 4SM -SHRA FU BKN050 OVC100 FM180500
                       11006KT P6SM OVC050 RMK NXT FCST BY 171500Z=
202408171440 TAF CYOD 171440Z 1715/1812 07008KT P6SM SCT060 BKN150 FM171800
                       09010KT 6SM FU BKN060 OVC150 FM172000 10010KT
                       4SM -SHRA FU BKN050 OVC100 FM180500 11006KT
                       P6SM OVC050 RMK NXT FCST BY 171800Z=
202408171740 TAF CYOD 171740Z 1718/1818 13010KT P6SM SCT150 BKN250 FM172000
                       12008KT 6SM -SHRA FU BKN050 OVC100 FM180500
                       11005KT P6SM OVC050 FM180900 VRB03KT 3SM
                       BR FU OVC020 FM181400 13005KT 6SM BR FU
                       SCT020 BKN040 RMK NXT FCST BY 172100Z=
202408172040 TAF CYOD 172040Z 1721/1818 11010KT P6SM SCT150 BKN250 FM172300
                       12008KT 6SM -SHRA FU BKN050 OVC100 FM180500
                       11005KT P6SM OVC050 FM180900 VRB03KT 3SM
                       BR FU OVC020 FM181400 13005KT 6SM BR FU
                       SCT020 BKN040 RMK NXT FCST BY 180000Z=
202408172122 TAF AMD CYOD 172122Z 1721/1818 11008KT P6SM SCT050 OVC100
                      PROB30 1721/1802 VRB15G30KT 2SM TSRA BR OVC050CB
                       FM180500 11005KT P6SM OVC050 FM180900 VRB03KT
                       3SM BR FU OVC020 FM181400 13005KT 6SM BR
                       FU SCT020 BKN040 RMK NXT FCST BY 180000Z=
202408172158 TAF AMD CYOD 172158Z 1721/1818 11008KT P6SM SCT050 OVC100
                      TEMPO 1721/1724 VRB15G30KT 2SM TSRA BR OVC050CB
                       FM180500 11005KT P6SM OVC050 FM180900 VRB03KT
                       3SM BR FU OVC020 FM181400 13005KT 6SM BR
                       FU SCT020 BKN040 RMK NXT FCST BY 180000Z=
202408172300 TAF AMD CYOD 180133Z 1801/1824 13008KT P6SM SCT050 OVC100
                      TEMPO 1801/1805 3SM -SHRA BR OVC050 FM180500
                       11005KT P6SM OVC050
                      TEMPO 1805/1809 5SM BR FU OVC025 FM180900
                       VRB03KT 3SM BR FU OVC020
                      TEMPO 1809/1814 6SM FU OVC025
                      PROB30 1809/1814 2SM FU BR OVC008 FM181400
                       13005KT 6SM FU SCT020 BKN040 FM181700 10008KT
                       P6SM -SHRA SCT012 BKN025 OVC040 RMK NXT
                       FCST BY 180300Z=
202408172340 TAF CYOD 172340Z 1800/1824 10010KT P6SM SCT050 OVC100
                      TEMPO 1800/1802 VRB15G30KT 2SM TSRA BR OVC050CB
                       FM180500 11005KT P6SM OVC050
                      TEMPO 1805/1809 5SM BR FU OVC025 FM180900
                       VRB03KT 3SM BR FU OVC020
                      TEMPO 1809/1814 6SM FU OVC025
                      PROB30 1809/1814 2SM FU BR OVC008 FM181400
                       13005KT 6SM FU SCT020 BKN040 FM181700 10008KT
                       P6SM -SHRA SCT012 BKN025 OVC040 RMK NXT
                       FCST BY 180300Z=
202408180133 TAF AMD CYOD 180133Z 1801/1824 13008KT P6SM SCT050 OVC100
                      TEMPO 1801/1805 3SM -SHRA BR OVC050 FM180500
                       11005KT P6SM OVC050
                      TEMPO 1805/1809 5SM BR FU OVC025 FM180900
                       VRB03KT 3SM BR FU OVC020
                      TEMPO 1809/1814 6SM FU OVC025
                      PROB30 1809/1814 2SM FU BR OVC008 FM181400
                       13005KT 6SM FU SCT020 BKN040 FM181700 10008KT
                       P6SM -SHRA SCT012 BKN025 OVC040 RMK NXT
                       FCST BY 180300Z=
202408180240 TAF CYOD 180240Z 1803/1824 VRB03KT P6SM SCT050 OVC100
                      TEMPO 1803/1805 3SM -SHRA BR OVC050 FM180500
                       VRB03KT P6SM OVC050
                      TEMPO 1805/1809 5SM BR FU OVC025 FM180900
                       VRB03KT 3SM BR FU OVC020
                      TEMPO 1809/1814 6SM FU OVC025
                      PROB30 1809/1814 2SM FU BR OVC008 FM181400
                       13005KT 6SM FU SCT020 BKN040 FM181700 10008KT
                       P6SM -SHRA SCT012 BKN025 OVC040 RMK NXT
                       FCST BY 180600Z=
202408180540 TAF CYOD 180540Z 1806/1906 VRB03KT P6SM SCT070 BKN100
                      TEMPO 1806/1809 5SM BR FU FM180900 VRB03KT
                       3SM BR FU OVC020
                      TEMPO 1809/1814 6SM FU OVC025
                      PROB30 1809/1814 2SM FU BR OVC008 FM181400
                       13005KT 6SM FU SCT020 BKN040 FM181700 10008KT
                       P6SM -SHRA SCT012 BKN025 OVC040 FM190300
                       VRB03KT P6SM FEW040 SCT060 RMK NXT FCST
                       BY 181200Z=
202408180920 TAF AMD CYOD 180920Z 1809/1906 VRB03KT 3SM BR OVC020
                      TEMPO 1809/1814 6SM BR OVC025
                      PROB30 1809/1814 1/2SM FG OVC008 FM181400
                       13005KT 6SM FU SCT020 BKN040 FM181700 10008KT
                       P6SM -SHRA SCT012 BKN025 OVC040 FM190300
                       VRB03KT P6SM FEW040 SCT060 RMK NXT FCST
                       BY 181200Z=
202408181002 TAF AMD CYOD 181002Z 1810/1906 VRB03KT 3SM BR OVC012
                      TEMPO 1810/1814 6SM BR OVC025
                      PROB30 1810/1814 1/2SM FG OVC008 FM181400
                       13005KT 6SM FU SCT020 BKN040 FM181700 10008KT
                       P6SM -SHRA SCT012 BKN025 OVC040 FM190300
                       VRB03KT P6SM FEW040 SCT060 RMK NXT FCST
                       BY 181200Z=
202408181140 TAF CYOD 181140Z 1812/1912 VRB03KT P6SM OVC015
                      TEMPO 1812/1814 OVC025
                      PROB30 1812/1814 2SM BR FM181400 13005KT
                       P6SM SCT020 BKN040
                      TEMPO 1814/1817 BKN020 OVC040 FM181700 10008KT
                       P6SM -SHRA SCT025 OVC040 FM190300 VRB03KT
                       P6SM FEW040 SCT060 FM190900 10005KT P6SM
                       BKN060 RMK NXT FCST BY 181500Z=
202408181233 TAF AMD CYOD 181233Z 1812/1912 VRB03KT 3SM BR OVC010
                      TEMPO 1812/1814 P6SM NSW SCT010 OVC025
                      PROB30 1812/1814 1SM BR OVC008 FM181400 13005KT
                       P6SM SCT020 BKN040
                      TEMPO 1814/1817 BKN020 OVC040 FM181700 10008KT
                       P6SM -SHRA SCT025 OVC040 FM190300 VRB03KT
                       P6SM FEW040 SCT060 FM190900 10005KT P6SM
                       BKN060 RMK NXT FCST BY 181500Z=
202408181418 TAF AMD CYOD 181418Z 1814/1912 13005KT P6SM SCT020 BKN040
                      TEMPO 1814/1817 4SM BR FEW004 BKN020 OVC040
                       FM181700 10008KT P6SM SCT025 OVC040
                      TEMPO 1817/1903 P6SM -SHRA FM190300 VRB03KT
                       P6SM FEW040 SCT060 FM190900 10005KT P6SM
                       BKN060 RMK NXT FCST BY 181500Z=
202408181427 TAF AMD CYOD 181427Z 1814/1912 13005KT 3SM BR OVC004
                      BECMG 1815/1817 P6SM NSW FEW004 SCT025 OVC040
                       FM181700 10008KT P6SM SCT025 OVC040
                      TEMPO 1817/1903 P6SM -SHRA FM190300 VRB03KT
                       P6SM FEW040 SCT060 FM190900 10005KT P6SM
                       BKN060 RMK NXT FCST BY 181500Z=
202408181441 TAF CYOD 181441Z 1815/1912 13005KT 3SM BR OVC004
                      BECMG 1815/1817 P6SM NSW FEW004 SCT025 OVC040
                       FM181700 10008KT P6SM SCT025 OVC040
                      TEMPO 1817/1903 P6SM -SHRA FM190300 VRB03KT
                       P6SM FEW040 SCT060 FM190900 10005KT P6SM
                       BKN060 RMK NXT FCST BY 181800Z=
202408181706 TAF AMD CYOD 181706Z 1817/1912 13005KT 5SM BR OVC006
                      BECMG 1818/1820 P6SM NSW FEW006 SCT020 OVC040
                       FM182000 10008KT P6SM SCT020 OVC040
                      TEMPO 1820/1903 P6SM -SHRA BKN020 OVC040
                       FM190300 VRB03KT P6SM FEW040 SCT060 FM190900
                       10005KT P6SM BKN060 RMK NXT FCST BY 181800Z=
202408181740 TAF CYOD 181740Z 1818/1918 VRB03KT P6SM OVC008
                      BECMG 1818/1820 FEW008 SCT025 OVC040 FM182000
                       10008KT P6SM SCT025 OVC040
                      TEMPO 1820/1903 6SM -SHRA FU BKN025 OVC040
                       FM190300 VRB03KT P6SM FEW040 SCT060
                      TEMPO 1903/1907 6SM FU FM190700 10005KT P6SM
                       BKN060
                      TEMPO 1907/1916 P6SM -SHRA FM191600 15012KT
                       P6SM BKN020 OVC040 RMK NXT FCST BY 182100Z=
202408182041 TAF CYOD 182041Z 1821/1918 10008KT P6SM SCT025 BKN040
                      TEMPO 1821/1903 P6SM -SHRA BKN025 OVC040
                       FM190300 VRB03KT P6SM FEW040 SCT060
                      TEMPO 1903/1907 6SM FU FM190700 10005KT P6SM
                       BKN060
                      TEMPO 1907/1916 P6SM -SHRA FM191600 15012KT
                       P6SM BKN020 OVC040 RMK NXT FCST BY 190000Z=
202408182123 TAF AMD CYOD 182123Z 1821/1918 VRB03KT P6SM SCT030
                      TEMPO 1821/1903 BKN030 FM190300 VRB03KT P6SM
                       FEW040 SCT060
                      TEMPO 1903/1907 6SM FU FM190700 10005KT P6SM
                       BKN060
                      TEMPO 1907/1916 P6SM -SHRA FM191600 15012KT
                       P6SM BKN020 OVC040 RMK NXT FCST BY 190000Z=
202408182340 TAF CYOD 182340Z 1900/1924 VRB03KT P6SM BKN030 FM190300 VRB03KT
                       P6SM FEW030 SCT060
                      TEMPO 1903/1907 6SM FU FM190800 10005KT P6SM
                       SCT060
                      TEMPO 1908/1916 P6SM -SHRA BKN060
                      PROB30 1908/1916 1SM BR OVC004 FM191600 15012KT
                       P6SM BKN020 OVC040 FM191900 19012KT P6SM
                       BKN025
                      BECMG 1920/1922 23010KT FM192200 23010KT
                       P6SM FEW025 RMK NXT FCST BY 190300Z=
202408190240 TAF CYOD 190240Z 1903/1924 VRB03KT P6SM SKC
                      TEMPO 1903/1907 6SM FU FM190800 10005KT P6SM
                       SCT060
                      TEMPO 1908/1916 P6SM -SHRA BKN060
                      PROB30 1908/1916 1SM BR OVC004 FM191600 15012KT
                       P6SM BKN020 OVC040 FM191900 19012KT P6SM
                       BKN025
                      BECMG 1920/1922 23010KT FM192200 23010KT
                       P6SM FEW025 RMK NXT FCST BY 190600Z=
202408190540 TAF CYOD 190540Z 1906/2006 VRB03KT P6SM FEW080 FEW180
                      PROB30 1906/1916 1SM BR OVC004 FM191600 15008KT
                       P6SM SCT015 SCT080 FM191900 19012KT P6SM
                       BKN025
                      BECMG 1920/1922 23010KT FM192200 23010KT
                       P6SM FEW025
                      BECMG 2001/2003 20005KT RMK NXT FCST BY 191200Z=
202408190804 TAF AMD CYOD 190804Z 1908/2006 VRB03KT 3SM BR FEW080
                      TEMPO 1908/1912 1/2SM FG FEW004
                      BECMG 1912/1914 P6SM NSW FM191600 15008KT
                       P6SM SCT015 SCT080 FM191900 19012KT P6SM
                       BKN025
                      BECMG 1920/1922 23010KT FM192200 23010KT
                       P6SM FEW025
                      BECMG 2001/2003 20005KT RMK NXT FCST BY 191200Z=
202408191120 TAF AMD CYOD 191120Z 1911/2006 VRB03KT P6SM FEW100
                      TEMPO 1911/1914 3SM BR
                      PROB30 1911/1913 1SM BR FM191600 15008KT
                       P6SM SCT015 SCT080 FM191900 19012KT P6SM
                       BKN025
                      BECMG 1920/1922 23010KT FM192200 23010KT
                       P6SM FEW025
                      BECMG 2001/2003 20005KT RMK NXT FCST BY 191200Z=
202408191140 TAF CYOD 191140Z 1912/2012 VRB03KT P6SM FEW100
                      TEMPO 1912/1914 3SM BR
                      PROB30 1912/1913 1SM BR FM191600 15008KT
                       P6SM SCT015 SCT080 FM191900 19012KT P6SM
                       BKN025
                      BECMG 1920/1922 23010KT FM192200 23010KT
                       P6SM FEW025
                      BECMG 2001/2003 20005KT FM200500 17005KT
                       P6SM SCT070 BKN120
                      TEMPO 2005/2012 5SM -SHRA BR BKN070 OVC120
                       RMK NXT FCST BY 191500Z=
202408191440 TAF CYOD 191440Z 1915/2012 09005KT P6SM BKN090 OVC120
                      BECMG 1915/1917 15008KT FM191900 19012KT
                       P6SM BKN025
                      BECMG 1920/1922 23010KT FM192200 23010KT
                       P6SM FEW025
                      BECMG 2001/2003 20005KT FM200500 17005KT
                       P6SM SCT070 BKN120
                      TEMPO 2005/2012 5SM -SHRA BR BKN070 OVC120
                       RMK NXT FCST BY 191800Z=
202408191740 TAF CYOD 191740Z 1918/2018 15008KT P6SM BKN090 OVC120 FM191900
                       19012KT P6SM BKN025
                      BECMG 1920/1922 23010KT FM192200 23010KT
                       P6SM FEW025
                      BECMG 2001/2003 20005KT FM200500 17005KT
                       P6SM SCT070 BKN180
                      TEMPO 2005/2011 5SM -SHRA BR BKN070 OVC180
                       PROB30 2005/2011 VRB15G25KT 2SM TSRA BR
                       BKN070CB OVC180 FM201100 VRB03KT P6SM SCT030
                       PROB30 2011/2014 1SM BR RMK NXT FCST BY
                       192100Z=
202408192043 TAF CYOD 192043Z 1921/2018 19012KT P6SM FEW140 SCT250
                      BECMG 1921/1922 23010KT FM192200 23010KT
                       P6SM FEW025
                      BECMG 2001/2003 20005KT FM200500 17005KT
                       P6SM SCT070 BKN180
                      TEMPO 2005/2011 5SM -SHRA BR BKN070 OVC180
                       PROB30 2005/2011 VRB15G25KT 2SM TSRA BR
                       BKN070CB OVC180 FM201100 VRB03KT P6SM SCT030
                       PROB30 2011/2014 1SM BR RMK NXT FCST BY
                       200000Z=
202408192340 TAF CYOD 192340Z 2000/2024 20012G22KT P6SM FEW150
                      BECMG 2001/2003 20005KT FM200600 17005KT
                       P6SM SCT070 BKN150
                      TEMPO 2006/2012 5SM -SHRA BR BKN070 OVC150
                       PROB30 2006/2012 VRB15G25KT 2SM TSRA BR
                       BKN070CB OVC180 FM201200 VRB03KT P6SM FEW030
                       SCT250
                      PROB30 2012/2014 1SM BR FM201500 27010KT
                       P6SM FEW100 FEW250 RMK NXT FCST BY 200300Z=
202408200240 TAF CYOD 200240Z 2003/2024 20005KT P6SM FEW150 FM200600 17005KT
                       P6SM SCT070 BKN150
                      TEMPO 2006/2012 5SM -SHRA BR BKN070 OVC150
                       PROB30 2006/2012 VRB15G25KT 2SM TSRA BR
                       BKN070CB OVC180 FM201200 VRB03KT P6SM FEW030
                       SCT250
                      PROB30 2012/2014 1SM BR FM201500 27010KT
                       P6SM FEW100 FEW250 RMK NXT FCST BY 200600Z=
202408200540 TAF CYOD 200540Z 2006/2106 12005KT P6SM SCT070 OVC120
                      TEMPO 2006/2010 5SM -SHRA BR BKN070 OVC120
                       PROB30 2006/2010 VRB20G35KT 2SM TSRA BR
                       BKN070CB OVC180 FM201000 VRB03KT P6SM FEW005
                       SCT120 SCT250
                      PROB30 2010/2014 1SM BR BKN005 FM201500 27010KT
                       P6SM FEW100 FEW250
                      BECMG 2102/2104 VRB03KT RMK NXT FCST BY 201200Z=
202408200638 TAF AMD CYOD 200638Z 2006/2106 12005KT P6SM SCT060 OVC120
                      TEMPO 2006/2010 VRB20G35KT 2SM TSRA BR OVC060CB
                       FM201000 VRB03KT P6SM FEW005 SCT120 SCT250
                       PROB30 2010/2014 1SM BR BKN005 FM201500
                       27010KT P6SM FEW100 FEW250
                      BECMG 2102/2104 VRB03KT RMK NXT FCST BY 201200Z=
202408201022 TAF AMD CYOD 201022Z 2010/2106 12005KT P6SM SCT060 OVC120
                      TEMPO 2010/2011 VRB20G35KT 2SM TSRA BR OVC060CB
                       FM201100 VRB03KT P6SM FEW005 SCT120 SCT250
                       PROB30 2011/2015 1SM BR BKN005 FM201500
                       27010KT P6SM FEW100 FEW250
                      BECMG 2102/2104 VRB03KT RMK NXT FCST BY 201200Z=
202408201140 TAF CYOD 201140Z 2012/2112 VRB03KT P6SM BKN100
                      PROB30 2012/2014 1SM BR BKN005 FM201400 VRB03KT
                       P6SM SCT030 SCT100
                      BECMG 2017/2019 28010KT
                      BECMG 2102/2104 VRB03KT RMK NXT FCST BY 201500Z=
202408201440 TAF CYOD 201440Z 2015/2112 22005KT P6SM BKN100
                      TEMPO 2016/2018 6SM -SHRA BR BKN060
                      PROB30 2016/2017 VRB15G30KT 2SM TSRA BR OVC050CB
                       FM201800 28010KT P6SM SCT100
                      BECMG 2102/2104 VRB03KT RMK NXT FCST BY 201800Z=
202408201740 TAF CYOD 201740Z 2018/2118 27008KT P6SM SCT090 BKN130
                      BECMG 2102/2104 VRB03KT RMK NXT FCST BY 202100Z=
202408202040 TAF CYOD 202040Z 2021/2118 28008KT P6SM FEW100
                      BECMG 2102/2104 VRB03KT RMK NXT FCST BY 210000Z=
202408202345 TAF CYOD 202345Z 2100/2124 VRB03KT P6SM FEW070 BKN250
                      BECMG 2102/2104 SKC FM211900 32008KT P6SM
                       SCT080 RMK NXT FCST BY 210300Z=
202408210240 TAF CYOD 210240Z 2103/2124 VRB03KT P6SM FEW090 BKN250
                      BECMG 2103/2105 SKC FM211900 32008KT P6SM
                       SCT080 RMK NXT FCST BY 210600Z=
202408210540 TAF CYOD 210540Z 2106/2206 VRB03KT P6SM FEW090 FM211900 32008KT
                       P6SM SCT080 FM220200 02008KT P6SM SCT060
                       BKN250
                      TEMPO 2202/2206 P6SM -SHRA BKN060 OVC250
                       RMK NXT FCST BY 211200Z=
202408211140 TAF CYOD 211140Z 2112/2212 VRB03KT P6SM FEW090 FM211900 32008KT
                       P6SM SCT080 FM220200 02008KT P6SM SCT060
                       BKN250
                      TEMPO 2202/2212 P6SM -SHRA SCT015 BKN060
                       OVC250
                      PROB30 2202/2212 VRB15G30KT 2SM TSRA BR OVC060CB
                       RMK NXT FCST BY 211500Z=
202408211440 TAF CYOD 211440Z 2115/2212 VRB03KT P6SM FEW090 FM211900 32008KT
                       P6SM SCT080 FM220200 02008KT P6SM SCT060
                       BKN250
                      TEMPO 2202/2212 P6SM -SHRA SCT015 BKN060
                       OVC250
                      PROB30 2202/2212 VRB15G30KT 2SM TSRA BR OVC060CB
                       RMK NXT FCST BY 211800Z=
202408211740 TAF CYOD 211740Z 2118/2218 29008KT P6SM FEW040 FEW080 FEW250 FM220200
                       02008KT P6SM SCT060 BKN250
                      TEMPO 2202/2209 P6SM -SHRA SCT015 BKN060
                       OVC250
                      PROB30 2202/2209 VRB15G30KT 2SM TSRA BR OVC060CB
                       FM221400 32005KT P6SM SCT050 RMK NXT FCST
                       BY 212100Z=
202408212040 TAF CYOD 212040Z 2121/2218 29008KT P6SM FEW060 FEW130 FM220200
                       02008KT P6SM SCT060 BKN250
                      TEMPO 2202/2209 P6SM -SHRA SCT015 BKN060
                       OVC250
                      PROB30 2202/2209 VRB15G30KT 2SM TSRA BR OVC060CB
                       FM221400 32005KT P6SM SCT050 RMK NXT FCST
                       BY 220000Z=
202408212340 TAF CYOD 212340Z 2200/2224 33005KT P6SM FEW060 SCT250 FM220200
                       02008KT P6SM SCT060 BKN250
                      TEMPO 2202/2212 P6SM -SHRA SCT015 BKN060
                       OVC250
                      PROB30 2202/2206 VRB15G30KT 2SM TSRA BR OVC060CB
                       FM221400 36005KT P6SM SCT030
                      BECMG 2219/2221 29010KT RMK NXT FCST BY 220300Z=
202408220242 TAF CYOD 220242Z 2203/2224 02010KT P6SM SCT050 BKN180 BKN250
                      TEMPO 2203/2212 P6SM -SHRA SCT015 BKN050
                       OVC250
                      BECMG 2206/2208 02006KT FM221400 36005KT
                       P6SM SCT030
                      BECMG 2219/2221 29010KT RMK NXT FCST BY 220600Z=
202408220535 TAF AMD CYOD 220535Z 2205/2224 02012G22KT P6SM SCT050 BKN250
                      TEMPO 2205/2212 5SM -SHRA FU SCT015 BKN050
                       OVC250
                      BECMG 2206/2208 02006KT FM221400 36005KT
                       P6SM SCT030
                      TEMPO 2214/2216 5SM FU
                      BECMG 2219/2221 29010KT RMK NXT FCST BY 220600Z=
202408220542 TAF CYOD 220542Z 2206/2306 02012G22KT 6SM FU SCT050 BKN250
                      TEMPO 2206/2208 3SM -SHRA FU SCT015 BKN050
                       OVC250
                      BECMG 2206/2208 02006KT FM220800 02006KT
                       2SM FU BKN015 OVC250
                      TEMPO 2208/2214 6SM FU SCT015 BKN250 FM221400
                       36005KT P6SM SCT030
                      TEMPO 2214/2216 5SM FU
                      BECMG 2219/2221 29010KT RMK NXT FCST BY 221200Z=
202408220721 TAF AMD CYOD 220721Z 2207/2306 35008KT 4SM FU SCT020 OVC030
                      TEMPO 2207/2210 3/4SM -TSRA FU OVC020CB FM221015
                       02006KT 2SM FU BKN015 OVC250
                      TEMPO 2210/2214 6SM FU SCT015 BKN250 FM221400
                       36005KT P6SM SCT030
                      TEMPO 2214/2216 5SM FU
                      BECMG 2219/2221 29010KT RMK NXT FCST BY 221200Z=
202408220953 TAF AMD CYOD 220953Z 2209/2306 36006KT 3SM FU BKN015 OVC250
                      TEMPO 2209/2214 6SM FU SCT015 BKN250 FM221400
                       36005KT P6SM SCT030
                      TEMPO 2214/2216 5SM FU
                      BECMG 2219/2221 29010KT RMK NXT FCST BY 221200Z=
202408221141 TAF CYOD 221141Z 2212/2312 36006KT P6SM FEW020 FEW160 BKN240
                      TEMPO 2212/2215 5SM FU BKN020 FM221500 36012KT
                       P6SM SCT030 FM221900 27010KT P6SM SCT040
                       BECMG 2300/2302 VRB03KT FM230600 15005KT
                       P6SM SKC RMK NXT FCST BY 221500Z=
202408221440 TAF CYOD 221440Z 2215/2312 35010KT P6SM BKN030 BKN240
                      TEMPO 2215/2218 OVC020 FM221800 33012KT P6SM
                       SCT030 FM222000 27010KT P6SM SCT040
                      BECMG 2300/2302 VRB03KT FM230600 15005KT
                       P6SM SKC RMK NXT FCST BY 221800Z=
202408221741 TAF CYOD 221741Z 2218/2318 02008KT P6SM BKN030
                      BECMG 2219/2221 27008KT FM222100 27008KT
                       P6SM SCT040
                      BECMG 2300/2302 VRB03KT FM230600 14005KT
                       P6SM SKC FM231500 16010G20KT P6SM FEW220
                       RMK NXT FCST BY 222100Z=
202408222040 TAF CYOD 222040Z 2221/2318 28008KT P6SM BKN030 FM230000 VRB03KT
                       P6SM SCT040 FM230600 14005KT P6SM SKC FM231500
                       16010G20KT P6SM FEW220 RMK NXT FCST BY 230000Z=
202408222340 TAF CYOD 222340Z 2300/2324 27005KT P6SM SCT040 FM230600 14005KT
                       P6SM SKC FM231500 16010G20KT P6SM FEW220
                       RMK NXT FCST BY 230300Z=
202408230240 TAF CYOD 230240Z 2303/2324 16005KT P6SM FEW250 FM231500 16010G20KT
                       P6SM FEW220 RMK NXT FCST BY 230600Z=
202408230540 TAF CYOD 230540Z 2306/2406 16005KT P6SM SKC FM231500 16010G20KT
                       P6SM FEW220
                      BECMG 2401/2403 11010KT SCT200 RMK NXT FCST
                       BY 231200Z=
202408231141 TAF CYOD 231141Z 2312/2412 15006KT P6SM SKC
                      TEMPO 2312/2315 5SM BR FM231500 16010KT P6SM
                       FEW250
                      BECMG 2316/2317 16015KT FM240200 13010KT
                       P6SM FEW120 FEW250 FM240800 11010KT P6SM
                       SCT080 SCT120 BKN180 FM241100 11010KT P6SM
                       -SHRA BKN030 BKN080
                      PROB30 2411/2412 VRB20G30KT 1 1/2SM TSRA
                       BR BKN012CB RMK NXT FCST BY 231500Z=
202408231440 TAF CYOD 231440Z 2315/2412 14010KT P6SM FEW250
                      BECMG 2316/2317 16015KT FM240200 13010KT
                       P6SM FEW120 FEW250 FM240800 11010KT P6SM
                       SCT080 SCT120 BKN180 FM241100 11010KT P6SM
                       -SHRA BKN030 BKN080
                      PROB30 2411/2412 VRB20G30KT 1 1/2SM TSRA
                       BR BKN012CB RMK NXT FCST BY 231800Z=
202408231741 TAF CYOD 231741Z 2318/2418 16015KT P6SM FEW250 FM240200 13012KT
                       P6SM SCT140 SCT250
                      BECMG 2404/2406 11010KT FM240800 10010KT
                       P6SM SCT060 BKN140 BKN200 FM241100 10010KT
                       P6SM -SHRA FEW012 BKN030 BKN060
                      PROB30 2411/2414 VRB20G30KT 1 1/2SM +TSRA
                       BR FEW006 BKN012CB FM241400 11010G20KT P6SM
                       -SHRA BKN015 OVC030
                      BECMG 2415/2417 16010G20KT RMK NXT FCST BY
                       232100Z=
202408232040 TAF CYOD 232040Z 2321/2418 18015KT P6SM FEW150 FEW250 FM240200
                       13012KT P6SM SCT140 SCT250
                      BECMG 2404/2406 11010KT FM240800 10010KT
                       P6SM SCT060 BKN140 BKN200 FM241100 10010KT
                       P6SM -SHRA FEW012 BKN030 BKN060
                      PROB30 2411/2414 VRB20G30KT 1 1/2SM +TSRA
                       BR FEW006 BKN012CB FM241400 11010G20KT P6SM
                       -SHRA BKN015 OVC030
                      BECMG 2415/2417 16010G20KT RMK NXT FCST BY
                       240000Z=
202408232340 TAF CYOD 232340Z 2400/2424 18015KT P6SM FEW250 FM240200 13012KT
                       P6SM SCT140 SCT250
                      BECMG 2404/2406 11010KT FM240800 10010KT
                       P6SM SCT060 BKN140 BKN200 FM241100 10010KT
                       P6SM -SHRA FEW012 BKN030 BKN060
                      PROB30 2411/2414 VRB20G30KT 1 1/2SM +TSRA
                       BR FEW006 BKN012CB FM241400 11010G20KT P6SM
                       -SHRA BKN015 OVC030 FM241900 16010G20KT
                       P6SM SCT080 RMK NXT FCST BY 240300Z=
202408240240 TAF CYOD 240240Z 2403/2424 14010KT P6SM FEW160 BKN200 FM240800
                       10010KT P6SM SCT060 BKN140 BKN200 FM241100
                       10010KT P6SM -SHRA FEW012 BKN030 BKN060
                       PROB30 2411/2414 VRB20G30KT 1 1/2SM +TSRA
                       BR FEW006 BKN012CB FM241400 11010G20KT P6SM
                       -SHRA BKN015 OVC030 FM241900 16010G20KT
                       P6SM SCT080 RMK NXT FCST BY 240600Z=
202408240540 TAF CYOD 240540Z 2406/2506 12010KT P6SM FEW160 BKN200 FM240800
                       10010KT P6SM SCT060 BKN140 BKN200 FM241100
                       10010KT P6SM VCSH FEW012 BKN030 BKN060
                      PROB30 2411/2414 VRB20G30KT 1 1/2SM +TSRA
                       BR FEW006 BKN012CB FM241400 11010G20KT P6SM
                       VCSH BKN015 OVC030
                      BECMG 2415/2417 16010G20KT FM241900 16015G25KT
                       P6SM SCT060
                      BECMG 2502/2504 23012KT RMK NXT FCST BY 241200Z=
202408241046 TAF AMD CYOD 241046Z 2410/2506 09005KT P6SM SCT060 BKN080 OVC120
                       TEMPO 2410/2412 5SM -TSRA BR OVC060CB FM241200
                       10010KT P6SM VCSH FEW012 BKN030 BKN060
                      PROB30 2412/2414 VRB20G30KT 1 1/2SM +TSRA
                       BR FEW006 BKN012CB FM241400 11010G20KT P6SM
                       VCSH BKN015 OVC030
                      BECMG 2415/2417 16010G20KT FM241900 16015G25KT
                       P6SM SCT060
                      BECMG 2502/2504 23012KT RMK NXT FCST BY 241200Z=
202408241140 TAF CYOD 241140Z 2412/2512 10010KT P6SM VCSH FEW012 BKN030 BKN060
                       PROB30 2412/2413 VRB20G30KT 1 1/2SM +TSRA
                       BR FEW006 BKN012CB FM241400 11010G20KT P6SM
                       VCSH BKN015 OVC030
                      BECMG 2415/2417 16010G20KT FM241900 16015G25KT
                       P6SM SCT060
                      BECMG 2502/2504 23012KT RMK NXT FCST BY 241500Z=
202408241412 TAF AMD CYOD 241412Z 2414/2512 VRB03KT P6SM VCSH BKN140 BKN190
                       BECMG 2414/2416 12010G20KT FM241700 16010G20KT
                       P6SM FEW015 SCT030
                      TEMPO 2417/2419 BKN015 OVC030 FM241900 16015G25KT
                       P6SM SCT060
                      BECMG 2502/2504 23012KT RMK NXT FCST BY 241500Z=
202408241440 TAF CYOD 241440Z 2415/2512 VRB03KT P6SM VCSH BKN140 BKN190
                      BECMG 2415/2416 12010G20KT FM241700 16010G20KT
                       P6SM FEW015 SCT030
                      TEMPO 2417/2419 BKN015 OVC030 FM241900 16015G25KT
                       P6SM SCT060
                      BECMG 2502/2504 23012KT RMK NXT FCST BY 241800Z=
202408241740 TAF CYOD 241740Z 2418/2518 11012KT P6SM FEW025 OVC260
                      BECMG 2418/2420 16010G20KT
                      BECMG 2502/2504 23012KT FM250800 23012KT
                       P6SM -SHRA SCT012 BKN030
                      BECMG 2511/2513 27015G25KT FM251500 30015G25KT
                       P6SM SCT020 BKN040
                      BECMG 2516/2518 30010G20KT RMK NXT FCST BY
                       242100Z=
202408242040 TAF CYOD 242040Z 2421/2518 17015KT P6SM FEW050 SCT180
                      BECMG 2502/2504 23012KT FM250800 23012KT
                       P6SM -SHRA SCT012 BKN030
                      BECMG 2511/2513 27015G25KT FM251500 30015G25KT
                       P6SM SCT020 BKN040
                      BECMG 2516/2518 30010G20KT RMK NXT FCST BY
                       250000Z=
202408242340 TAF CYOD 242340Z 2500/2524 19012KT P6SM FEW180
                      BECMG 2502/2504 23012KT FM250800 23012KT
                       P6SM -SHRA SCT012 BKN030 OVC080
                      TEMPO 2508/2515 5SM -SHRA BR FEW008 BKN012
                       OVC030
                      BECMG 2511/2513 28015G25KT FM251500 30015G25KT
                       P6SM SCT020 BKN040
                      BECMG 2516/2518 30010G20KT FM252000 29012KT
                       P6SM SKC RMK NXT FCST BY 250300Z=
202408250240 TAF CYOD 250240Z 2503/2524 19012KT P6SM FEW120 BKN240
                      BECMG 2503/2505 23012KT FM250800 23012KT
                       P6SM -SHRA SCT012 BKN030 OVC080
                      TEMPO 2508/2515 5SM -SHRA BR FEW008 BKN012
                       OVC030
                      BECMG 2511/2513 28015G25KT FM251500 30015G25KT
                       P6SM SCT020 BKN040
                      BECMG 2516/2518 30010G20KT FM252000 29012KT
                       P6SM SKC RMK NXT FCST BY 250600Z=
202408250540 TAF CYOD 250540Z 2506/2606 24012KT P6SM FEW250 FM250800 24012KT
                       P6SM -SHRA SCT012 BKN030 OVC080
                      TEMPO 2508/2515 5SM -SHRA BR FEW008 BKN012
                       OVC030
                      BECMG 2511/2513 28015G25KT FM251500 30015G25KT
                       P6SM SCT020 BKN040
                      BECMG 2517/2519 30010G20KT FM252000 29012KT
                       P6SM SKC
                      BECMG 2602/2604 28005KT RMK NXT FCST BY 251200Z=
202408250624 TAF AMD CYOD 250624Z 2506/2606 22010KT P6SM BKN020 BKN250
                      TEMPO 2506/2508 BKN025 BKN250 FM250800 24012KT
                       P6SM -SHRA SCT012 BKN030 OVC080
                      TEMPO 2508/2515 5SM -SHRA BR FEW008 BKN012
                       OVC030
                      BECMG 2511/2513 28015G25KT FM251500 30015G25KT
                       P6SM SCT020 BKN040
                      BECMG 2517/2519 30010G20KT FM252000 29012KT
                       P6SM SKC
                      BECMG 2602/2604 28005KT RMK NXT FCST BY 251200Z=
202408250708 TAF AMD CYOD 250708Z 2507/2606 24012KT P6SM SCT012 OVC020
                      TEMPO 2507/2515 5SM -SHRA BR FEW008 BKN012
                       OVC020
                      BECMG 2511/2513 28015G25KT FM251500 30015G25KT
                       P6SM SCT020 BKN040
                      BECMG 2517/2519 30010G20KT FM252000 29012KT
                       P6SM SKC
                      BECMG 2602/2604 28005KT RMK NXT FCST BY 251200Z=
202408250926 TAF AMD CYOD 250926Z 2509/2606 24012KT P6SM -SHRA SCT012 OVC020
                       TEMPO 2509/2515 2SM -SHRA BR FEW008 BKN012
                       OVC020
                      BECMG 2511/2513 28015G25KT FM251500 30015G25KT
                       P6SM SCT020 BKN040
                      BECMG 2517/2519 30010G20KT FM252000 29012KT
                       P6SM SKC
                      BECMG 2602/2604 28005KT RMK NXT FCST BY 251200Z=
202408251020 TAF AMD CYOD 251020Z 2510/2606 30015KT P6SM -SHRA SCT012 OVC020
                       TEMPO 2510/2515 2SM -SHRA BR FEW008 BKN012
                       OVC020 FM251500 30015G25KT P6SM SCT020 BKN040
                       BECMG 2517/2519 30010G20KT FM252000 29012KT
                       P6SM SKC
                      BECMG 2602/2604 28005KT RMK NXT FCST BY 251200Z=
202408251140 TAF CYOD 251140Z 2512/2612 29012KT P6SM -SHRA SCT012 OVC020
                      TEMPO 2512/2515 2SM -SHRA BR FEW008 BKN012
                       OVC020 FM251500 30015G25KT P6SM SCT020 BKN040
                       BECMG 2517/2519 30010G20KT FM252000 29012KT
                       P6SM SKC
                      BECMG 2602/2604 28005KT FM260800 VRB03KT
                       P6SM SCT050 RMK NXT FCST BY 251500Z=
202408251440 TAF CYOD 251440Z 2515/2612 28010KT P6SM SCT020 BKN040
                      TEMPO 2515/2517 OVC020
                      BECMG 2517/2519 30010G20KT FM252000 29012KT
                       P6SM SKC
                      BECMG 2602/2604 28005KT FM260800 VRB03KT
                       P6SM SCT050 RMK NXT FCST BY 251800Z=
202408251740 TAF CYOD 251740Z 2518/2618 28010KT P6SM SCT020 BKN040
                      BECMG 2518/2519 30010G20KT FM252000 29012KT
                       P6SM SKC
                      BECMG 2602/2604 28005KT FM260800 VRB03KT
                       P6SM FEW050
                      PROB30 2608/2613 1 1/2SM BR FM261300 12005KT
                       P6SM FEW050 RMK NXT FCST BY 252100Z=
202408252040 TAF CYOD 252040Z 2521/2618 29012KT P6SM FEW040
                      BECMG 2602/2604 28005KT FM260800 VRB03KT
                       P6SM FEW050
                      PROB30 2608/2613 1 1/2SM BR FM261300 12005KT
                       P6SM FEW050 RMK NXT FCST BY 260000Z=
202408252340 TAF CYOD 252340Z 2600/2624 29012KT P6SM FEW050
                      BECMG 2602/2604 24005KT FM260900 VRB03KT
                       P6SM SCT060
                      PROB30 2609/2613 1 1/2SM BR FM261400 12006KT
                       P6SM SCT060
                      BECMG 2616/2618 14015KT FM262000 14015KT
                       P6SM FEW080 SCT250 RMK NXT FCST BY 260300Z=
202408260240 TAF CYOD 260240Z 2603/2624 29005KT P6SM SKC
                      BECMG 2604/2606 24005KT FM260900 VRB03KT
                       P6SM SCT060
                      PROB30 2609/2613 1 1/2SM BR FM261400 12006KT
                       P6SM SCT060
                      BECMG 2616/2618 15015KT FM262000 15015KT
                       P6SM FEW080 SCT250 RMK NXT FCST BY 260600Z=
202408260542 TAF CYOD 260542Z 2606/2706 VRB03KT P6SM SKC
                      TEMPO 2606/2609 4SM BR FM260900 VRB03KT 6SM
                       BR SCT070
                      TEMPO 2609/2614 2SM BR
                      PROB30 2609/2614 1/2SM FG VV002 FM261400
                       12006KT P6SM SCT070
                      BECMG 2616/2618 15012KT FM262000 15015KT
                       P6SM FEW080 SCT250 RMK NXT FCST BY 261200Z=
202408261140 TAF CYOD 261140Z 2612/2712 VRB03KT P6SM SKC
                      PROB30 2612/2614 2SM BR FM261400 12006KT
                       P6SM SCT070
                      BECMG 2616/2618 15012KT FM262000 15015KT
                       P6SM FEW080 SCT250 RMK NXT FCST BY 261500Z=
202408261440 TAF CYOD 261440Z 2615/2712 13008KT P6SM BKN080
                      BECMG 2616/2618 15012KT FM262000 15015KT
                       P6SM FEW080 SCT250 RMK NXT FCST BY 261800Z=
202408261740 TAF CYOD 261740Z 2618/2718 12010KT P6SM SCT080
                      TEMPO 2618/2620 BKN080 FM262000 15015KT P6SM
                       FEW080 SCT250 FM271500 14015G25KT P6SM SCT140
                       RMK NXT FCST BY 262100Z=
202408262040 TAF CYOD 262040Z 2621/2718 16015KT P6SM FEW250 FM271500 14015G25KT
                       P6SM SCT140 RMK NXT FCST BY 270000Z=
202408262340 TAF CYOD 262340Z 2700/2724 13015KT P6SM FEW060 FEW160 BKN250 FM270400
                       13015KT P6SM FEW160 SCT250 FM271500 14015G25KT
                       P6SM FEW140 SCT250 FM272000 16015G25KT P6SM
                       BKN140 BKN250 RMK NXT FCST BY 270300Z=
202408270240 TAF CYOD 270240Z 2703/2724 12012KT P6SM SCT160 BKN250 FM270400
                       12012KT P6SM FEW160 SCT250 FM271500 14015G25KT
                       P6SM FEW140 SCT250 FM272000 16015G25KT P6SM
                       BKN140 BKN250 RMK NXT FCST BY 270600Z=
202408270540 TAF CYOD 270540Z 2706/2806 12012KT P6SM FEW100 SCT250 FM271500
                       14015G25KT P6SM FEW140 SCT250 FM272000 16012G22KT
                       P6SM BKN140 BKN250
                      BECMG 2800/2802 16010KT FM280300 16010KT
                       P6SM -SHRA FEW080 BKN120 BKN180 RMK NXT
                       FCST BY 271200Z=
202408271140 TAF CYOD 271140Z 2712/2812 12012KT P6SM SCT250 FM271500 14015G25KT
                       P6SM FEW140 SCT250 FM272000 16012G22KT P6SM
                       BKN140 BKN250
                      BECMG 2800/2802 18010KT FM280300 22010KT
                       P6SM -SHRA FEW080 BKN120 BKN180 FM281000
                       VRB03KT P6SM SCT030 BKN080 RMK NXT FCST
                       BY 271500Z=
202408271443 TAF CYOD 271443Z 2715/2812 14012KT P6SM BKN250
                      BECMG 2715/2717 14015G25KT FM272000 16012G22KT
                       P6SM BKN140 BKN250
                      BECMG 2800/2802 18010KT FM280300 22010KT
                       P6SM -SHRA FEW080 BKN120 BKN180 FM281000
                       VRB03KT P6SM SCT030 BKN080 RMK NXT FCST
                       BY 271800Z=
202408271740 TAF CYOD 271740Z 2718/2818 14015G25KT P6SM BKN250 FM272000 16012G22KT
                       P6SM BKN140 BKN250
                      BECMG 2800/2802 18010KT FM280300 22010KT
                       P6SM -SHRA FEW080 BKN120 BKN180 FM281000
                       VRB03KT P6SM SCT030 BKN080 FM281200 30008KT
                       P6SM -SHRA BKN030 OVC080 FM281400 35010KT
                       5SM -RA BR SCT012 OVC030 RMK NXT FCST BY
                       272100Z=
202408272040 TAF CYOD 272040Z 2721/2818 16012KT P6SM SCT160 BKN210
                      BECMG 2800/2802 18010KT FM280300 22010KT
                       P6SM -SHRA FEW080 BKN120 BKN180 FM281000
                       VRB03KT P6SM SCT030 BKN080 FM281200 30008KT
                       P6SM -SHRA BKN030 OVC080 FM281400 35010KT
                       5SM -RA BR SCT012 OVC030 RMK NXT FCST BY
                       280000Z=
202408272340 TAF CYOD 272340Z 2800/2824 18010KT P6SM SCT160 BKN220 FM280300
                       20010KT P6SM FEW080 BKN140 BKN180
                      TEMPO 2803/2806 P6SM -SHRA BKN080 OVC140
                       FM280600 29005KT P6SM SCT080 BKN140 FM281200
                       01006KT P6SM -SHRA FEW030 OVC080 FM281400
                       02010KT 5SM -RA BR FEW010 BKN030 OVC060
                       FM281700 03012KT 3SM -RA BR SCT008 BKN015
                       OVC030 RMK NXT FCST BY 280300Z=
202408280240 TAF CYOD 280240Z 2803/2824 19010KT P6SM FEW080 BKN160 OVC250
                      TEMPO 2803/2807 P6SM -SHRA BKN080 OVC160
                       BECMG 2804/2806 29005KT FM280700 29005KT
                       P6SM SCT080 BKN140 FM281200 01006KT P6SM
                       -SHRA FEW030 OVC080 FM281400 02010KT 5SM
                       -RA BR FEW010 BKN030 OVC060 FM281700 03012KT
                       3SM -RA BR SCT008 BKN015 OVC030 RMK NXT
                       FCST BY 280600Z=
202408280541 TAF CYOD 280541Z 2806/2906 29005KT P6SM FEW080 BKN140 OVC250
                      TEMPO 2806/2808 P6SM -SHRA BKN080 OVC140
                       FM280800 VRB03KT P6SM SCT080 BKN140 FM281200
                       01006KT P6SM -SHRA FEW030 OVC080 FM281500
                       02010KT 4SM -SHRA BR FEW010 BKN030 OVC060
                       FM281700 03012KT 5SM -SHRA BR SCT008 BKN015
                       OVC030 FM282200 03012KT P6SM -SHRA SCT012
                       BKN025 OVC050 FM290300 35010KT P6SM FEW015
                       BKN030 RMK NXT FCST BY 281200Z=
202408281140 TAF CYOD 281140Z 2812/2912 14006KT P6SM -SHRA FEW030 OVC060
                      BECMG 2812/2814 02008KT FM281500 02010KT
                       4SM -SHRA BR FEW010 BKN030 OVC060 FM281700
                       03012KT 5SM -SHRA BR SCT008 BKN015 OVC030
                       TEMPO 2817/2822 P6SM -SHRA FEW008 SCT015
                       OVC040 FM282200 03012KT P6SM -SHRA SCT012
                       BKN025 OVC050 FM290300 35010KT P6SM FEW015
                       BKN030 FM290600 35010KT P6SM FEW020 BKN060
                       RMK NXT FCST BY 281500Z=
202408281440 TAF CYOD 281440Z 2815/2912 04005KT P6SM SCT030 OVC090
                      TEMPO 2815/2817 4SM -SHRA BR FEW010 BKN030
                       OVC090
                      BECMG 2815/2816 03008KT FM281700 03012KT
                       5SM -SHRA BR SCT008 BKN015 OVC030
                      TEMPO 2817/2822 P6SM -SHRA FEW008 SCT015
                       OVC040 FM282200 03012KT P6SM -SHRA SCT012
                       BKN025 OVC050 FM290300 35010KT P6SM FEW015
                       BKN030 FM290600 35010KT P6SM FEW020 BKN060
                       RMK NXT FCST BY 281800Z=
202408281741 TAF CYOD 281741Z 2818/2918 34005KT P6SM -SHRA SCT008 SCT020 OVC050
                       TEMPO 2818/2820 5SM -SHRA BR BKN008 BKN020
                       OVC030
                      BECMG 2818/2820 35012KT FM282000 35012KT
                       P6SM FEW020 OVC050
                      TEMPO 2820/2822 6SM -SHRA BR BKN020 OVC040
                       FM282200 02012KT P6SM BKN040 OVC090
                      TEMPO 2822/2903 P6SM -SHRA FM290300 35010KT
                       P6SM FEW020 BKN040 OVC090 FM290600 35010KT
                       P6SM BKN040 OVC060 FM291000 33008KT P6SM
                       FEW250
                      BECMG 2915/2917 28010KT RMK NXT FCST BY 282100Z=
202408282021 TAF AMD CYOD 282021Z 2820/2918 02010KT P6SM SCT012 OVC050
                      TEMPO 2820/2822 6SM -SHRA BR BKN012 OVC040
                       FM282200 02012KT P6SM -SHRA BKN015 OVC050
                       TEMPO 2822/2903 P6SM NSW SCT015 BKN040 OVC090
                       FM290300 35010KT P6SM FEW020 BKN040 OVC090
                       FM290600 35010KT P6SM BKN040 OVC060 FM291000
                       33008KT P6SM FEW250
                      BECMG 2915/2917 28010KT RMK NXT FCST BY 282100Z=
202408282040 TAF CYOD 282040Z 2821/2918 02010KT P6SM SCT012 OVC050
                      TEMPO 2821/2822 6SM -SHRA BR BKN012 OVC040
                       FM282200 02012KT P6SM -SHRA BKN015 OVC050
                       TEMPO 2822/2903 P6SM NSW SCT015 BKN040 OVC090
                       FM290300 35010KT P6SM FEW020 BKN040 OVC090
                       FM290600 35010KT P6SM BKN040 OVC060 FM291000
                       33008KT P6SM FEW250
                      BECMG 2915/2917 28010KT RMK NXT FCST BY 290000Z=
202408282340 TAF CYOD 282340Z 2900/2924 04008KT P6SM -SHRA BKN015 OVC060
                      TEMPO 2900/2903 P6SM NSW SCT015 OVC060 FM290300
                       35010KT P6SM FEW020 BKN040 OVC090 FM290600
                       35010KT P6SM BKN040 OVC060 FM291000 33008KT
                       P6SM FEW250
                      BECMG 2915/2917 28010KT RMK NXT FCST BY 290300Z=
202408290240 TAF CYOD 290240Z 2903/2924 35010KT P6SM FEW020 BKN040 OVC090 FM290600
                       35010KT P6SM BKN040 OVC060 FM291000 33008KT
                       P6SM FEW250
                      BECMG 2915/2917 28010KT RMK NXT FCST BY 290600Z=
202408290540 TAF CYOD 290540Z 2906/3006 VRB03KT P6SM BKN120 FM291000 VRB03KT
                       P6SM SKC
                      BECMG 2915/2917 28010KT FM292100 29012G22KT
                       P6SM FEW030 FM300300 30008KT P6SM SCT040
                       BKN080 RMK NXT FCST BY 291200Z=
202408291140 TAF CYOD 291140Z 2912/3012 VRB03KT P6SM SKC
                      PROB30 2912/2914 2SM BR FM291500 28005KT
                       P6SM SKC
                      BECMG 2915/2917 28010KT FM292100 29012G22KT
                       P6SM FEW030 SCT060
                      BECMG 2921/2923 29015G25KT FM300300 30008KT
                       P6SM SCT040 BKN070
                      BECMG 3003/3005 26005KT FEW070 RMK NXT FCST
                       BY 291500Z=
202408291440 TAF CYOD 291440Z 2915/3012 27005KT P6SM FEW250
                      BECMG 2915/2917 27010KT FM292100 29012G22KT
                       P6SM FEW030 SCT060
                      BECMG 2921/2923 29015G25KT FM300300 30008KT
                       P6SM SCT040 BKN070
                      BECMG 3003/3005 26005KT FEW070 RMK NXT FCST
                       BY 291800Z=
202408291740 TAF CYOD 291740Z 2918/3018 27010KT P6SM FEW180 FM292100 29012G22KT
                       P6SM FEW030 SCT060
                      BECMG 2921/2923 29015G25KT FM300000 29015G25KT
                       P6SM FEW030 SCT050
                      TEMPO 3000/3004 P6SM VCSH BKN050 FM300400
                       30008KT P6SM SCT040 BKN060
                      BECMG 3004/3006 26005KT FEW060 FM301000 27005KT
                       P6SM FEW070 SCT200 FM301500 26008KT P6SM
                       BKN070 BKN200 RMK NXT FCST BY 292100Z=
202408292040 TAF CYOD 292040Z 2921/3018 28012G22KT P6SM FEW040 SCT060
                      BECMG 2921/2923 29015G25KT FM300000 29015G25KT
                       P6SM FEW030 SCT050
                      TEMPO 3000/3004 P6SM VCSH BKN050
                      BECMG 3001/3003 29012G22KT FM300400 30008KT
                       P6SM SCT040 BKN060
                      BECMG 3004/3006 26005KT FEW060 FM301000 27005KT
                       P6SM FEW070 SCT200 FM301500 26008KT P6SM
                       BKN070 BKN200 RMK NXT FCST BY 300000Z=
202408292340 TAF CYOD 292340Z 3000/3024 31012G22KT P6SM FEW030 SCT050
                      TEMPO 3000/3004 P6SM VCSH BKN050 FM300400
                       30008KT P6SM SCT040 BKN060 FM301000 27005KT
                       P6SM FEW070 SCT200 FM301800 27015G25KT P6SM
                       BKN100 FM302000 28025G35KT P6SM BKN100
                      BECMG 3022/3024 28018G28KT RMK NXT FCST BY
                       300300Z=
202408300240 TAF CYOD 300240Z 3003/3024 31012G22KT P6SM FEW030 SCT050
                      TEMPO 3003/3004 P6SM VCSH BKN050 FM300400
                       30008KT P6SM SCT040 BKN060 FM301000 27005KT
                       P6SM FEW070 SCT200 FM301800 27015G25KT P6SM
                       BKN100 FM302000 28025G35KT P6SM BKN100
                      BECMG 3022/3024 28018G28KT RMK NXT FCST BY
                       300600Z=
202408300540 TAF CYOD 300540Z 3006/3106 27005KT P6SM FEW110 SCT260 FM301800
                       27015G25KT P6SM BKN100 FM302000 28020G30KT
                       P6SM BKN100
                      BECMG 3022/3024 28018G28KT
                      BECMG 3101/3103 30015KT FM310500 30010KT
                       P6SM BKN060 RMK NXT FCST BY 301200Z=
202408301140 TAF CYOD 301140Z 3012/3112 25008KT P6SM FEW110 BKN250 FM301400
                       25008KT P6SM OVC140
                      BECMG 3016/3018 27012G22KT FM301800 27012G22KT
                       P6SM OVC080
                      TEMPO 3018/3023 P6SM -SHRA
                      BECMG 3018/3020 27015G28KT FM302300 27015G28KT
                       P6SM SCT060 SCT250
                      BECMG 3100/3102 27015KT FM310200 27015KT
                       P6SM FEW060
                      BECMG 3104/3106 27008KT RMK NXT FCST BY 301500Z=
202408301440 TAF CYOD 301440Z 3015/3112 22008KT P6SM FEW110 BKN220
                      BECMG 3015/3016 FEW080 OVC140 FM301600 25008KT
                       P6SM FEW080 OVC140
                      BECMG 3016/3018 27012G22KT FM301800 27012G22KT
                       P6SM OVC080
                      TEMPO 3018/3023 P6SM -SHRA
                      BECMG 3018/3020 27015G28KT FM302300 27015G28KT
                       P6SM SCT060 SCT250
                      BECMG 3100/3102 27015KT FM310200 27015KT
                       P6SM FEW060
                      BECMG 3104/3106 27008KT RMK NXT FCST BY 301800Z=
202408301740 TAF CYOD 301740Z 3018/3118 25008KT P6SM OVC080
                      TEMPO 3018/3023 P6SM -SHRA
                      BECMG 3018/3020 27015G25KT FM302300 27015G28KT
                       P6SM SCT060 SCT250
                      BECMG 3100/3102 27015KT FM310200 27015KT
                       P6SM SKC
                      BECMG 3104/3106 27008KT RMK NXT FCST BY 302100Z=
202408302009 TAF AMD CYOD 302009Z 3020/3118 27008KT P6SM OVC080
                      TEMPO 3020/3023 P6SM -SHRA
                      BECMG 3020/3022 27012G22KT FM302300 27012G22KT
                       P6SM SCT060 SCT250
                      BECMG 3100/3102 27012KT FM310200 27012KT
                       P6SM SKC
                      BECMG 3104/3106 27008KT RMK NXT FCST BY 302100Z=
202408302040 TAF CYOD 302040Z 3021/3118 27008KT P6SM OVC080
                      TEMPO 3021/3023 P6SM -SHRA
                      BECMG 3021/3022 27012G22KT FM302300 27012G22KT
                       P6SM SCT060 SCT250
                      BECMG 3100/3102 27012KT FM310200 27012KT
                       P6SM SKC
                      BECMG 3104/3106 27008KT RMK NXT FCST BY 310000Z=
202408302340 TAF CYOD 302340Z 3100/3124 27010KT P6SM FEW040 SCT110 BKN210
                      BECMG 3103/3105 27007KT SKC FM311500 28010KT
                       P6SM SKC RMK NXT FCST BY 310300Z=

</pre>



</body></html>