<!DOCTYPE html PUBLIC "-//W3C//DTD HTML 4.01 Transitional//EN">
<!-- saved from url=(0177)https://www.ogimet.com/display_metars2.php?lang=en&lugar=CYOD&tipo=ALL&ord=DIR&nil=SI&fmt=txt&ano=2024&mes=07&day=01&hora=00&anof=2024&mesf=07&dayf=31&horaf=00&minf=59&send=send -->
<html><head><meta http-equiv="Content-Type" content="text/html; charset=UTF-8">
  <title>Display metars</title>
  
  <meta name="Author" content="G. Ballester">
  <meta name="GENERATOR" content="Quanta Plus">
  <meta name="robots" content="index,nofollow">
  <meta name="keywords" content="metar, speci, taf, weather reports">
  <meta name="viewport" content="width=device-width, initial-scale=1">
  <link rel="stylesheet" href="./DisplayMetarsCYOD_July_files/ogimet.css">
  <link rel="stylesheet" type="text/css" href="./DisplayMetarsCYOD_July_files/cookieconsent.min.css">
<script src="./DisplayMetarsCYOD_July_files/cookieconsent.min.js.download"></script>
<script>
window.addEventListener("load", function(){
window.cookieconsent.initialise({
  "palette": {
    "popup": {
      "background": "#eb6c44",
      "text": "#ffffff"
    },
    "button": {
      "background": "#f5d948"
    }
  },
  "theme": "classic",
  "position": "top",
  "content": {
    "message": "Las cookies de este sitio web se usan para personalizar el contenido y los anuncios, ofrecer funciones de redes sociales y analizar el tráfico. Ademas, compartimos el uso que haga del sitio web con nuestros partners de redes sociales, publicidad y análisis web, quienes pueden combinarla con otra información que les haya proporcionado o que hayan recopilado a partir del uso que haya hecho de sus servicios. Si continua navegando en estas páginas consideramos que acepta su uso. ",
    "dismiss": "Entendido",
    "link": "Saber más",
    "href": "/cookiespolicy.phtml"
  }
})});
</script>
<style></style></head>

<body><div role="dialog" aria-live="polite" aria-label="cookieconsent" aria-describedby="cookieconsent:desc" class="cc-window cc-banner cc-type-info cc-theme-classic cc-top cc-color-override-1519961192 cc-invisible" style="display: none;"><!--googleoff: all--><span id="cookieconsent:desc" class="cc-message">Las cookies de este sitio web se usan para personalizar el contenido y los anuncios, ofrecer funciones de redes sociales y analizar el tráfico. Ademas, compartimos el uso que haga del sitio web con nuestros partners de redes sociales, publicidad y análisis web, quienes pueden combinarla con otra información que les haya proporcionado o que hayan recopilado a partir del uso que haya hecho de sus servicios. Si continua navegando en estas páginas consideramos que acepta su uso.  <a aria-label="learn more about cookies" role="button" tabindex="0" class="cc-link" href="https://www.ogimet.com/cookiespolicy.phtml" target="_blank">Saber más</a></span><div class="cc-compliance"><a aria-label="dismiss cookie message" role="button" tabindex="0" class="cc-btn cc-dismiss">Entendido</a></div><!--googleon: all--></div>
  <pre>##########################################################
# Query made at 10/28/2024 11:49:41 UTC
# Time interval: from 07/01/2024 00:00  to 07/31/2024 00:59  UTC
##########################################################

##########################################################
# CYOD, Cold Lake, Alta. (Canada)
# WMO index: 71120. WIGOS ID: 0-20000-0-71120
# Latitude 54-25-00N. Longitude 110-16-59W. Altitude 541 m.
##########################################################

###################################
#  METAR/SPECI from CYOD
###################################
202407010000 METAR CYOD 010000Z 16009KT 15SM SCT060 BKN250 22/09 A2994 RMK CU3CI4 DENSITY ALT 3193FT SLP143=
202407010100 METAR CYOD 010100Z 16008KT 15SM FEW060 BKN250 21/08 A2992 RMK CU1CS7 DENSITY ALT 3063FT SLP137=
202407010200 METAR CYOD 010200Z 16004KT 15SM OVC180 19/09 A2991 RMK AS8 DENSITY ALT 2903FT SLP132=
202407010300 METAR CYOD 010300Z 13005KT 15SM OVC160 18/10 A2991 RMK AS8 DENSITY ALT 2737FT SLP132=
202407010400 METAR CYOD 010400Z 14007KT 15SM OVC150 17/10 A2990 RMK AS8 DENSITY ALT 2577FT SLP128=
202407010500 METAR CYOD 010500Z 14007KT 15SM OVC130 16/10 A2990 RMK AS8 DENSITY ALT 2482FT SLP126=
202407010600 METAR CYOD 010600Z 12004KT 15SM OVC120 15/11 A2988 RMK AS8 DENSITY ALT 2447FT SLP119=
202407010700 METAR CYOD 010700Z 00000KT 15SM BKN050 BKN090 15/11 A2986 RMK SC5AC2 DENSITY ALT 2411FT SLP113=
202407010800 METAR CYOD 010800Z 00000KT 15SM SCT050 BKN120 15/11 A2984 RMK SC3AC4 DENSITY ALT 2432FT SLP106=
202407010900 METAR CYOD 010900Z 00000KT 15SM BKN110 13/11 A2983 RMK AC6 DENSITY ALT 2271FT SLP101=
202407011000 METAR CYOD 011000Z 12002KT 15SM BKN100 13/11 A2982 RMK AC6 DENSITY ALT 2284FT SLP100=
202407011100 METAR CYOD 011100Z 12002KT 15SM SCT100 BKN130 13/11 A2982 RMK AC3AC4 DENSITY ALT 2249FT SLP099=
202407011200 METAR CYOD 011200Z 00000KT 15SM BKN050 BKN100 14/12 A2981 RMK SC5AC2 DENSITY ALT 2358FT SLP098=
202407011300 METAR CYOD 011300Z 00000KT 15SM SCT080 BKN250 14/12 A2980 RMK ACC4CI3 DENSITY ALT 2386FT SLP095=
202407011400 METAR CYOD 011400Z 14004KT 15SM BKN070 BKN100 BKN250 15/13 A2979 RMK ACC5AC1CI1 DENSITY ALT 2537FT SLP093=
202407011500 METAR CYOD 011500Z 00000KT 15SM BKN060 BKN100 BKN250 16/13 A2979 RMK SC6AC1CI1 DENSITY ALT 2681FT SLP091=
202407011600 METAR CYOD 011600Z 00000KT 15SM FEW060TCU BKN100 BKN250 18/13 A2978 RMK TCU2AC3CI1 DENSITY ALT 2980FT SLP086=
202407011700 METAR CYOD 011700Z 01005KT 15SM SCT050TCU BKN100 BKN250 20/12 A2977 RMK TCU4AC2CI1 DENSITY ALT 3211FT SLP083=
202407011800 METAR CYOD 011800Z 02007KT 15SM BKN045TCU BKN100 BKN250 20/11 A2976 RMK TCU6AC1CI1 DENSITY ALT 3208FT SLP080=
202407011900 METAR CYOD 011900Z 09005KT 15SM SCT060TCU BKN130 BKN250 21/12 A2974 RMK TCU4AC3CI1 DENSITY ALT 3359FT SLP075=
202407012000 METAR CYOD 012000Z 00000KT 15SM BKN050CB BKN250 22/12 A2973 RMK CB5CI1 DENSITY ALT 3439FT CB N MOV S CB S MOV S OCNL LTGCC LTNG DTCTRS REP STRIKES 11 NM SW FRQ LTGCCCG LTNG DTCTRS REP STRIKES 25 NM S SLP069=
202407012100 METAR CYOD 012100Z 00000KT 15SM BKN050TCU BKN250 22/12 A2971 RMK TCU5CI2 DENSITY ALT 3500FT CB N MOV S FRQ LTGCCCG LTNG DTCTRS REP STRIKES 25 NM N SLP064=
202407012200 METAR CYOD 012200Z 13005KT 15SM FEW050CB SCT060TCU BKN250 23/13 A2971 RMK CB1TCU3CI4 DENSITY ALT 3644FT CB N MOV S FRQ LTGICCG LTNG DTCTRS REP STRIKES 11 NM N SLP062=
202407012205 SPECI CYOD 012205Z 14009KT 15SM TS FEW050CB SCT060TCU BKN250 22/12 A2971 RMK CB1TCU3CI4 DENSITY ALT 3472FT CB N MOV S FRQ LTGCCCG SLP064=
202407012228 SPECI CYOD 012228Z 26015KT 15SM -TSRA BKN045CB BKN250 21/12 A2973 RMK CB6CI1 DENSITY ALT 3313FT CB OHD MOV S OCNL LTGICCG SLP072=
202407012249 SPECI CYOD 012249Z 02008KT 3SM -TSRA BKN045CB 15/12 A2973 RMK CB7 DENSITY ALT 2625FT CB OHD MOV S FRQ LTGCCCG SLP075=
202407012300 METAR CYOD 012300Z 06012KT 15SM -TSRA BKN045CB BKN250 15/13 A2972 RMK CB6CI1 DENSITY ALT 2609FT CB OHD MOV S FRQ LTGCCCG VIS LWR S SLP070=
202407012308 SPECI CYOD 012308Z 17006KT 15SM TS SCT045CB BKN250 17/14 A2972 RMK CB4CI2 DENSITY ALT 2863FT SLP070=
202407012333 SPECI CYOD 012333Z CCA 16009KT 15SM SCT045CB BKN055 BKN250 18/14 A2973 RMK CB3SC2CI2 DENSITY ALT 3031FT CB NW MOV S CB S MOV S FRQ LTGICCC LTNG DTCTRS REP STRIKES 20 NM NW SLP072=
202407020000 METAR CYOD 020000Z CCA 14007KT 15SM FEW045CB SCT060TCU BKN250 19/14 A2972 RMK CB2TCU2CI2 DENSITY ALT 3124FT CB S MOV S OCNL LTGCCCG LTNG DTCTRS REP STRIKES 12 NM NW SLP068=
202407020039 SPECI CYOD 020039Z 13002KT 15SM TS SCT050CB BKN070 BKN250 17/13 A2975 RMK CB3AC3CI1 DENSITY ALT 2878FT CB NW MOV SE OCNL LTGCC SLP080=
202407020049 SPECI CYOD 020049Z 33022G27KT 12SM -TSRA SCT035CB BKN050TCU BKN250 17/13 A2976 RMK CB4TCU2CI1 DENSITY ALT 2872FT CB W MOV E FRQ LTGCCCG SLP083=
202407020100 METAR CYOD 020100Z 34014KT 8SM -TSRA FEW006 BKN035CB OVC250 15/13 A2977 RMK SF2CB5CI1 DENSITY ALT 2552FT CB OHD MOV E FRQ LTGCCCG SLP087=
202407020147 SPECI CYOD 020147Z 04007KT 8SM -SHRA BKN045 BKN080TCU OVC250 14/13 A2973 RMK SC5TCU2CI1 DENSITY ALT 2488FT FRQ LTGCCCG 20NM SW SLP076=
202407020200 METAR CYOD 020200Z 05007KT 12SM -SHRA SCT050 BKN080TCU BKN130 14/13 A2973 RMK SC3TCU2AC2 DENSITY ALT 2516FT PCPN VRY LGT OCNL LTGCCCG 20NM SW SLP073=
202407020251 SPECI CYOD 020251Z 22006KT 15SM BKN130 BKN250 14/13 A2973 RMK AC5CI2 DENSITY ALT 2450FT OCNL DIST LTNG S SLP074=
202407020300 METAR CYOD 020300Z 23006KT 15SM BKN130 BKN250 14/13 A2973 RMK AC5CI2 DENSITY ALT 2436FT OCNL DIST LTNG S SLP074=
202407020400 METAR CYOD 020400Z 34004KT 15SM FEW110 SCT140 13/13 A2974 RMK AC2AC2 DENSITY ALT 2359FT SLP078=
202407020500 METAR CYOD 020500Z 23002KT 15SM MIFG SCT120 11/11 A2974 RMK AC3 DENSITY ALT 2127FT SLP074=
202407020600 METAR CYOD 020600Z 20002KT 12SM MIFG SCT140 10/10 A2973 RMK AC3 DENSITY ALT 1944FT SLP073=
202407020700 METAR CYOD 020700Z 24004KT 15SM SCT050 BKN100 11/11 A2974 RMK SC4AC2 DENSITY ALT 2087FT SLP076=
202407020800 METAR CYOD 020800Z 24004KT 15SM FEW050 12/12 A2973 RMK SC2 DENSITY ALT 2181FT SLP072=
202407020900 METAR CYOD 020900Z 17003KT 15SM MIFG FEW050 11/11 A2973 RMK SC2 DENSITY ALT 2057FT SLP070=
202407021000 METAR CYOD 021000Z 25007KT 15SM MIFG FEW060 11/11 A2973 RMK SC2 DENSITY ALT 2098FT SLP071=
202407021100 METAR CYOD 021100Z 25004KT 12SM MIFG SCT040 11/11 A2973 RMK SC3 DENSITY ALT 2140FT SLP076=
202407021200 METAR CYOD 021200Z 24006KT 15SM SCT040 BKN080 12/12 A2974 RMK SC4AC2 DENSITY ALT 2266FT SLP076=
202407021300 METAR CYOD 021300Z 25004KT 15SM FEW040 FEW080 13/13 A2974 RMK SC1AC1 DENSITY ALT 2402FT SLP080=
202407021400 METAR CYOD 021400Z 00000KT 15SM FEW030 SCT180 SCT250 16/15 A2975 RMK SC2AC1CI1 DENSITY ALT 2716FT MDT CU EMBD SLP081=
202407021500 METAR CYOD 021500Z 29010KT 15SM BKN016 BKN070 18/15 A2975 RMK SC6AC1 DENSITY ALT 2976FT SLP080=
202407021600 METAR CYOD 021600Z 26007KT 15SM BKN020 BKN070 18/15 A2975 RMK SC7AC1 DENSITY ALT 2951FT SLP081=
202407021700 METAR CYOD 021700Z 25008KT 15SM BKN016 OVC020 18/14 A2973 RMK SC5SC3 DENSITY ALT 2953FT SLP074=
202407021800 METAR CYOD 021800Z 26006KT 15SM BKN019 BKN030 19/15 A2976 RMK SC7SC1 DENSITY ALT 3061FT SLP084=
202407021900 METAR CYOD 021900Z 28008KT 15SM OVC020 18/14 A2976 RMK SC8 DENSITY ALT 2958FT SLP086=
202407022000 METAR CYOD 022000Z 26010KT 15SM OVC025 19/14 A2976 RMK SC8 DENSITY ALT 3029FT SLP085=
202407022100 METAR CYOD 022100Z 28010KT 15SM BKN027 20/14 A2975 RMK SC7 DENSITY ALT 3191FT SLP080=
202407022200 METAR CYOD 022200Z 27011KT 15SM BKN027 20/14 A2976 RMK SC7 DENSITY ALT 3249FT SLP083=
202407022300 METAR CYOD 022300Z CCA 23013KT 15SM SCT030 22/14 A2974 RMK CU4 DENSITY ALT 3456FT FRQ DIST LTGICCG N SLP073=
202407030000 METAR CYOD 030000Z 25012KT 15SM FEW035 22/14 A2975 RMK CU2 DENSITY ALT 3455FT SLP078=
202407030100 METAR CYOD 030100Z 25010KT 15SM FEW120 SCT250 21/14 A2976 RMK AC2CI2 DENSITY ALT 3362FT FRQ LTGCC 20NM NE SLP081=
202407030133 SPECI CYOD 030133Z 26008KT 15SM TS FEW050CB SCT120 SCT250 21/14 A2977 RMK CB1AC2CI1 DENSITY ALT 3310FT CB N MOVG S OCNL LTGCC SLP083=
202407030200 METAR CYOD 030200Z 30005KT 15SM TS SCT050CB BKN250 21/13 A2978 RMK CB4CI2 DENSITY ALT 3284FT CB NE MOVG SE FRQ LTGCCCG SLP086=
202407030232 SPECI CYOD 030232Z 06004KT 15SM BKN040 BKN100 19/12 A2978 RMK SC5AC1 DENSITY ALT 3036FT SLP089=
202407030300 METAR CYOD 030300Z 26005KT 15SM SCT040 BKN250 18/13 A2978 RMK SC4CI2 DENSITY ALT 2954FT SLP087=
202407030400 METAR CYOD 030400Z 26005KT 15SM BKN120 BKN250 17/13 A2979 RMK AC5CI1 DENSITY ALT 2843FT SLP092=
202407030500 METAR CYOD 030500Z 26008KT 15SM BKN120 16/13 A2980 RMK AC7 DENSITY ALT 2708FT SLP094=
202407030600 METAR CYOD 030600Z 27007KT 15SM BKN100 15/13 A2980 RMK AC7 DENSITY ALT 2558FT SLP095=
202407030700 METAR CYOD 030700Z 23005KT 15SM FEW140 SCT180 13/12 A2981 RMK AC1AC2 DENSITY ALT 2313FT SLP099=
202407030800 METAR CYOD 030800Z 24005KT 15SM FEW180 13/12 A2981 RMK AC2 DENSITY ALT 2206FT SLP101=
202407030900 METAR CYOD 030900Z 20002KT 15SM SCT140 12/11 A2982 RMK AC4 DENSITY ALT 2073FT SLP103=
202407031000 METAR CYOD 031000Z 22005KT 15SM SCT140 11/11 A2983 RMK AC4 DENSITY ALT 1980FT SLP105=
202407031100 METAR CYOD 031100Z 23007KT 15SM SCT140 11/11 A2984 RMK AC3 DENSITY ALT 1982FT SLP109=
202407031200 METAR CYOD 031200Z 25002KT 15SM SCT140 11/11 A2985 RMK AC3 DENSITY ALT 1956FT SLP113=
202407031300 METAR CYOD 031300Z 24004KT 15SM BKN160 13/12 A2986 RMK AC6 DENSITY ALT 2178FT SLP116=
202407031400 METAR CYOD 031400Z 25004KT 15SM BKN100 15/14 A2987 RMK AC6 DENSITY ALT 2470FT SLP118=
202407031500 METAR CYOD 031500Z 00000KT 15SM FEW080 BKN110 17/14 A2988 RMK AC2AC5 DENSITY ALT 2712FT SLP121=
202407031600 METAR CYOD 031600Z 25004KT 15SM SCT100 BKN160 18/15 A2988 RMK AC3AC4 DENSITY ALT 2882FT TCU EMBD SLP123=
202407031700 METAR CYOD 031700Z 31005KT 15SM FEW070 BKN160 20/15 A2990 RMK CU2AC5 DENSITY ALT 3111FT MDT CU ASOCTD SLP126=
202407031800 METAR CYOD 031800Z 33013KT 10SM SCT030 BKN100 21/15 A2991 RMK SC4AC3 DENSITY ALT 3114FT SLP132=
202407031830 SPECI CYOD 031830Z 34012KT 15SM TS SCT045CB BKN100 21/14 A2991 RMK CB4AC3 DENSITY ALT 3134FT CB SE MOV S OCNL LTGICCG SLP131=
202407031900 METAR CYOD 031900Z 34011KT 12SM TS SCT040CB BKN100 23/15 A2991 RMK CB3AC2 DENSITY ALT 3385FT CB S MOV S FRQ LTGICCG LTNG DTCTRS REP STRIKES 13 NM S SLP132=
202407031921 SPECI CYOD 031921Z 32010KT 12SM SCT040 BKN100 22/14 A2991 RMK SC4AC3 DENSITY ALT 3300FT CB SE MOV SE LTNG DTCTRS REP STRIKES 15 NM SE SLP131=
202407032000 METAR CYOD 032000Z 32010KT 12SM SCT050 BKN110 22/15 A2992 RMK SC4AC2 DENSITY ALT 3246FT CB SE MOV S CB E MOV S FRQ LTGICCG LTNG DTCTRS REP STRIKES 15 NM E FRQ LTGICCG DTCTRS REP STRIKES 20 NM S MDT CU EMBD SLP136=
202407032031 SPECI CYOD 032031Z 33011KT 12SM SCT040CB BKN100 23/14 A2992 RMK CB3AC3 DENSITY ALT 3333FT CB N MOV S FRQ LTGCCCG LTNG DTCTRS REP STRIKES 7 NM N AND S SLP135=
202407032100 METAR CYOD 032100Z 26008KT 15SM SCT040 BKN100 24/14 A2993 RMK SC4AC2 DENSITY ALT 3460FT FRQ LTGICCG LTNG DTCTRS REP STRIKES 15 NM N AND S SLP138=
202407032137 SPECI CYOD 032137Z 02011KT 12SM TS SCT040CB BKN100 24/14 A2992 RMK CB4AC2 DENSITY ALT 3459FT CB NW MOV S FRQ LTGICCG LTNG DTCTRS REP STRIKES 8 NM NW SLP137=
202407032200 METAR CYOD 032200Z 34007KT 12SM TS BKN040CB 23/14 A2993 RMK CB6 DENSITY ALT 3348FT CB OHD MOV S FRQ LTGICCG LTNG DTCTRS REP STRIKES 6 NM N SLP139=
202407032234 SPECI CYOD 032234Z CCA 32012KT 12SM -TSRA BKN040CB 19/15 A2993 RMK CB7 DENSITY ALT 3617FT CB OHD MOV S OCNL LTGICCCCG E SLP140=
202407032300 METAR CYOD 032300Z 00000KT 12SM TS BKN040CB 17/15 A2994 RMK CB6 DENSITY ALT 2694FT CB E MOV S OCNL LTGICCC E SLP146=
202407032305 SPECI CYOD 032305Z 00000KT 12SM BKN040CB 18/15 A2994 RMK CB6 DENSITY ALT 2694FT CB E MOV S SLP146=
202407032342 SPECI CYOD 032342Z 30007KT 15SM TS BKN050CB 20/15 A2993 RMK CB6 DENSITY ALT 3057FT CB NE MOV S OCNL LTGICCG LTNG DTCTRS REP STRIKES 10 NM NE SLP142=
202407040000 METAR CYOD 040000Z 31009KT 12SM BKN050CB 20/15 A2993 RMK CB6 DENSITY ALT 2964FT CB NE MOV S OCNL LTGICCG LTNG DTCTRS REP STRIKES 20 NM NW SLP143=
202407040050 SPECI CYOD 040050Z 30004KT 12SM -SHRA SCT050CB BKN100 19/14 A2995 RMK CB3AC3 DENSITY ALT 2881FT CB W MOV S OCNL LTGCCCG 15NM W SLP149=
202407040100 METAR CYOD 040100Z 29005KT 12SM -SHRA FEW050CB BKN100 20/15 A2995 RMK CB2AC4 DENSITY ALT 2946FT CB W MOV S OCNL LTGCCCG 15NM W SLP146=
202407040200 METAR CYOD 040200Z 27007KT 12SM FEW060 BKN100 19/14 A2996 RMK SC2AC4 DENSITY ALT 2846FT OCNL LTGCCCG 25NM SW SLP149=
202407040300 METAR CYOD 040300Z 24004KT 10SM FEW070 BKN090 19/15 A2998 RMK AC2AC4 DENSITY ALT 2859FT FU ALF SLP155=
202407040400 METAR CYOD 040400Z 26008KT 12SM SCT090 17/13 A2998 RMK AC4 DENSITY ALT 2611FT FU ALF SLP157=
202407040500 METAR CYOD 040500Z 26008KT 12SM SCT070 16/14 A3000 RMK AC3 DENSITY ALT 2461FT FU ALF SLP163=
202407040600 METAR CYOD 040600Z 25004KT 15SM SCT070 15/14 A3001 RMK AC3 DENSITY ALT 2288FT SLP166=
202407040700 METAR CYOD 040700Z 24002KT 15SM FEW070 14/13 A3002 RMK AC2 DENSITY ALT 2170FT SLP167=
202407040800 METAR CYOD 040800Z 25005KT 12SM FEW070 13/13 A3002 RMK AC2 DENSITY ALT 2062FT SLP168=
202407040900 METAR CYOD 040900Z 24004KT 12SM BKN100 13/13 A3002 RMK AC6 DENSITY ALT 2076FT SLP170=
202407041000 METAR CYOD 041000Z 23004KT 10SM BKN110 13/13 A3003 RMK AC7 DENSITY ALT 2064FT SLP172=
202407041100 METAR CYOD 041100Z 23003KT 10SM BKN080 BKN120 13/13 A3003 RMK AC5AC2 DENSITY ALT 2037FT SLP178=
202407041200 METAR CYOD 041200Z 23005KT 12SM SCT080 BKN120 13/13 A3004 RMK AC4AC1 DENSITY ALT 2053FT SLP179=
202407041300 METAR CYOD 041300Z 25004KT 10SM BKN100 14/13 A3007 RMK AC6 DENSITY ALT 2112FT SLP188=
202407041400 METAR CYOD 041400Z 25004KT 7SM BKN100 15/15 A3006 RMK AC7 DENSITY ALT 2301FT SLP185=
202407041500 METAR CYOD 041500Z 23005KT 8SM BKN100 17/15 A3006 RMK AC6 DENSITY ALT 2557FT SLP184=
202407041600 METAR CYOD 041600Z 29006KT 7SM BKN100 19/15 A3007 RMK AC5 DENSITY ALT 2751FT SLP186=
202407041700 METAR CYOD 041700Z 26006KT 7SM SCT100 21/15 A3006 RMK AC3 DENSITY ALT 2998FT SLP184=
202407041800 METAR CYOD 041800Z 24009KT 8SM FEW030 FEW100 23/15 A3006 RMK CU1AC1 DENSITY ALT 3222FT SLP182=
202407041900 METAR CYOD 041900Z 31010KT 8SM FEW050 SCT100 23/14 A3006 RMK CU2AC1 DENSITY ALT 3247FT OCNL LTGCC 25 NM N SLP180=
202407041936 SPECI CYOD 041936Z 25012KT 10SM TS FEW060CB SCT100 24/14 A3005 RMK CB2AC1 DENSITY ALT 3374FT CB N MOV S OCNL LTGCCCG SLP177=
202407042000 METAR CYOD 042000Z 27011KT 10SM TS FEW060CB SCT100 25/14 A3005 RMK CB2AC1 DENSITY ALT 3414FT CB N MOV S OCNL LTGCCCG SLP177=
202407042009 SPECI CYOD 042009Z 27011KT 10SM FEW060TCU SCT100 24/14 A3004 RMK TCU2AC1 DENSITY ALT 3414FT OCNL LTGCCCG 20 NM N SLP176=
202407042100 METAR CYOD 042100Z 28011KT 10SM SCT060TCU 24/13 A3003 RMK TCU3 DENSITY ALT 3378FT OCNL LTGCCCG 25 NM N SLP173=
202407042200 METAR CYOD 042200Z CCA 24011KT 15SM SCT060TCU 25/13 A3003 RMK TCU3 DENSITY ALT 3524FT OCNL LTGCCCG 20 NM N SLP171=
202407042211 SPECI CYOD 042211Z 25012KT 15SM TS SCT060CB 26/13 A3003 RMK CB3 DENSITY ALT 3542FT CB N MOV SE OCNL LTGCCCG SLP171=
202407042300 METAR CYOD 042300Z 04007KT 15SM TS SCT060CB 22/14 A3003 RMK CB4 DENSITY ALT 3162FT CB E MOV E OCNL LTGCCCG SLP173=
202407042320 SPECI CYOD 042320Z 02008KT 10SM SCT060TCU SCT100 23/13 A3002 RMK TCU3AC1 DENSITY ALT 3223FT OCNL DIST LTNG N SLP171=
202407050000 METAR CYOD 050000Z 06002KT 15SM FEW060 SCT100 23/14 A3002 RMK CU2AC2 DENSITY ALT 3314FT OCNL LTGCCCG 30 NM N SLP168=
202407050100 METAR CYOD 050100Z 30010KT 15SM FEW055 SCT100 BKN210 24/12 A3001 RMK CU2AC2CI2 DENSITY ALT 3414FT TCU EMBD SLP163=
202407050200 METAR CYOD 050200Z 27009KT 15SM FEW055 SCT100 BKN210 23/13 A3000 RMK CU2AC1CI2 DENSITY ALT 3297FT SLP160=
202407050300 METAR CYOD 050300Z 24006KT 15SM FEW055 FEW100 SCT210 21/14 A3001 RMK CU1AC1CI1 DENSITY ALT 3075FT SLP164=
202407050400 METAR CYOD 050400Z 24005KT 10SM FEW100 FEW210 19/13 A3002 RMK AC1CI1 DENSITY ALT 2800FT SLP166=
202407050500 METAR CYOD 050500Z 23005KT 8SM FEW220 18/13 A3002 RMK CI2 DENSITY ALT 2586FT SLP166=
202407050600 METAR CYOD 050600Z 23006KT 8SM FEW070 FEW220 15/13 A3002 RMK AC1CI2 DENSITY ALT 2322FT SLP168=
202407050700 METAR CYOD 050700Z 25006KT 10SM FEW070 FEW220 15/12 A3002 RMK AC1CI1 DENSITY ALT 2305FT SLP167=
202407050800 METAR CYOD 050800Z 25004KT 10SM FEW070 FEW220 14/12 A3002 RMK AC1CI1 DENSITY ALT 2100FT SLP166=
202407050900 METAR CYOD 050900Z 24008KT 10SM FEW070 FEW220 13/12 A3001 RMK AC1CI1 DENSITY ALT 2035FT SLP165=
202407051000 METAR CYOD 051000Z 24004KT 10SM FEW230 13/11 A3000 RMK CI1 DENSITY ALT 1966FT SLP162=
202407051100 METAR CYOD 051100Z 24006KT 12SM FEW230 12/11 A3000 RMK CI1 DENSITY ALT 1955FT SLP163=
202407051200 METAR CYOD 051200Z 24004KT 15SM FEW230 13/12 A3000 RMK CI1 DENSITY ALT 1994FT SLP161=
202407051300 METAR CYOD 051300Z 24006KT 15SM SKC 15/12 A2999 RMK DENSITY ALT 2254FT SLP157=
202407051400 METAR CYOD 051400Z 26008KT 15SM SKC 17/12 A2999 RMK DENSITY ALT 2576FT SLP155=
202407051500 METAR CYOD 051500Z 26008KT 15SM SKC 19/12 A2998 RMK DENSITY ALT 2855FT SLP153=
202407051600 METAR CYOD 051600Z 28008KT 15SM SKC 22/12 A2997 RMK DENSITY ALT 3118FT SLP149=
202407051700 METAR CYOD 051700Z 29012KT 15SM SKC 23/11 A2996 RMK DENSITY ALT 3328FT SLP145=
202407051800 METAR CYOD 051800Z 27014KT 15SM SKC 24/10 A2995 RMK DENSITY ALT 3459FT SLP143=
202407051900 METAR CYOD 051900Z 27012KT 15SM SKC 25/10 A2994 RMK DENSITY ALT 3563FT SLP138=
202407052000 METAR CYOD 052000Z 28009KT 15SM FEW050 26/12 A2992 RMK CF1 DENSITY ALT 3723FT CF TR SLP132=
202407052100 METAR CYOD 052100Z 26011KT 15SM FEW050 26/11 A2991 RMK CF1 DENSITY ALT 3733FT OCNL DIST LTNG N CF TR SLP128=
202407052200 METAR CYOD 052200Z 26008KT 15SM FEW050 27/09 A2989 RMK CF1 DENSITY ALT 3789FT OCNL DIST LTNG N NE CF TR SLP123=
202407052300 METAR CYOD 052300Z 25013KT 15SM FEW050 26/10 A2988 RMK CF1 DENSITY ALT 3773FT OCNL DIST LTNG N NE CF TR SLP118=
202407060000 METAR CYOD 060000Z 26011KT 15SM FEW050 26/10 A2986 RMK CF1 DENSITY ALT 3784FT CF TR SLP113=
202407060100 METAR CYOD 060100Z 25007KT 15SM FEW250 26/10 A2986 RMK CI1 DENSITY ALT 3710FT SLP111=
202407060200 METAR CYOD 060200Z 26007KT 15SM FEW250 24/10 A2984 RMK CI2 DENSITY ALT 3594FT SLP105=
202407060300 METAR CYOD 060300Z 24005KT 15SM SCT250 22/11 A2984 RMK CI3 DENSITY ALT 3334FT SLP103=
202407060400 METAR CYOD 060400Z 22005KT 15SM FEW250 19/12 A2986 RMK CI2 DENSITY ALT 2928FT SLP111=
202407060500 METAR CYOD 060500Z 22005KT 15SM FEW120 FEW250 15/12 A2986 RMK AC1CI2 DENSITY ALT 2471FT SLP111=
202407060600 METAR CYOD 060600Z 23006KT 15SM FEW120 FEW250 16/12 A2986 RMK AC1CI1 DENSITY ALT 2547FT SLP111=
202407060700 METAR CYOD 060700Z 24005KT 15SM FEW120 FEW250 15/11 A2986 RMK AC1CI1 DENSITY ALT 2442FT SLP110=
202407060800 METAR CYOD 060800Z 24006KT 15SM FEW100 SCT250 14/11 A2986 RMK AC2CI2 DENSITY ALT 2340FT SLP110=
202407060900 METAR CYOD 060900Z 26002KT 15SM FEW100 SCT250 13/10 A2986 RMK AC1CI2 DENSITY ALT 2118FT SLP111=
202407061000 METAR CYOD 061000Z 24003KT 12SM SCT220 12/10 A2985 RMK CI3 DENSITY ALT 2026FT SLP110=
202407061100 METAR CYOD 061100Z 24002KT 15SM FEW220 11/10 A2985 RMK CI2 DENSITY ALT 1981FT SLP111=
202407061200 METAR CYOD 061200Z 23003KT 15SM FEW220 11/09 A2985 RMK CI1 DENSITY ALT 1979FT SLP111=
202407061300 METAR CYOD 061300Z 23005KT 15SM FEW250 14/10 A2986 RMK CI1 DENSITY ALT 2301FT CI TR SLP111=
202407061400 METAR CYOD 061400Z 26006KT 15SM FEW250 17/11 A2986 RMK CI1 DENSITY ALT 2722FT CI TR SLP109=
202407061500 METAR CYOD 061500Z 26004KT 15SM FEW250 20/12 A2985 RMK CI2 DENSITY ALT 3050FT SLP107=
202407061600 METAR CYOD 061600Z 26007KT 15SM SCT200 22/13 A2985 RMK CI4 DENSITY ALT 3269FT SLP108=
202407061700 METAR CYOD 061700Z 30007KT 15SM BKN200 23/13 A2985 RMK CI5 DENSITY ALT 3397FT SLP111=
202407061800 METAR CYOD 061800Z 27008KT 15SM BKN200 25/12 A2985 RMK CI5 DENSITY ALT 3633FT SLP109=
202407061900 METAR CYOD 061900Z 32009KT 15SM FEW050 BKN200 26/13 A2985 RMK CF1CI5 DENSITY ALT 3770FT OCNL LTGCCCG 30 NM N E CF TR SLP108=
202407061928 SPECI CYOD 061928Z 30008KT 15SM TS FEW050CB BKN200 25/13 A2985 RMK CB1CI5 DENSITY ALT 3696FT CB N MOV S OCNL LTGCCCG SLP107=
202407062000 METAR CYOD 062000Z 30011KT 15SM TS SCT050CB BKN200 26/13 A2985 RMK CB3CI3 DENSITY ALT 3838FT CB E MOV SE OCNL LTGCCCG SLP108=
202407062100 METAR CYOD 062100Z 32009KT 15SM TS SCT050CB BKN100 BKN200 18/13 A2989 RMK CB3AC3CI1 DENSITY ALT 2844FT CB SE MOV SE OCNL LTGCCCG SLP128=
202407062119 SPECI CYOD 062119Z 35008KT 15SM FEW050CB BKN100 BKN200 20/12 A2989 RMK CB1AC4CI2 DENSITY ALT 3083FT OCNL LTGCCCG 15 NM SE SLP127=
202407062200 METAR CYOD 062200Z 27006KT 15SM FEW050 BKN100 BKN200 23/13 A2989 RMK CU1AC4CI2 DENSITY ALT 3365FT OCNL LTGCCCG 15 NM N CVCTV CLD EMBD SLP125=
202407062300 METAR CYOD 062300Z CCA 29008KT 15SM FEW050TCU BKN100 BKN200 23/13 A2990 RMK TCU1AC5CI1 DENSITY ALT 3376FT OCNL LTGCC 12 NM N SLP128=
202407070000 METAR CYOD 070000Z CCA 07003KT 10SM FEW050TCU OVC100 21/12 A2991 RMK TCU1AC7 DENSITY ALT 3157FT SLP135=
202407070100 METAR CYOD 070100Z 32010KT 5SM FU FEW080 BKN100 OVC120 22/11 A2992 RMK AC2AC4AC2 DENSITY ALT 3259FT SLP135=
202407070200 METAR CYOD 070200Z 32007KT 5SM FU BKN085 OVC110 21/11 A2993 RMK AC6AC2 DENSITY ALT 3081FT SLP138=
202407070228 SPECI CYOD 070228Z 32007KT 3SM FU BKN090 OVC110 21/11 A2994 RMK AC6AC2 DENSITY ALT 3066FT SLP139=
202407070300 METAR CYOD 070300Z 30005KT 3SM FU BKN095 19/12 A2994 RMK FU2AC5 DENSITY ALT 2895FT SLP141=
202407070400 METAR CYOD 070400Z 29006KT 3SM FU SCT095 BKN250 17/11 A2996 RMK FU2AC2CI1 DENSITY ALT 2594FT SLP145=
202407070500 METAR CYOD 070500Z 31007KT 3SM FU SCT070 15/11 A2997 RMK FU3AC1 DENSITY ALT 2352FT SLP150=
202407070600 METAR CYOD 070600Z 31006KT 3SM FU SCT075 SCT250 14/11 A2998 RMK FU2AC2CI1 DENSITY ALT 2146FT SLP153=
202407070700 METAR CYOD 070700Z 00000KT 4SM FU FEW080 SCT120 SCT250 13/11 A2999 RMK AC1AC2CI1 DENSITY ALT 2042FT SLP158=
202407070800 METAR CYOD 070800Z 00000KT 3SM FU BKN120 13/11 A3000 RMK FU2AC3 DENSITY ALT 1972FT SLP161=
202407070900 METAR CYOD 070900Z 30002KT 3SM FU BKN100 11/10 A3000 RMK FU3AC2 DENSITY ALT 1749FT SLP166=
202407071000 METAR CYOD 071000Z 23003KT 3SM FU SCT100 10/10 A3000 RMK FU2AC2 DENSITY ALT 1644FT SLP165=
202407071100 METAR CYOD 071100Z CCA 23002KT 3SM MIFG FU SCT100 BKN250 10/10 A3001 RMK FU3AC1CI1 DENSITY ALT 1645FT SLP167=
202407071200 METAR CYOD 071200Z 00000KT 3SM MIFG FU SCT250 10/09 A3002 RMK FU2CI2 DENSITY ALT 1592FT SLP173=
202407071300 METAR CYOD 071300Z 24002KT 3SM FU FEW250 12/11 A3003 RMK FU1CI1 DENSITY ALT 1852FT SLP175=
202407071400 METAR CYOD 071400Z 22003KT 2 1/2SM FU SKC 14/12 A3004 RMK FU2 DENSITY ALT 2170FT SLP177=
202407071500 METAR CYOD 071500Z 00000KT 2 1/2SM FU SKC 17/13 A3003 RMK FU2 DENSITY ALT 2533FT SLP173=
202407071600 METAR CYOD 071600Z 19003KT 2 1/2SM FU SKC 20/13 A3003 RMK FU2 DENSITY ALT 2932FT SLP171=
202407071700 METAR CYOD 071700Z 25004KT 3SM FU SKC 22/13 A3002 RMK FU2 DENSITY ALT 3147FT SLP169=
202407071800 METAR CYOD 071800Z 25003KT 3SM FU FEW040 23/13 A3002 RMK FU2CF1 DENSITY ALT 3292FT CF TR SLP169=
202407071900 METAR CYOD 071900Z 29005KT 3SM FU FEW040 24/12 A3001 RMK FU2CF1 DENSITY ALT 3406FT CF TR SLP164=
202407072000 METAR CYOD 072000Z CCA 24008KT 4SM FU FEW040 25/12 A2999 RMK FU1CF1 DENSITY ALT 3547FT CF TR SLP159=
202407072100 METAR CYOD 072100Z 01003KT 6SM FU FEW040 25/10 A2998 RMK CF1 DENSITY ALT 3513FT CF TR SLP156=
202407072200 METAR CYOD 072200Z 24004KT 7SM FEW060 26/11 A2997 RMK CU1 DENSITY ALT 3605FT SLP152=
202407072300 METAR CYOD 072300Z 21008KT 7SM FEW060 25/12 A2995 RMK CU1 DENSITY ALT 3559FT SLP147=
202407080000 METAR CYOD 080000Z 18007KT 7SM FEW060 25/12 A2994 RMK CU1 DENSITY ALT 3617FT SLP142=
202407080100 METAR CYOD 080100Z 17007KT 7SM FEW065 FEW250 25/13 A2993 RMK SC2CI1 DENSITY ALT 3596FT SLP138=
202407080200 METAR CYOD 080200Z 18004KT 7SM FEW070 SCT250 24/14 A2993 RMK AC2CI1 DENSITY ALT 3436FT SLP136=
202407080300 METAR CYOD 080300Z 17004KT 7SM FEW080 21/13 A2992 RMK AC2 DENSITY ALT 3109FT SLP134=
202407080400 METAR CYOD 080400Z 18004KT 6SM FU FEW180 19/13 A2992 RMK AC1 DENSITY ALT 2922FT SLP132=
202407080500 METAR CYOD 080500Z 17005KT 5SM FU FEW180 17/13 A2992 RMK AC1 DENSITY ALT 2640FT SLP132=
202407080600 METAR CYOD 080600Z 17004KT 5SM FU SKC 16/13 A2991 RMK DENSITY ALT 2516FT SLP130=
202407080700 METAR CYOD 080700Z 18004KT 5SM FU SKC 15/13 A2991 RMK DENSITY ALT 2363FT SLP130=
202407080800 METAR CYOD 080800Z 14003KT 5SM FU SKC 14/13 A2991 RMK DENSITY ALT 2324FT SLP130=
202407080900 METAR CYOD 080900Z 16002KT 5SM FU SKC 13/12 A2990 RMK DENSITY ALT 2195FT SLP127=
202407081000 METAR CYOD 081000Z 16003KT 6SM FU FEW110 13/12 A2990 RMK AC2 DENSITY ALT 2168FT SLP125=
202407081100 METAR CYOD 081100Z 12002KT 5SM FU BKN110 14/12 A2990 RMK AC5 DENSITY ALT 2295FT SLP125=
202407081200 METAR CYOD 081200Z 16002KT 4SM FU SCT110 SCT250 13/12 A2988 RMK AC3CI1 DENSITY ALT 2174FT SLP121=
202407081300 METAR CYOD 081300Z 00000KT 6SM FU FEW090 16/14 A2988 RMK AC1 DENSITY ALT 2561FT SLP118=
202407081400 METAR CYOD 081400Z 00000KT 6SM FU FEW090 19/14 A2988 RMK AC2 DENSITY ALT 2927FT SLP118=
202407081500 METAR CYOD 081500Z 17004KT 6SM FU FEW090 21/16 A2987 RMK AC2 DENSITY ALT 3276FT SLP114=
202407081600 METAR CYOD 081600Z 16003KT 6SM FU SCT090 24/16 A2987 RMK AC3 DENSITY ALT 3535FT SLP112=
202407081700 METAR CYOD 081700Z 00000KT 8SM FEW090 26/17 A2986 RMK AC1 DENSITY ALT 3799FT FU SLP109=
202407081800 METAR CYOD 081800Z 26005KT 10SM FEW090 FEW250 27/17 A2985 RMK AC1CI1 DENSITY ALT 4027FT FU SLP107=
202407081900 METAR CYOD 081900Z 27007KT 12SM FEW100 FEW250 28/16 A2985 RMK AC1CI1 DENSITY ALT 4127FT SLP106=
202407082000 METAR CYOD 082000Z 27004KT 12SM FEW100 BKN250 31/15 A2985 RMK AC1CI4 DENSITY ALT 4361FT MDT CU EMBD SLP104=
202407082100 METAR CYOD 082100Z 27007KT 15SM FEW100TCU BKN250 31/14 A2984 RMK TCU2CI3 DENSITY ALT 4443FT MDT TCU S SLP102=
202407082200 METAR CYOD 082200Z 27009KT 15SM FEW080CB 32/13 A2983 RMK CB2 DENSITY ALT 4520FT CB SE MOV SE SLP099=
202407082300 METAR CYOD 082300Z 00000KT 15SM FEW080CB SCT250 32/10 A2983 RMK CB2CI1 DENSITY ALT 4494FT CB SE MOV SE OCNL LTGCC LTNG DTCTRS REP STRIKES 25 NM NW SLP096=
202407090000 METAR CYOD 090000Z 31017KT 15SM -SHRA BKN080 29/12 A2983 RMK AC6 DENSITY ALT 4181FT PCPN VRY LGT SLP101=
202407090008 SPECI CYOD 090008Z 30007KT 15SM BKN080 28/10 A2984 RMK AC6 DENSITY ALT 4068FT SLP103=
202407090100 METAR CYOD 090100Z 30007KT 15SM SCT150 30/12 A2984 RMK AC3 DENSITY ALT 4262FT FRQ DIST LTNG E SLP100=
202407090200 METAR CYOD 090200Z 31005KT 15SM SCT090 SCT150 27/15 A2985 RMK AC3AC1 DENSITY ALT 4005FT SLP105=
202407090300 METAR CYOD 090300Z 31004KT 15SM SCT140 26/16 A2986 RMK AC3 DENSITY ALT 3870FT SLP107=
202407090400 METAR CYOD 090400Z 34006KT 15SM FEW140 22/16 A2989 RMK AC2 DENSITY ALT 3329FT SLP119=
202407090500 METAR CYOD 090500Z 05002KT 15SM SKC 21/16 A2991 RMK DENSITY ALT 3168FT SLP124=
202407090600 METAR CYOD 090600Z 32002KT 15SM SKC 18/15 A2993 RMK DENSITY ALT 2735FT SLP132=
202407090700 METAR CYOD 090700Z 32003KT 15SM SKC 16/15 A2994 RMK DENSITY ALT 2569FT SLP135=
202407090800 METAR CYOD 090800Z 00000KT 15SM BKN130 17/15 A2994 RMK AC7 DENSITY ALT 2642FT SLP134=
202407090900 METAR CYOD 090900Z 07002KT 15SM SCT120 16/15 A2994 RMK AC3 DENSITY ALT 2556FT SLP134=
202407091000 METAR CYOD 091000Z 00000KT 15SM BKN100 15/14 A2994 RMK AC6 DENSITY ALT 2361FT SLP136=
202407091100 METAR CYOD 091100Z 00000KT 15SM SCT090 15/14 A2996 RMK AC3 DENSITY ALT 2415FT SLP140=
202407091200 METAR CYOD 091200Z 00000KT 15SM MIFG FEW090 14/14 A2997 RMK AC2 DENSITY ALT 2254FT SLP149=
202407091300 METAR CYOD 091300Z 00000KT 15SM MIFG SCT090 16/15 A2998 RMK AC4 DENSITY ALT 2526FT SLP148=
202407091400 METAR CYOD 091400Z 00000KT 15SM SCT090 20/16 A2999 RMK AC3 DENSITY ALT 2983FT SLP151=
202407091500 METAR CYOD 091500Z 14003KT 12SM SKC 23/16 A2999 RMK DENSITY ALT 3310FT FU SLP151=
202407091600 METAR CYOD 091600Z 14003KT 12SM SKC 25/15 A2999 RMK DENSITY ALT 3610FT FU SLP150=
202407091700 METAR CYOD 091700Z 21005KT 12SM FEW250 27/17 A2998 RMK CI1 DENSITY ALT 3866FT FU SLP148=
202407091800 METAR CYOD 091800Z 20006KT 12SM FEW250 29/18 A2997 RMK CI1 DENSITY ALT 4110FT FU SLP146=
202407091900 METAR CYOD 091900Z 23007KT 15SM FEW080 31/15 A2997 RMK CU1 DENSITY ALT 4282FT SLP143=
202407092200 METAR CYOD 092200Z 27010KT 15SM FEW080 33/11 A2993 RMK CU1 DENSITY ALT 4554FT SLP131=
202407092300 METAR CYOD 092300Z 24007KT 15SM FEW080 33/11 A2992 RMK CU1 DENSITY ALT 4569FT SLP127=
202407100000 METAR CYOD 100000Z 25003KT 15SM FEW080 33/11 A2991 RMK CU1 DENSITY ALT 4547FT SLP123=
202407100100 METAR CYOD 100100Z 22004KT 15SM FEW080 33/13 A2989 RMK CU1 DENSITY ALT 4549FT SLP117=
202407100200 METAR CYOD 100200Z 19003KT 15SM SKC 31/17 A2989 RMK DENSITY ALT 4416FT SLP113=
202407100300 METAR CYOD 100300Z 16004KT 15SM SKC 29/15 A2989 RMK DENSITY ALT 4113FT SLP113=
202407100400 METAR CYOD 100400Z 17005KT 15SM SKC 25/16 A2989 RMK DENSITY ALT 3658FT SLP114=
202407100500 METAR CYOD 100500Z 18006KT 15SM FEW120 23/15 A2990 RMK AC1 DENSITY ALT 3385FT SLP117=
202407100600 METAR CYOD 100600Z 20005KT 15SM FEW120 23/15 A2990 RMK AC1 DENSITY ALT 3388FT SLP117=
202407100700 METAR CYOD 100700Z 20005KT 15SM SKC 21/16 A2990 RMK DENSITY ALT 3236FT SLP118=
202407100800 METAR CYOD 100800Z 19005KT 15SM SKC 21/15 A2990 RMK DENSITY ALT 3184FT SLP115=
202407100900 METAR CYOD 100900Z 20007KT 15SM SKC 21/15 A2989 RMK DENSITY ALT 3168FT SLP111=
202407101000 METAR CYOD 101000Z 20006KT 15SM SKC 20/14 A2988 RMK DENSITY ALT 3094FT SLP109=
202407101100 METAR CYOD 101100Z 19004KT 15SM SKC 20/14 A2988 RMK DENSITY ALT 3042FT SLP110=
202407101200 METAR CYOD 101200Z 20005KT 15SM SKC 20/14 A2988 RMK DENSITY ALT 3016FT SLP110=
202407101300 METAR CYOD 101300Z 00000KT 12SM SKC 21/14 A2987 RMK DENSITY ALT 3253FT FU SLP105=
202407101400 METAR CYOD 101400Z 17006KT 15SM FEW100 24/14 A2986 RMK AC1 DENSITY ALT 3573FT SLP100=
202407101500 METAR CYOD 101500Z 17006KT 15SM FEW100 26/14 A2985 RMK AC1 DENSITY ALT 3826FT SLP097=
202407101600 METAR CYOD 101600Z 19006KT 12SM SKC 28/14 A2984 RMK DENSITY ALT 4080FT SLP095=
202407101700 METAR CYOD 101700Z 17011KT 12SM SKC 30/12 A2982 RMK DENSITY ALT 4329FT SLP090=
202407101800 METAR CYOD 101800Z 17011KT 12SM SKC 31/15 A2982 RMK DENSITY ALT 4486FT SLP087=
202407101900 METAR CYOD 101900Z 18012KT 15SM FEW120 32/15 A2979 RMK AC1 DENSITY ALT 4657FT SLP079=
202407102000 METAR CYOD 102000Z 19016KT 15SM FEW100 33/15 A2978 RMK AC1 DENSITY ALT 4762FT SLP073=
202407102100 METAR CYOD 102100Z 20014KT 15SM FEW100 34/15 A2976 RMK AC1 DENSITY ALT 4873FT SLP067=
202407102200 METAR CYOD 102200Z 18014KT 15SM FEW100 34/16 A2974 RMK ACC1 DENSITY ALT 4925FT SLP060=
202407102300 METAR CYOD 102300Z 17014KT 15SM FEW100 34/16 A2973 RMK AC1 DENSITY ALT 4959FT SLP057=
202407110000 METAR CYOD 110000Z 18013KT 15SM SCT100 34/16 A2973 RMK AC3 DENSITY ALT 4912FT SLP056=
202407110100 METAR CYOD 110100Z 15008KT 15SM FEW100 SCT250 33/18 A2971 RMK AC1CI2 DENSITY ALT 4832FT SLP049=
202407110200 METAR CYOD 110200Z 12005KT 15SM FEW250 32/19 A2969 RMK CI1 DENSITY ALT 4734FT SLP044=
202407110300 METAR CYOD 110300Z 15004KT 15SM FEW250 29/21 A2970 RMK CI1 DENSITY ALT 4426FT SLP047=
202407110400 METAR CYOD 110400Z 13007KT 15SM SKC 27/20 A2969 RMK DENSITY ALT 4192FT SLP043=
202407110500 METAR CYOD 110500Z 12006KT 15SM SKC 25/20 A2970 RMK DENSITY ALT 3971FT SLP045=
202407110600 METAR CYOD 110600Z 16007KT 15SM SKC 22/20 A2970 RMK DENSITY ALT 3661FT SLP047=
202407110700 METAR CYOD NIL=
202407110800 METAR CYOD NIL=
202407110900 METAR CYOD NIL=
202407111000 METAR CYOD NIL=
202407111100 METAR CYOD NIL=
202407111200 METAR CYOD NIL=
202407111300 METAR CYOD NIL=
202407111400 METAR CYOD NIL=
202407111500 METAR CYOD NIL=
202407111600 METAR CYOD NIL=
202407111700 METAR CYOD NIL=
202407111800 METAR CYOD NIL=
202407111900 METAR CYOD 111900Z 15007KT 10SM FEW120 BKN250 30/17 A2981 RMK ACC2CI3 DENSITY ALT 4362FT FU SLP085=
202407112000 METAR CYOD 112000Z 09009KT 10SM FEW120 SCT250 32/14 A2979 RMK AC2CI1 DENSITY ALT 4539FT FU SLP081=
202407112100 METAR CYOD 112100Z CCA 09007KT 10SM SCT090 32/13 A2978 RMK AC3 DENSITY ALT 4600FT FU SLP079=
202407112200 METAR CYOD 112200Z 07005KT 10SM BKN120 32/13 A2979 RMK AC6 DENSITY ALT 4550FT FU SLP083=
202407112300 METAR CYOD 112300Z 00000KT 12SM SCT150 32/14 A2979 RMK ACC3 DENSITY ALT 4578FT SLP080=
202407120000 METAR CYOD 120000Z 30011KT 15SM BKN150 32/12 A2979 RMK ACC6 DENSITY ALT 4570FT SLP081=
202407120100 METAR CYOD 120100Z 30015KT 15SM BKN090 30/11 A2979 RMK ACC6 DENSITY ALT 4268FT OCNL LTGCCCG 20NM N QUAD SLP080=
202407120107 SPECI CYOD 120107Z 30012KT 15SM TS FEW060CB BKN090 30/12 A2980 RMK CB2AC4 DENSITY ALT 4273FT CB E MOV E FRQ LTGCCCG SLP081=
202407120145 SPECI CYOD 120145Z 32013KT 15SM SCT090 BKN120 28/09 A2982 RMK AC4AC3 DENSITY ALT 3989FT TCU ASOCTD FRQ LTGCCCG 25 NM E SLP089=
202407120200 METAR CYOD 120200Z 32011KT 15SM FEW090 BKN120 27/10 A2982 RMK ACC2AC3 DENSITY ALT 3929FT FRQ LTGCCCG 25 NM E SLP091=
202407120300 METAR CYOD 120300Z 31005KT 15SM FEW100 BKN250 25/11 A2983 RMK ACC2CI3 DENSITY ALT 3661FT FRQ LTGCCCG 30 NM E QUAD SLP091=
202407120400 METAR CYOD 120400Z 31008KT 15SM FEW100 BKN250 22/09 A2984 RMK ACC2CI3 DENSITY ALT 3309FT CONS DIST LTNG E QUAD SLP100=
202407120500 METAR CYOD 120500Z 31008KT 15SM FEW150 BKN250 22/04 A2988 RMK AC2CI3 DENSITY ALT 3171FT CONS DIST LTNG E QUAD SLP111=
202407120600 METAR CYOD 120600Z 31007KT 15SM FEW150 SCT250 19/03 A2990 RMK AC2CI2 DENSITY ALT 2824FT SLP120=
202407120700 METAR CYOD 120700Z 30005KT 15SM FEW150 SCT250 18/03 A2994 RMK AC2CI1 DENSITY ALT 2627FT SLP134=
202407120800 METAR CYOD 120800Z 31003KT 15SM BKN140 16/03 A2995 RMK AC5 DENSITY ALT 2410FT SLP138=
202407120900 METAR CYOD 120900Z 25005KT 15SM FEW090 BKN140 15/04 A2998 RMK AC2AC4 DENSITY ALT 2285FT SLP147=
202407121000 METAR CYOD 121000Z 31005KT 15SM BKN090 BKN140 16/06 A2996 RMK AC5AC2 DENSITY ALT 2331FT SLP142=
202407121100 METAR CYOD 121100Z 30007KT 15SM SCT100 BKN130 14/05 A2995 RMK AC3AC2 DENSITY ALT 2176FT SLP139=
202407121200 METAR CYOD 121200Z 31006KT 15SM SCT120 13/06 A2997 RMK AC3 DENSITY ALT 2035FT SLP144=
202407121300 METAR CYOD 121300Z 27006KT 15SM SCT120 16/06 A2998 RMK AC3 DENSITY ALT 2363FT SLP149=
202407121400 METAR CYOD 121400Z 27008KT 15SM FEW120 18/07 A3000 RMK AC2 DENSITY ALT 2559FT SLP155=
202407121500 METAR CYOD 121500Z 28008KT 15SM FEW120 19/08 A2999 RMK AC1 DENSITY ALT 2784FT SLP153=
202407121600 METAR CYOD 121600Z 25010KT 15SM FEW120 21/08 A2999 RMK AC1 DENSITY ALT 2951FT SLP155=
202407121700 METAR CYOD 121700Z 28013KT 15SM FEW120 FEW250 22/07 A2999 RMK AC1FU2 DENSITY ALT 3101FT AC TR SLP154=
202407121800 METAR CYOD 121800Z 27016KT 15SM FEW070 FEW120 SCT250 23/06 A2998 RMK CU1AC1FU4 DENSITY ALT 3239FT CU TR AC TR SLP152=
202407121900 METAR CYOD 121900Z 27018G26KT 15SM FEW060 SCT250 23/06 A2998 RMK CU2FU2 DENSITY ALT 3250FT SLP152=
202407122000 METAR CYOD 122000Z 25018KT 15SM SCT060 SCT250 24/07 A2998 RMK SC3FU1 DENSITY ALT 3339FT SLP154=
202407122100 METAR CYOD 122100Z 29017KT 15SM BKN060 21/07 A3000 RMK SC6 DENSITY ALT 3021FT SLP162=
202407122200 METAR CYOD 122200Z 29018KT 15SM SCT060 22/08 A3000 RMK SC4 DENSITY ALT 3086FT SLP160=
202407122300 METAR CYOD 122300Z 30015KT 15SM SCT060 23/08 A2999 RMK CU3 DENSITY ALT 3211FT SLP157=
202407130000 METAR CYOD 130000Z 31014KT 15SM SCT055 22/09 A2999 RMK CU3 DENSITY ALT 3071FT SLP160=
202407130100 METAR CYOD 130100Z 31016KT 15SM SCT060 SCT250 21/08 A3000 RMK CU3CI1 DENSITY ALT 3029FT SLP161=
202407130200 METAR CYOD 130200Z 32009KT 15SM FEW065 FEW250 20/09 A3001 RMK CU1CI1 DENSITY ALT 2901FT SLP165=
202407130300 METAR CYOD 130300Z 32008KT 15SM FEW065 FEW250 18/08 A3002 RMK CU1CI1 DENSITY ALT 2603FT SLP168=
202407130400 METAR CYOD 130400Z 01008KT 15SM FEW065 FEW250 15/08 A3003 RMK CF1CI1 DENSITY ALT 2257FT FU ALF SLP174=
202407130500 METAR CYOD 130500Z 03005KT 15SM FEW250 14/07 A3004 RMK CI1 DENSITY ALT 2077FT FU ALF SLP176=
202407130600 METAR CYOD 130600Z 00000KT 15SM SKC 11/07 A3004 RMK DENSITY ALT 1735FT FU ALF SLP178=
202407130700 METAR CYOD 130700Z 20004KT 15SM SKC 09/07 A3005 RMK DENSITY ALT 1420FT SLP181=
202407130800 METAR CYOD 130800Z 00000KT 15SM SKC 08/07 A3004 RMK DENSITY ALT 1350FT SLP179=
202407130900 METAR CYOD 130900Z 22003KT 15SM FEW230 07/06 A3004 RMK CI1 DENSITY ALT 1193FT SLP181=
202407131000 METAR CYOD 131000Z 00000KT 15SM MIFG FEW230 07/06 A3004 RMK CI1 DENSITY ALT 1115FT SLP182=
202407131100 METAR CYOD 131100Z 00000KT 12SM MIFG FEW230 06/05 A3004 RMK CI1 DENSITY ALT 1029FT SLP182=
202407131200 METAR CYOD 131200Z 00000KT 12SM MIFG FEW140 FEW250 06/05 A3004 RMK AC1CI1 DENSITY ALT 1028FT SLP183=
202407131300 METAR CYOD 131300Z 18002KT 15SM FEW140 FEW250 09/08 A3005 RMK AC1CI1 DENSITY ALT 1412FT AC TR SLP182=
202407131400 METAR CYOD 131400Z 23002KT 15SM FEW250 12/08 A3005 RMK CI1 DENSITY ALT 1839FT SLP180=
202407131500 METAR CYOD 131500Z 22006KT 15SM FEW250 17/10 A3004 RMK CI1 DENSITY ALT 2493FT SLP175=
202407131600 METAR CYOD 131600Z 23006KT 15SM FEW250 20/10 A3002 RMK CI1 DENSITY ALT 2872FT SLP169=
202407131700 METAR CYOD 131700Z 24006KT 15SM FEW160 FEW250 22/08 A3000 RMK AC1CI1 DENSITY ALT 3081FT AC TR SLP163=
202407131800 METAR CYOD 131800Z 25007KT 15SM FEW160 FEW250 23/06 A2999 RMK AC1CI1 DENSITY ALT 3206FT AC TR SLP159=
202407131900 METAR CYOD 131900Z 26009KT 15SM FEW060 SCT250 24/07 A2998 RMK CU1CI3 DENSITY ALT 3369FT SLP157=
202407132000 METAR CYOD 132000Z 22004KT 15SM FEW060 BKN250 24/07 A2996 RMK CU1CI4 DENSITY ALT 3402FT SLP151=
202407132100 METAR CYOD 132100Z 28009KT 15SM BKN250 24/07 A2997 RMK CI6 DENSITY ALT 3411FT SLP154=
202407132200 METAR CYOD 132200Z 29011KT 15SM FEW120 OVC250 24/08 A2994 RMK AC1CI7 DENSITY ALT 3393FT OCNL DIST LTNG S SLP145=
202407132300 METAR CYOD 132300Z 28016KT 15SM -SHRA BKN100 OVC250 22/10 A2995 RMK AC6CI2 DENSITY ALT 3131FT SLP152=
202407140000 METAR CYOD 140000Z CCA 33002KT 15SM -SHRA FEW065 BKN110 BKN250 19/13 A2994 RMK SC2AC3CI2 DENSITY ALT 2822FT PCPN VRY LGT SLP149=
202407140014 SPECI CYOD 140014Z 32006KT 15SM SCT065 BKN100 BKN250 19/12 A2994 RMK SC3AC2CI2 DENSITY ALT 2895FT SLP150=
202407140100 METAR CYOD 140100Z CCA 22005KT 15SM FEW065 SCT090 BKN160 BKN220 20/13 A2995 RMK CF1AC2AC2CI2 DENSITY ALT 2935FT FRQ DIST LTNG N SLP150=
202407140200 METAR CYOD 140200Z 23005KT 15SM SCT070TCU BKN090 OVC160 19/13 A2996 RMK TCU3AC3AC2 DENSITY ALT 2807FT TCU N MOV E OCNL DIST LTNG NE SLP151=
202407140300 METAR CYOD 140300Z 23006KT 15SM BKN075 BKN160 BKN220 18/14 A2996 RMK AC5AC1CI1 DENSITY ALT 2762FT SLP150=
202407140400 METAR CYOD 140400Z 21002KT 15SM SCT080 SCT160 SCT210 17/13 A2996 RMK AC3AC1CI1 DENSITY ALT 2550FT SLP149=
202407140500 METAR CYOD 140500Z 24005KT 15SM FEW080 SCT160 BKN210 15/13 A2996 RMK AC2AC1CI2 DENSITY ALT 2316FT SLP149=
202407140600 METAR CYOD 140600Z 24005KT 15SM FEW160 SCT210 13/12 A2997 RMK AC1CI2 DENSITY ALT 2123FT SLP150=
202407140700 METAR CYOD 140700Z 22004KT 15SM FEW100 SCT240 12/11 A2996 RMK AC1CI3 DENSITY ALT 1923FT SLP149=
202407140800 METAR CYOD 140800Z 27003KT 12SM FEW080 FEW100 BKN230 12/11 A2995 RMK AC1AC1CI4 DENSITY ALT 1922FT SLP146=
202407140900 METAR CYOD 140900Z 10002KT 10SM MIFG FEW100 BKN220 12/12 A2994 RMK AC2CI5 DENSITY ALT 1989FT SLP143=
202407141000 METAR CYOD 141000Z 20002KT 12SM MIFG FEW100 BKN130 BKN230 11/10 A2994 RMK AC1AC4CI2 DENSITY ALT 1784FT SLP142=
202407141100 METAR CYOD 141100Z 23005KT 12SM BKN130 BKN230 12/11 A2995 RMK AC5CI2 DENSITY ALT 1909FT SLP146=
202407141200 METAR CYOD 141200Z 28002KT 12SM BKN140 OVC220 13/12 A2995 RMK AC6CI2 DENSITY ALT 2075FT SLP148=
202407141300 METAR CYOD 141300Z 00000KT 15SM SCT110 OVC250 13/12 A2996 RMK AC3CI5 DENSITY ALT 2099FT SLP149=
202407141400 METAR CYOD 141400Z 27003KT 15SM SCT110 OVC250 14/13 A2996 RMK AC3CI5 DENSITY ALT 2208FT SLP151=
202407141500 METAR CYOD 141500Z 24004KT 15SM SCT060 OVC250 15/14 A2997 RMK SC4CI4 DENSITY ALT 2393FT SLP152=
202407141600 METAR CYOD 141600Z 26004KT 15SM BKN010 OVC075 17/14 A2997 RMK SC5AC3 DENSITY ALT 2544FT SLP153=
202407141700 METAR CYOD 141700Z 34003KT 15SM SCT015 BKN085 19/14 A2996 RMK SC4AC3 DENSITY ALT 2816FT OCNL DIST LTNG W SLP150=
202407141800 METAR CYOD 141800Z 36003KT 15SM BKN020 BKN080 20/13 A2995 RMK SC5AC2 DENSITY ALT 2913FT OCNL LTGCCCG 21NM SW SLP148=
202407141817 SPECI CYOD 141817Z 03005KT 6SM TS FU BKN020 BKN050CB OVC090 19/13 A2995 RMK SC5CB2AC1 DENSITY ALT 2844FT CB W MOVG E OCNL LTGCCCG SLP147=
202407141836 SPECI CYOD 141836Z 04008KT 3SM TS FU SCT020 BKN060CB OVC100 18/12 A2995 RMK SC3CB3AC2 DENSITY ALT 2745FT CB W MOVG E OCNL LTGCCCG SLP149=
202407141900 METAR CYOD 141900Z 04010KT 3SM -SHRA FU SCT030 BKN060CB OVC100 18/13 A2995 RMK SC4CB2AC2 DENSITY ALT 2671FT OCNL LTGCCCG 12NM N SLP150=
202407142000 METAR CYOD 142000Z 02005KT 5SM -TSRA FU BKN060CB BKN110 20/13 A2995 RMK CB5AC2 DENSITY ALT 3007FT CB W MOVG E OCNL LTGCCCG SLP148=
202407142100 METAR CYOD 142100Z 34005KT 10SM SCT060 BKN110 BKN250 19/12 A2996 RMK SC3AC3CI1 DENSITY ALT 2804FT FU SLP151=
202407142200 METAR CYOD 142200Z 04005KT 15SM FEW060 SCT110 BKN250 22/13 A2995 RMK SC1AC2CI2 DENSITY ALT 3194FT SLP146=
202407142300 METAR CYOD 142300Z 25010KT 15SM SCT040 SCT090 22/13 A2995 RMK SC3AC1 DENSITY ALT 3210FT SLP146=
202407150000 METAR CYOD 150000Z 27010KT 15SM FEW045 22/13 A2994 RMK CU2 DENSITY ALT 3224FT SLP143=
202407150100 METAR CYOD 150100Z 27006KT 15SM FEW050 FEW210 22/14 A2994 RMK CU1CI1 DENSITY ALT 3188FT SLP144=
202407150200 METAR CYOD 150200Z 27009KT 15SM FEW050 20/13 A2995 RMK CU1 DENSITY ALT 3027FT SLP147=
202407150300 METAR CYOD 150300Z 27004KT 15SM FEW050 19/13 A2996 RMK CU1 DENSITY ALT 2799FT SLP149=
202407150400 METAR CYOD 150400Z 19002KT 15SM FEW250 16/12 A2996 RMK CI1 DENSITY ALT 2511FT SLP151=
202407150500 METAR CYOD 150500Z 00000KT 15SM FEW250 14/12 A2996 RMK CI2 DENSITY ALT 2154FT SLP151=
202407150600 METAR CYOD 150600Z 20003KT 10SM MIFG FEW250 12/11 A2996 RMK CI1 DENSITY ALT 1949FT SLP152=
202407150700 METAR CYOD 150700Z 21003KT 10SM MIFG SKC 11/11 A2997 RMK DENSITY ALT 1817FT SLP155=
202407150800 METAR CYOD 150800Z 00000KT 10SM MIFG SKC 10/10 A2997 RMK DENSITY ALT 1664FT VIS LWR SE SLP154=
202407150819 SPECI CYOD 150819Z 10002KT 1 1/2SM BR SKC 10/09 A2996 RMK DENSITY ALT 1649FT SLP152=
202407150827 SPECI CYOD 150827Z 10003KT 1/8SM R31R/3500FT/U FG SKC 09/09 A2996 RMK DENSITY ALT 1595FT SLP153=
202407150900 METAR CYOD 150900Z 19002KT 5/8SM R31R/5000FT/N BR SKC 09/08 A2996 RMK DENSITY ALT 1498FT SLP154=
202407150915 SPECI CYOD 150915Z 18004KT 3SM BR SKC 09/09 A2996 RMK DENSITY ALT 1554FT SLP153=
202407151000 METAR CYOD 151000Z 16003KT 1/2SM R31R/2200FT/D FG SKC 08/08 A2995 RMK FG2 DENSITY ALT 1441FT SLP149=
202407151100 METAR CYOD 151100Z 07002KT 1/2SM R31R/P6000FT/U FG FEW250 08/08 A2996 RMK FG2CI1 DENSITY ALT 1375FT SLP152=
202407151200 METAR CYOD 151200Z 17003KT 1/2SM R31R/5500FT/U FG SCT250 08/08 A2996 RMK FG2CI2 DENSITY ALT 1348FT SLP152=
202407151214 SPECI CYOD 151214Z 17003KT 3SM BR SCT190 BKN250 08/08 A2996 RMK FG1AC2CI2 DENSITY ALT 1459FT VIS LWR W SLP151=
202407151300 METAR CYOD 151300Z 18002KT 8SM BKN170 11/11 A2995 RMK AC7 DENSITY ALT 1883FT SLP148=
202407151400 METAR CYOD 151400Z 00000KT 15SM BKN180 14/13 A2995 RMK AC7 DENSITY ALT 2225FT SLP146=
202407151500 METAR CYOD 151500Z 17004KT 15SM BKN160 BKN250 16/14 A2994 RMK AC5CI2 DENSITY ALT 2540FT SLP144=
202407151600 METAR CYOD 151600Z 22005KT 12SM -SHRA BKN080 OVC140 17/14 A2994 RMK AC5AC3 DENSITY ALT 2635FT SLP143=
202407151700 METAR CYOD 151700Z 21006KT 15SM -SHRA BKN065 OVC080 18/15 A2993 RMK SC5AC3 DENSITY ALT 2798FT SLP143=
202407151800 METAR CYOD 151800Z 19006KT 15SM BKN065 BKN110 18/15 A2991 RMK SC6AC1 DENSITY ALT 2813FT SLP136=
202407151900 METAR CYOD 151900Z 17007KT 15SM SCT065 BKN100 21/15 A2990 RMK SC4AC2 DENSITY ALT 3217FT SLP129=
202407152000 METAR CYOD 152000Z 22006KT 15SM FEW045 BKN100 23/15 A2989 RMK CU1AC4 DENSITY ALT 3383FT SLP128=
202407152100 METAR CYOD 152100Z 24005KT 15SM FEW045 SCT100 SCT250 23/14 A2989 RMK CU1AC2CI1 DENSITY ALT 3467FT SLP127=
202407152200 METAR CYOD 152200Z 24011KT 15SM FEW045 BKN110 25/13 A2988 RMK CU1AC4 DENSITY ALT 3599FT SLP125=
202407152300 METAR CYOD 152300Z 23008KT 15SM FEW040 SCT110 25/15 A2988 RMK CU2AC2 DENSITY ALT 3690FT SLP123=
202407160000 METAR CYOD 160000Z 26008KT 15SM FEW045 SCT090 BKN110 25/13 A2987 RMK CU2AC1AC2 DENSITY ALT 3621FT SLP121=
202407160100 METAR CYOD 160100Z 25004KT 15SM FEW045 BKN100 BKN220 23/15 A2988 RMK CU1AC4CI1 DENSITY ALT 3430FT SLP123=
202407160200 METAR CYOD 160200Z 21003KT 15SM SCT100 BKN120 24/15 A2988 RMK AC3AC2 DENSITY ALT 3521FT SLP121=
202407160300 METAR CYOD 160300Z 23003KT 15SM SCT110 22/15 A2989 RMK AC4 DENSITY ALT 3304FT SLP122=
202407160400 METAR CYOD 160400Z 22005KT 15SM FEW110 18/15 A2991 RMK AC1 DENSITY ALT 2852FT SLP132=
202407160500 METAR CYOD 160500Z 21006KT 15SM FEW110 16/14 A2992 RMK AC1 DENSITY ALT 2556FT SLP136=
202407160600 METAR CYOD 160600Z 18004KT 15SM FEW110 16/14 A2992 RMK AC2 DENSITY ALT 2519FT SLP138=
202407160700 METAR CYOD 160700Z 23004KT 12SM FEW110 13/13 A2994 RMK AC1 DENSITY ALT 2165FT SLP142=
202407160800 METAR CYOD 160800Z 21003KT 12SM MIFG FEW110 13/13 A2995 RMK AC1 DENSITY ALT 2158FT SLP146=
202407160900 METAR CYOD 160900Z 00000KT 10SM MIFG FEW100 13/12 A2996 RMK AC2 DENSITY ALT 2050FT SLP148=
202407161000 METAR CYOD 161000Z 00000KT 10SM MIFG SCT100 11/11 A2997 RMK AC3 DENSITY ALT 1862FT SLP153=
202407161100 METAR CYOD 161100Z 00000KT 10SM MIFG SCT100 12/11 A2999 RMK AC3 DENSITY ALT 1875FT SLP157=
202407161119 SPECI CYOD 161119Z 08003KT 1 1/2SM BR FEW100 12/11 A2999 RMK AC2 DENSITY ALT 1862FT SLP158=
202407161143 SPECI CYOD 161143Z 11002KT 8SM MIFG FEW100 11/11 A2999 RMK AC2 DENSITY ALT 1819FT SLP160=
202407161200 METAR CYOD 161200Z 00000KT 7SM MIFG FEW100 12/11 A3000 RMK AC2 DENSITY ALT 1871FT SLP161=
202407161300 METAR CYOD 161300Z 08002KT 15SM BKN090 16/14 A3001 RMK AC7 DENSITY ALT 2382FT SLP163=
202407161400 METAR CYOD 161400Z 16003KT 15SM BKN090 18/16 A3001 RMK AC6 DENSITY ALT 2673FT SLP163=
202407161500 METAR CYOD 161500Z 16004KT 15SM FEW090 FEW250 21/16 A3001 RMK AC2CI1 DENSITY ALT 3070FT SLP162=
202407161600 METAR CYOD 161600Z 17006KT 15SM FEW090 FEW250 24/17 A3001 RMK AC1CI1 DENSITY ALT 3433FT SLP162=
202407161700 METAR CYOD 161700Z 15006KT 15SM FEW090 FEW250 26/16 A3001 RMK AC1CI1 DENSITY ALT 3701FT SLP162=
202407161800 METAR CYOD 161800Z 21008KT 15SM FEW070 FEW250 27/16 A3001 RMK AC1CI2 DENSITY ALT 3791FT SLP162=
202407161900 METAR CYOD 161900Z 18004KT 15SM FEW070 SCT250 28/16 A3001 RMK CU1CI3 DENSITY ALT 3947FT SLP160=
202407162000 METAR CYOD 162000Z 22005KT 15SM FEW050 BKN250 30/15 A3000 RMK CU2CI4 DENSITY ALT 4103FT SLP158=
202407162100 METAR CYOD 162100Z 21008KT 15SM FEW050 SCT100 BKN250 30/16 A3000 RMK CU2AC2CI2 DENSITY ALT 4122FT OCNL LTGCCCG 28NM N SLP158=
202407162200 METAR CYOD 162200Z 18008KT 15SM SCT060TCU SCT090 BKN250 30/15 A2998 RMK TCU3AC1CI1 DENSITY ALT 4127FT FRQ LTGCCCG 22NM NW QUAD SLP152=
202407162245 SPECI CYOD 162245Z 14010KT 15SM -SHRA SCT060 BKN250 31/16 A2997 RMK SC4CI1 DENSITY ALT 4255FT TCU ASOCTD CONS LTGCCCG 13NM W QUAD SLP150=
202407162300 METAR CYOD 162300Z 19007KT 15SM SCT060TCU BKN120 BKN250 31/16 A2997 RMK TCU4AC1CI1 DENSITY ALT 4300FT CONS LTGCCCG 12NM N AND S QUAD SLP147=
202407162308 SPECI CYOD 162308Z 19012KT 15SM TS SCT060CB BKN120 BKN250 31/16 A2997 RMK CB4AC1CI1 DENSITY ALT 4302FT CB OVRHD MOVG E CONS LTGCCCG SLP148=
202407170000 METAR CYOD 170000Z 22005KT 15SM TS BKN060CB BKN250 27/16 A3000 RMK CB5CI2 DENSITY ALT 3791FT CB N MOVG E CONS LTGCCCG SLP160=
202407170050 SPECI CYOD 170050Z 08005KT 15SM SCT060 BKN250 25/18 A3001 RMK SC4CI3 DENSITY ALT 3598FT SLP164=
202407170100 METAR CYOD 170100Z 00000KT 15SM SCT060TCU BKN250 25/18 A3000 RMK TCU4CI3 DENSITY ALT 3579FT CB E MOV E OCNL LTGCCCG E QUAD SLP160=
202407170200 METAR CYOD 170200Z 16007KT 15SM FEW060TCU BKN250 25/17 A3000 RMK TCU2CI4 DENSITY ALT 3562FT CB E MOV E SLP157=
202407170300 METAR CYOD 170300Z 09006KT 15SM FEW060TCU BKN250 24/18 A3000 RMK TCU1CI5 DENSITY ALT 3467FT SLP156=
202407170400 METAR CYOD 170400Z 16006KT 15SM FEW060TCU BKN250 22/18 A3000 RMK TCU1CI5 DENSITY ALT 3213FT SLP155=
202407170500 METAR CYOD 170500Z 18004KT 15SM SCT250 20/18 A3000 RMK CI4 DENSITY ALT 2972FT SLP156=
202407170600 METAR CYOD 170600Z 19005KT 15SM FEW250 19/18 A3001 RMK CI2 DENSITY ALT 2837FT SLP158=
202407170700 METAR CYOD 170700Z 21004KT 15SM SKC 18/17 A3002 RMK DENSITY ALT 2714FT SLP161=
202407170800 METAR CYOD 170800Z 19004KT 15SM SKC 17/16 A3003 RMK DENSITY ALT 2487FT SLP166=
202407170900 METAR CYOD 170900Z 18003KT 12SM FEW100 17/16 A3004 RMK AC1 DENSITY ALT 2529FT SLP168=
202407171000 METAR CYOD 171000Z 00000KT 15SM FEW100 16/15 A3004 RMK ACC1 DENSITY ALT 2358FT SLP171=
202407171100 METAR CYOD 171100Z 00000KT 15SM MIFG FEW100 14/14 A3005 RMK ACC2 DENSITY ALT 2181FT SLP173=
202407171200 METAR CYOD 171200Z 00000KT 15SM MIFG FEW100 15/14 A3006 RMK ACC1 DENSITY ALT 2225FT SLP177=
202407171300 METAR CYOD 171300Z 00000KT 15SM FEW100 17/16 A3006 RMK ACC1 DENSITY ALT 2518FT SLP179=
202407171400 METAR CYOD 171400Z 20004KT 15SM FEW250 20/17 A3007 RMK CI1 DENSITY ALT 2921FT SLP179=
202407171500 METAR CYOD 171500Z 21004KT 15SM FEW250 24/17 A3007 RMK CI1 DENSITY ALT 3328FT SLP178=
202407171600 METAR CYOD 171600Z 23004KT 15SM FEW250 26/17 A3007 RMK CI1 DENSITY ALT 3638FT SLP177=
202407171700 METAR CYOD 171700Z 25005KT 15SM FEW250 28/17 A3006 RMK CI1 DENSITY ALT 3900FT SLP175=
202407171800 METAR CYOD 171800Z 19005KT 15SM FEW250 30/17 A3005 RMK CI1 DENSITY ALT 4089FT SLP172=
202407171900 METAR CYOD 171900Z 20008KT 15SM FEW120 FEW250 32/16 A3004 RMK ACC1CI1 DENSITY ALT 4317FT SLP167=
202407172000 METAR CYOD 172000Z 23008KT 15SM FEW090 FEW250 33/13 A3003 RMK AC1CI1 DENSITY ALT 4369FT SLP164=
202407172100 METAR CYOD 172100Z 19010KT 15SM FEW090 33/11 A3002 RMK AC1 DENSITY ALT 4397FT FRQ DIST LTNG N SLP160=
202407172200 METAR CYOD 172200Z 20007KT 15SM FEW090 33/11 A3001 RMK AC2 DENSITY ALT 4466FT TCU ASOCTD FRQ LTGCCCG 28NM N SLP156=
202407172300 METAR CYOD 172300Z 18012KT 15SM FEW090 FEW250 34/10 A3000 RMK AC2CI1 DENSITY ALT 4513FT FRQ LTGCCCG 17NM N SLP154=
202407180000 METAR CYOD 180000Z 23007KT 15SM FEW090 SCT250 33/11 A2998 RMK AC2CI1 DENSITY ALT 4490FT FRQ LTGCCCG 27NM N SLP146=
202407180100 METAR CYOD 180100Z 21005KT 15SM SCT090TCU SCT250 33/14 A2998 RMK TCU3CI1 DENSITY ALT 4448FT CB N QUAD MOV E FRQ LTGCCCG LTNG DTCTRS REP STRIKES 25 NM N QUAD SLP147=
202407180200 METAR CYOD 180200Z 06012KT 15SM SCT090CB BKN250 27/13 A2999 RMK CB4CI1 DENSITY ALT 3818FT CB W MOV E CONS LTGCCCG LTNG DTCTRS REP STRIKES 11 NM NW SLP152=
202407180205 SPECI CYOD 180205Z 05007KT 15SM TS SCT090CB BKN250 27/14 A3000 RMK CB4CI1 DENSITY ALT 3756FT CB W MOV E FRQ LTGCCCG SLP153=
202407180235 SPECI CYOD 180235Z 36012KT 15SM -TSRA BKN090CB BKN250 26/15 A3001 RMK CB5CI1 DENSITY ALT 3670FT CB NW MOV E FRQ LTGICCCCG SLP158=
202407180300 METAR CYOD 180300Z 04012KT 15SM -TSRA BKN090CB BKN250 25/15 A3000 RMK CB7CI1 DENSITY ALT 3563FT CB OHD MOV W OCNL LTGICCG MAMMATUS SLP153=
202407180322 SPECI CYOD 180322Z 08009KT 15SM BKN090CB BKN250 25/15 A2999 RMK CB6CI1 DENSITY ALT 3567FT CB OHD MOV E FRQ LTGICCG LTNG DTCTRS REP STRIKES 12 NM E QUAD MAMMATUS SLP150=
202407180328 SPECI CYOD 180328Z 07010KT 15SM TS BKN090CB BKN250 25/14 A2999 RMK CB6CI1 DENSITY ALT 3571FT CB OHD MOV E FRQ LTGICCG MAMMATUS SLP149=
202407180400 METAR CYOD 180400Z 09007KT 15SM BKN180 25/14 A2999 RMK ACC7 DENSITY ALT 3505FT FRQ LTGICCG LTNG DTCTRS REP STRIKES 25 NM E MAMMATUS SLP148=
202407180500 METAR CYOD 180500Z 17007KT 15SM BKN150 23/14 A2999 RMK AC6 DENSITY ALT 3283FT SLP148=
202407180600 METAR CYOD 180600Z 18005KT 15SM BKN170 22/15 A3000 RMK AC6 DENSITY ALT 3136FT SLP151=
202407180700 METAR CYOD 180700Z 18006KT 15SM SCT130 21/15 A3000 RMK AC3 DENSITY ALT 3033FT SLP152=
202407180800 METAR CYOD 180800Z 16005KT 15SM FEW150 20/15 A3000 RMK AC1 DENSITY ALT 2920FT SLP151=
202407180900 METAR CYOD 180900Z 17003KT 15SM SKC 19/15 A3000 RMK DENSITY ALT 2812FT SLP151=
202407181000 METAR CYOD 181000Z 00000KT 15SM FEW080 SCT250 16/15 A2999 RMK CU1CI4 DENSITY ALT 2509FT SLP149=
202407181100 METAR CYOD 181100Z 06003KT 15SM MIFG FEW080CB FEW100 SCT250 16/14 A2999 RMK CB1AC1CI1 DENSITY ALT 2426FT CB E MOV E SLP151=
202407181200 METAR CYOD 181200Z 00000KT 15SM FEW080 BKN250 16/14 A3000 RMK AC1CI6 DENSITY ALT 2431FT CIG PDMTLY TRANSPARENT SLP152=
202407181300 METAR CYOD 181300Z 17004KT 15SM FEW080 BKN250 19/16 A3000 RMK AC1CI5 DENSITY ALT 2798FT SLP153=
202407181400 METAR CYOD 181400Z 16003KT 15SM FEW080 SCT250 21/16 A3000 RMK AC1CI4 DENSITY ALT 3133FT SLP153=
202407181500 METAR CYOD 181500Z 19002KT 15SM SCT250 24/17 A2999 RMK CI3 DENSITY ALT 3466FT SLP150=
202407181600 METAR CYOD 181600Z 15002KT 15SM SCT250 26/16 A2999 RMK CI3 DENSITY ALT 3718FT SLP148=
202407181700 METAR CYOD 181700Z 07003KT 15SM FEW250 28/16 A2998 RMK CI2 DENSITY ALT 3937FT SLP144=
202407181800 METAR CYOD 181800Z 18004KT 15SM FEW050 SCT250 29/17 A2997 RMK CU1CI3 DENSITY ALT 4110FT SLP143=
202407181900 METAR CYOD 181900Z 15006KT 130V190 15SM FEW060 FEW250 31/16 A2997 RMK CU1CI2 DENSITY ALT 4310FT CB N MOV E SLP139=
202407182000 METAR CYOD 182000Z 16006KT 15SM FEW070 FEW250 33/16 A2996 RMK CU1CI1 DENSITY ALT 4479FT CB N MOV E SLP136=
202407182100 METAR CYOD 182100Z 08003KT 050V140 15SM FEW070 FEW250 33/15 A2996 RMK CU1CI1 DENSITY ALT 4513FT CB NE MOV SE SLP138=
202407182200 METAR CYOD 182200Z 21005KT 170V240 15SM FEW070 FEW250 34/16 A2995 RMK CU1CI2 DENSITY ALT 4637FT SLP135=
202407182300 METAR CYOD 182300Z 21005KT 15SM FEW070 FEW250 34/15 A2994 RMK CU1CI1 DENSITY ALT 4619FT SLP133=
202407190000 METAR CYOD 190000Z 31003KT 15SM FEW070 SCT250 33/14 A2993 RMK CU1CI3 DENSITY ALT 4586FT SLP131=
202407190100 METAR CYOD 190100Z 00000KT 15SM FEW070TCU BKN250 33/15 A2994 RMK TCU1CI5 DENSITY ALT 4513FT CIG PDMTLY TRANSPARENT SLP130=
202407190200 METAR CYOD 190200Z 00000KT 15SM FEW080 BKN250 31/15 A2994 RMK CU1CI6 DENSITY ALT 4361FT CIG PDMTLY TRANSPARENT MDT CU ASOCTD SLP129=
202407190300 METAR CYOD 190300Z 25002KT 15SM BKN250 28/17 A2995 RMK CI6 DENSITY ALT 3935FT CIG PDMTLY TRANSPARENT SLP135=
202407190400 METAR CYOD 190400Z 00000KT 15SM BKN250 25/17 A2997 RMK CI6 DENSITY ALT 3581FT SLP141=
202407190500 METAR CYOD 190500Z 32004KT 15SM BKN250 22/18 A2998 RMK CI6 DENSITY ALT 3310FT SLP145=
202407190600 METAR CYOD 190600Z 32003KT 15SM SCT080 21/17 A2999 RMK AS4 DENSITY ALT 3126FT SLP148=
202407190637 SPECI CYOD 190637Z CCA 00000KT 15SM BKN013 21/17 A2999 RMK FU6 DENSITY ALT 3089FT CIG PDMTLY TRANSPARENT SLP149=
202407190700 METAR CYOD 190700Z 00000KT 15SM BKN015 20/17 A2999 RMK FU5 DENSITY ALT 2979FT CIG PDMTLY TRANSPARENT SLP148=
202407190800 METAR CYOD 190800Z 27002KT 15SM SCT010 19/17 A3000 RMK FU4 DENSITY ALT 2788FT SLP152=
202407190900 METAR CYOD 190900Z 00000KT 15SM FEW010 SCT075 17/16 A3001 RMK FU2AS2 DENSITY ALT 2564FT SLP155=
202407191000 METAR CYOD 191000Z 00000KT 15SM BKN080 16/15 A3002 RMK AS5 DENSITY ALT 2415FT SLP158=
202407191100 METAR CYOD 191100Z 00000KT 12SM MIFG FEW015 SCT070 15/14 A3002 RMK ST2AS2 DENSITY ALT 2279FT SLP160=
202407191200 METAR CYOD 191200Z 00000KT 12SM MIFG SKC 15/14 A3004 RMK FU3 DENSITY ALT 2281FT SLP166=
202407191227 SPECI CYOD 191227Z 00000KT 8SM SKC 15/14 A3005 RMK FU3 DENSITY ALT 2278FT SLP172=
202407191300 METAR CYOD 191300Z 00000KT 7SM OVC300 16/14 A3006 RMK FU8 DENSITY ALT 2404FT SLP174=
202407191400 METAR CYOD 191400Z 00000KT 6SM FU FEW015 OVC300 17/15 A3007 RMK FU1FU7 DENSITY ALT 2549FT SLP177=
202407191500 METAR CYOD 191500Z 20003KT 6SM FU FEW015 OVC300 20/16 A3007 RMK FU1FU7 DENSITY ALT 2843FT SLP179=
202407191600 METAR CYOD 191600Z 00000KT 6SM FU FEW015 OVC300 23/17 A3007 RMK FU2FU6 DENSITY ALT 3238FT SLP178=
202407191700 METAR CYOD 191700Z 21002KT 5SM FU FEW015 FEW080 OVC300 25/18 A3007 RMK FU2AC1FU6 DENSITY ALT 3466FT SLP179=
202407191800 METAR CYOD 191800Z 19003KT 6SM FU FEW015 FEW080 OVC300 24/18 A3007 RMK FU2AC1FU6 DENSITY ALT 3427FT SLP180=
202407191900 METAR CYOD 191900Z 21002KT 5SM FU FEW015 OVC250 25/18 A3007 RMK FU1FU7 DENSITY ALT 3527FT SLP180=
202407192000 METAR CYOD 192000Z 23002KT 5SM FU FEW015 OVC250 26/16 A3008 RMK FU2FU6 DENSITY ALT 3547FT SLP183=
202407192100 METAR CYOD 192100Z 00000KT 4SM FU FEW015 OVC250 27/16 A3008 RMK FU2FU6 DENSITY ALT 3667FT SLP184=
202407192123 SPECI CYOD 192123Z 00000KT 2SM FU FEW015 OVC250 27/14 A3008 RMK FU2FU6 DENSITY ALT 3724FT SLP184=
202407192200 METAR CYOD 192200Z 00000KT 2SM FU SCT015 OVC250 27/17 A3008 RMK FU3FU5 DENSITY ALT 3704FT SLP185=
202407192242 SPECI CYOD 192242Z 11002KT 1SM R31R/P6000FT/N FU OVC250 27/17 A3008 RMK FU2FU6 DENSITY ALT 3743FT SLP185=
202407192300 METAR CYOD 192300Z 09002KT 3/8SM R31R/P6000FT/D FU OVC250 27/18 A3008 RMK FU5FU3 DENSITY ALT 3709FT SLP186=
202407200000 METAR CYOD 200000Z 09004KT 3/8SM R31R/P6000FT/D FU OVC250 26/19 A3007 RMK FU6FU2 DENSITY ALT 3627FT SLP184=
202407200100 METAR CYOD 200100Z 09002KT 3/8SM R31R/P6000FT/N FU OVC250 26/19 A3007 RMK FU6CI2 DENSITY ALT 3702FT SLP183=
202407200200 METAR CYOD 200200Z 00000KT 3/8SM R31R/P6000FT/N FU OVC250 26/18 A3009 RMK FU7CI1 DENSITY ALT 3601FT SLP187=
202407200300 METAR CYOD 200300Z 00000KT 3/8SM R31R/P6000FT/N FU OVC250 24/19 A3009 RMK FU7CI1 DENSITY ALT 3408FT SLP189=
202407200400 METAR CYOD 200400Z 00000KT 3/8SM R31R/P6000FT/N FU OVC250 23/17 A3011 RMK FU7CI1 DENSITY ALT 3166FT SLP194=
202407200500 METAR CYOD 200500Z 35002KT 5/8SM R31R/P6000FT/U FU OVC250 21/17 A3013 RMK FU7CI1 DENSITY ALT 3001FT SLP199=
202407200600 METAR CYOD 200600Z 00000KT 1/2SM R31/1000FT/D FU OVC250 20/17 A3014 RMK FU7CI1 DENSITY ALT 2766FT SLP204=
202407200700 METAR CYOD 200700Z 32003KT 1/2SM R31R/1200FT/U FU OVC250 16/16 A3015 RMK FU7FU1 DENSITY ALT 2300FT SLP209=
202407200800 METAR CYOD 200800Z 30002KT 3/4SM R31R/3500FT/U FU OVC250 15/15 A3016 RMK FU7FU1 DENSITY ALT 2167FT VIS VRB 1/4-1 1/2 SLP212=
202407200900 METAR CYOD 200900Z 00000KT 3/4SM R31R/P6000FT/U FU OVC250 15/15 A3016 RMK FU7CI1 DENSITY ALT 2168FT VIS VRB 1/4-1 1/2 SLP211=
202407201000 METAR CYOD 201000Z 00000KT 3/4SM R31R/P6000FT/N FU OVC250 15/15 A3016 RMK FU7FU1 DENSITY ALT 2179FT VIS VRB 1/4-1 1/2 SLP211=
202407201035 SPECI CYOD 201035Z 00000KT 1 1/4SM FU BKN250 14/13 A3016 RMK FU6FU1 DENSITY ALT 1983FT VIS VRB 1/2-2 SLP215=
202407201100 METAR CYOD 201100Z 31002KT 1 1/4SM FU OVC250 14/14 A3018 RMK FU7FU1 DENSITY ALT 1974FT VIS VRB 1/2-2 SLP220=
202407201200 METAR CYOD 201200Z 00000KT 1 1/4SM FU OVC250 14/14 A3019 RMK FU7FU1 DENSITY ALT 1993FT VIS VRB 1/2-2 SLP226=
202407201300 METAR CYOD 201300Z 19002KT 3/4SM R31R/P6000FT/D FU OVC250 14/14 A3020 RMK FU6FU2 DENSITY ALT 1994FT SLP226=
202407201400 METAR CYOD 201400Z 26004KT 3/4SM R31R/P6000FT/D FU OVC250 16/16 A3021 RMK FU6FU2 DENSITY ALT 2230FT SLP229=
202407201500 METAR CYOD 201500Z 28002KT 3/4SM R31R/P6000FT/U FU OVC250 19/17 A3021 RMK FU6FU2 DENSITY ALT 2612FT SLP229=
202407201600 METAR CYOD 201600Z 03003KT 3/4SM R31R/P6000FT/D FU OVC250 22/18 A3021 RMK FU6FU2 DENSITY ALT 2930FT SLP228=
202407201700 METAR CYOD 201700Z 34002KT 3/4SM R31R/P6000FT/N FU OVC250 24/19 A3020 RMK FU6FU2 DENSITY ALT 3222FT SLP226=
202407201800 METAR CYOD 201800Z 34003KT 3/4SM R31R/P6000FT/N FU OVC250 25/19 A3021 RMK FU6FU2 DENSITY ALT 3390FT SLP229=
202407201900 METAR CYOD 201900Z 34004KT 3/4SM R31R/P6000FT/D FU OVC250 26/19 A3021 RMK FU6FU2 DENSITY ALT 3529FT SLP231=
202407202000 METAR CYOD 202000Z 36005KT 1SM R31R/P6000FT/U FU OVC250 27/22 A3021 RMK FU6FU2 DENSITY ALT 3656FT SLP230=
202407202100 METAR CYOD 202100Z 05006KT 1SM R31R/P6000FT/U FU OVC250 27/17 A3021 RMK FU6FU2 DENSITY ALT 3608FT SLP231=
202407202122 SPECI CYOD 202122Z 05003KT 2SM FU OVC250 28/17 A3021 RMK FU6FU2 DENSITY ALT 3638FT SLP231=
202407202200 METAR CYOD 202200Z 07005KT 050V110 2SM FU OVC250 28/16 A3021 RMK FU5FU3 DENSITY ALT 3669FT SLP230=
202407202300 METAR CYOD 202300Z 05005KT 2 1/2SM FU OVC250 28/16 A3021 RMK FU5FU3 DENSITY ALT 3641FT SLP230=
202407210000 METAR CYOD 210000Z 04004KT 2 1/2SM FU OVC250 27/17 A3020 RMK FU4FU4 DENSITY ALT 3628FT SLP229=
202407210100 METAR CYOD 210100Z 05003KT 2 1/2SM FU OVC250 27/18 A3020 RMK FU4FU4 DENSITY ALT 3547FT SLP227=
202407210200 METAR CYOD 210200Z 09002KT 2 1/2SM FU OVC250 25/18 A3020 RMK FU4FU4 DENSITY ALT 3338FT SLP227=
202407210300 METAR CYOD 210300Z 32002KT 2 1/2SM FU OVC250 22/18 A3021 RMK FU4FU4 DENSITY ALT 3015FT SLP231=
202407210400 METAR CYOD 210400Z 00000KT 3SM FU OVC250 20/18 A3021 RMK FU3FU5 DENSITY ALT 2776FT VIS VRB 2 1/4-4 SLP232=
202407210500 METAR CYOD 210500Z 00000KT 4SM FU BKN250 18/17 A3022 RMK FU3FU4 DENSITY ALT 2506FT SLP234=
202407210519 SPECI CYOD 210519Z 00000KT 6SM FU BKN250 18/17 A3022 RMK FU2FU3 DENSITY ALT 2481FT SLP234=
202407210600 METAR CYOD 210600Z 00000KT 6SM FU BKN250 18/17 A3022 RMK FU2FU3 DENSITY ALT 2440FT SLP234=
202407210700 METAR CYOD 210700Z 00000KT 6SM FU BKN250 17/16 A3023 RMK FU2FU3 DENSITY ALT 2278FT SLP235=
202407210800 METAR CYOD 210800Z 34003KT 7SM BKN250 15/15 A3024 RMK FU1FU4 DENSITY ALT 2101FT SLP239=
202407210900 METAR CYOD 210900Z 00000KT 7SM SCT250 16/15 A3023 RMK FU3 DENSITY ALT 2142FT SLP237=
202407210944 SPECI CYOD 210944Z 00000KT 4SM BR FEW250 14/14 A3023 RMK FU1 DENSITY ALT 1975FT SLP238=
202407211000 METAR CYOD 211000Z 01002KT 4SM BR FEW250 14/14 A3023 RMK FU1 DENSITY ALT 1976FT SLP238=
202407211100 METAR CYOD 211100Z 00000KT 4SM BR FEW250 14/14 A3024 RMK FU2 DENSITY ALT 1963FT SLP239=
202407211119 SPECI CYOD 211119Z 00000KT 1 3/4SM BR SKC 14/14 A3024 RMK DENSITY ALT 1870FT SLP240=
202407211200 METAR CYOD 211200Z 31002KT 1 1/2SM BR SKC 13/13 A3024 RMK DENSITY ALT 1811FT SLP241=
202407211300 METAR CYOD 211300Z 00000KT 3/8SM R31R/5500FT/U FG FU OVC250 14/14 A3024 RMK FU6FU2 DENSITY ALT 1908FT SLP241=
202407211341 SPECI CYOD 211341Z 00000KT 1 1/4SM FU OVC250 16/15 A3024 RMK FU6FU2 DENSITY ALT 2130FT SLP239=
202407211400 METAR CYOD 211400Z 00000KT 2SM FU OVC250 17/16 A3024 RMK FU5FU3 DENSITY ALT 2256FT VIS LWR SE SLP241=
202407211500 METAR CYOD 211500Z 00000KT 2SM FU OVC250 20/18 A3024 RMK FU4FU4 DENSITY ALT 2666FT SLP239=
202407211600 METAR CYOD 211600Z 00000KT 2SM FU OVC250 23/18 A3023 RMK FU4FU4 DENSITY ALT 3100FT SLP235=
202407211700 METAR CYOD 211700Z 21002KT 2 1/2SM FU OVC250 26/18 A3022 RMK FU5FU3 DENSITY ALT 3398FT SLP232=
202407211800 METAR CYOD 211800Z 21003KT 2SM FU OVC250 28/18 A3021 RMK FU5FU3 DENSITY ALT 3662FT SLP227=
202407211900 METAR CYOD 211900Z 07003KT 040V110 2SM FU OVC250 29/17 A3020 RMK FU6FU2 DENSITY ALT 3837FT SLP225=
202407212000 METAR CYOD 212000Z 12003KT 060V150 2SM FU OVC250 30/15 A3019 RMK FU6FU2 DENSITY ALT 3940FT SLP221=
202407212041 SPECI CYOD 212041Z 05003KT 2 1/2SM FU OVC250 30/16 A3018 RMK FU6FU2 DENSITY ALT 3996FT SLP218=
202407212100 METAR CYOD 212100Z 21002KT 2 1/2SM FU OVC250 31/16 A3018 RMK FU6FU2 DENSITY ALT 4039FT SLP217=
202407212200 METAR CYOD 212200Z 07007KT 2 1/2SM FU OVC250 31/17 A3017 RMK FU6FU2 DENSITY ALT 4085FT SLP214=
202407212300 METAR CYOD 212300Z 09003KT 060V120 2 1/2SM FU OVC250 31/17 A3016 RMK FU4FU4 DENSITY ALT 4091FT SLP210=
202407220000 METAR CYOD 220000Z 13003KT 2 1/2SM FU OVC250 31/16 A3015 RMK FU4FU4 DENSITY ALT 4054FT SLP208=
202407220100 METAR CYOD 220100Z 14004KT 2 1/2SM FU BKN250 30/16 A3014 RMK FU3FU3 DENSITY ALT 3992FT SLP204=
202407220200 METAR CYOD 220200Z 15005KT 2 1/2SM FU BKN250 28/18 A3013 RMK FU3FU3 DENSITY ALT 3783FT SLP202=
202407220300 METAR CYOD 220300Z 15005KT 2 1/2SM FU BKN250 25/17 A3013 RMK FU3FU4 DENSITY ALT 3445FT SLP201=
202407220400 METAR CYOD 220400Z 14003KT 2 1/2SM FU BKN250 22/17 A3014 RMK FU3FU4 DENSITY ALT 3107FT SLP205=
202407220435 SPECI CYOD 220435Z 10002KT 5SM FU BKN250 22/17 A3014 RMK FU3FU4 DENSITY ALT 3038FT SLP204=
202407220500 METAR CYOD 220500Z 11004KT 6SM FU BKN250 21/18 A3014 RMK FU3FU3 DENSITY ALT 2931FT SLP203=
202407220600 METAR CYOD 220600Z 13004KT 6SM FU BKN250 20/17 A3014 RMK FU3FU3 DENSITY ALT 2855FT SLP203=
202407220700 METAR CYOD 220700Z 10004KT 6SM FU BKN250 20/17 A3014 RMK FU3FU3 DENSITY ALT 2790FT SLP202=
202407220800 METAR CYOD 220800Z 09002KT 6SM FU BKN250 19/17 A3015 RMK FU3FU3 DENSITY ALT 2641FT SLP203=
202407220900 METAR CYOD 220900Z 15003KT 5SM FU BKN250 18/17 A3014 RMK FU3FU3 DENSITY ALT 2518FT SLP202=
202407221000 METAR CYOD 221000Z 10003KT 5SM FU BKN250 17/17 A3014 RMK FU3FU3 DENSITY ALT 2463FT SLP201=
202407221100 METAR CYOD 221100Z 10005KT 4SM FU BKN250 17/16 A3013 RMK FU3FU3 DENSITY ALT 2432FT VIS VRB 2-6 SLP199=
202407221117 SPECI CYOD 221117Z 09004KT 2SM FU BKN250 17/16 A3014 RMK FU3FU4 DENSITY ALT 2460FT SLP201=
202407221200 METAR CYOD 221200Z 09004KT 1 3/4SM FU BKN250 18/17 A3014 RMK FU3FU4 DENSITY ALT 2513FT SLP203=
202407221221 SPECI CYOD 221221Z 10005KT 3/4SM R31R/P6000FT/D FU OVC250 18/17 A3015 RMK FU4FU4 DENSITY ALT 2506FT SLP204=
202407221300 METAR CYOD 221300Z 11006KT 3/4SM R31R/P6000FT/U FU SKC 19/17 A3015 RMK FU7 DENSITY ALT 2674FT SLP203=
202407221400 METAR CYOD 221400Z 12007KT 3/4SM R31R/P6000FT/U FU SKC 19/17 A3015 RMK FU7 DENSITY ALT 2735FT SLP206=
202407221500 METAR CYOD 221500Z 13008KT 3/4SM R31R/P6000FT/D FU OVC130 21/18 A3015 RMK FU7AC1 DENSITY ALT 2911FT SLP205=
202407221600 METAR CYOD 221600Z 11009KT 3/4SM R31R/P6000FT/U FU OVC210 22/18 A3014 RMK FU7CI1 DENSITY ALT 3128FT SLP204=
202407221700 METAR CYOD 221700Z 10006KT 3/4SM R31R/P6000FT/U FU BKN140 24/19 A3013 RMK FU6AC1 DENSITY ALT 3354FT SLP200=
202407221800 METAR CYOD 221800Z 12009KT 3/4SM R31R/P6000FT/U FU BKN140 26/19 A3012 RMK FU6AC1 DENSITY ALT 3590FT SLP196=
202407221900 METAR CYOD 221900Z 11011KT 3/4SM R31R/P6000FT/N FU OVC140 27/19 A3011 RMK FU7AC1 DENSITY ALT 3762FT SLP191=
202407222000 METAR CYOD 222000Z 11010KT 1SM R31R/P6000FT/N FU BKN140 BKN210 28/19 A3009 RMK FU6AC1CI1 DENSITY ALT 3911FT SLP186=
202407222100 METAR CYOD 222100Z 13009KT 1 1/4SM FU BKN140 BKN210 29/19 A3008 RMK FU6AC1CI1 DENSITY ALT 4025FT SLP183=
202407222200 METAR CYOD 222200Z 09011KT 1 1/4SM FU BKN140 OVC210 29/19 A3007 RMK FU6AC1CI1 DENSITY ALT 4021FT SLP180=
202407222300 METAR CYOD 222300Z 11011KT 1 1/2SM FU BKN210 28/19 A3006 RMK FU6CI1 DENSITY ALT 3927FT SLP175=
202407222320 SPECI CYOD 222320Z 11012KT 2SM FU BKN210 28/19 A3006 RMK FU6CI1 DENSITY ALT 3873FT SLP175=
202407230000 METAR CYOD 230000Z 12013KT 2 1/2SM FU BKN170 OVC210 27/18 A3005 RMK FU6AC1CI1 DENSITY ALT 3787FT SLP172=
202407230100 METAR CYOD 230100Z 11012KT 2 1/2SM FU SKC 26/18 A3004 RMK FU7 DENSITY ALT 3672FT SLP170=
202407230200 METAR CYOD 230200Z 10008KT 2 1/2SM FU SKC 25/17 A3004 RMK FU7 DENSITY ALT 3477FT SLP170=
202407230300 METAR CYOD 230300Z 11010KT 2 1/2SM FU SKC 23/17 A3003 RMK FU7 DENSITY ALT 3256FT SLP169=
202407230400 METAR CYOD 230400Z 11009KT 2 1/2SM FU SKC 21/17 A3003 RMK FU7 DENSITY ALT 3067FT SLP169=
202407230500 METAR CYOD 230500Z 10008KT 3SM FU BKN060 20/16 A3003 RMK FU5SC1 DENSITY ALT 2930FT SLP166=
202407230600 METAR CYOD 230600Z 13006KT 4SM FU BKN250 19/16 A3002 RMK FU5CI1 DENSITY ALT 2807FT SLP165=
202407230700 METAR CYOD 230700Z 10005KT 4SM FU BKN250 17/16 A3002 RMK FU5CI1 DENSITY ALT 2619FT SLP165=
202407230800 METAR CYOD 230800Z 11005KT 4SM FU SKC 17/16 A3002 RMK FU6 DENSITY ALT 2565FT SLP161=
202407230900 METAR CYOD 230900Z 13007KT 6SM FU BKN250 16/15 A3000 RMK FU4CI1 DENSITY ALT 2508FT SLP157=
202407231000 METAR CYOD 231000Z 11007KT 6SM FU SCT110 16/15 A2999 RMK FU3AC1 DENSITY ALT 2453FT SLP154=
202407231100 METAR CYOD 231100Z 13009KT 3SM FU BKN250 16/15 A2997 RMK FU5CI1 DENSITY ALT 2488FT SLP147=
202407231200 METAR CYOD 231200Z 10007KT 2 1/2SM FU BKN250 16/15 A2997 RMK FU5CI1 DENSITY ALT 2434FT SLP147=
202407231300 METAR CYOD 231300Z 11008KT 3SM FU BKN210 16/15 A2997 RMK FU5CI1 DENSITY ALT 2431FT SLP147=
202407231400 METAR CYOD 231400Z 10012KT 3SM FU BKN010 OVC020 16/15 A2995 RMK FU3SC4SC1 DENSITY ALT 2532FT SLP142=
202407231417 SPECI CYOD 231417Z 11010KT 5SM FU OVC010 16/15 A2995 RMK SC8 DENSITY ALT 2559FT SLP142=
202407231500 METAR CYOD 231500Z 10010KT 5SM FU OVC008 17/15 A2993 RMK SC8 DENSITY ALT 2673FT SLP136=
202407231600 METAR CYOD 231600Z 11014KT 4SM FU OVC009 18/16 A2992 RMK SC8 DENSITY ALT 2841FT SLP133=
202407231700 METAR CYOD 231700Z 12013KT 5SM FU OVC012 20/17 A2992 RMK SC8 DENSITY ALT 3034FT SLP132=
202407231720 SPECI CYOD 231720Z 11014KT 5SM FU OVC015 21/17 A2991 RMK SC8 DENSITY ALT 3199FT SLP128=
202407231800 METAR CYOD 231800Z 12014KT 3SM FU BKN020 24/18 A2990 RMK FU2SC5 DENSITY ALT 3535FT SLP124=
202407231820 SPECI CYOD 231820Z 11013KT 3SM FU BKN022 BKN120 25/18 A2989 RMK FU2SC3AC1 DENSITY ALT 3709FT SLP118=
202407231900 METAR CYOD 231900Z 10013KT 080V140 3SM FU SCT027 BKN150 BKN210 26/18 A2988 RMK FU2SC2AC1CI1 DENSITY ALT 3813FT SLP117=
202407232000 METAR CYOD 232000Z 10017KT 3SM FU SCT030 BKN150 BKN210 27/18 A2988 RMK FU2SC2AC1CI1 DENSITY ALT 4009FT SLP117=
202407232100 METAR CYOD 232100Z 12013KT 3SM FU SCT040 BKN180 28/18 A2989 RMK FU2SC2AC1 DENSITY ALT 4055FT SLP118=
202407232200 METAR CYOD 232200Z 10009KT 6SM FU BKN040 27/18 A2990 RMK SC7 DENSITY ALT 3968FT SLP122=
202407232300 METAR CYOD 232300Z 08012KT 6SM FU BKN045 26/17 A2990 RMK SC7 DENSITY ALT 3804FT SLP123=
202407232320 SPECI CYOD 232320Z 08013KT 5SM FU BKN045 25/17 A2990 RMK SC7 DENSITY ALT 3718FT SLP124=
202407240000 METAR CYOD 240000Z 08012KT 5SM FU BKN045 25/17 A2990 RMK SC7 DENSITY ALT 3692FT SLP126=
202407240100 METAR CYOD 240100Z 09011KT 5SM FU BKN040 24/17 A2992 RMK SC7 DENSITY ALT 3567FT SLP131=
202407240200 METAR CYOD 240200Z 10013KT 5SM FU BKN040 23/17 A2992 RMK SC6 DENSITY ALT 3472FT SLP131=
202407240300 METAR CYOD 240300Z 11010KT 5SM FU SCT040 22/17 A2992 RMK SC3 DENSITY ALT 3302FT SLP132=
202407240400 METAR CYOD 240400Z 12005KT 5SM FU FEW050 21/16 A2994 RMK SC2 DENSITY ALT 3202FT SLP140=
202407240500 METAR CYOD 240500Z 11003KT 5SM FU BKN045 20/16 A2996 RMK SC5 DENSITY ALT 2962FT SLP146=
202407240600 METAR CYOD 240600Z 14007KT 5SM FU OVC045 19/17 A2995 RMK SC8 DENSITY ALT 2940FT SLP139=
202407240700 METAR CYOD 240700Z 32002KT 6SM FU BKN050 OVC250 19/17 A2997 RMK SC6CI2 DENSITY ALT 2867FT SLP147=
202407240800 METAR CYOD 240800Z 34004KT 6SM FU BKN050 OVC250 17/16 A2997 RMK SC6CI2 DENSITY ALT 2649FT SLP148=
202407240900 METAR CYOD 240900Z 05005KT 6SM FU BKN050 19/17 A2996 RMK SC6 DENSITY ALT 2831FT SLP142=
202407241000 METAR CYOD 241000Z 04004KT 6SM FU SCT050 17/16 A2996 RMK SC3 DENSITY ALT 2623FT SLP142=
202407241100 METAR CYOD 241100Z 36003KT 6SM FU BKN035 16/16 A2996 RMK SC6 DENSITY ALT 2546FT SLP144=
202407241200 METAR CYOD 241200Z 05008KT 5SM FU BKN035 19/17 A2995 RMK SC6 DENSITY ALT 2872FT SLP141=
202407241300 METAR CYOD 241300Z 03007KT 5SM FU SCT035 20/17 A2994 RMK FU2SC2 DENSITY ALT 2986FT SLP137=
202407241400 METAR CYOD 241400Z 35005KT 6SM FU SCT017 19/18 A2996 RMK FU1SC3 DENSITY ALT 2959FT SLP143=
202407241500 METAR CYOD 241500Z 04013KT 5SM FU SCT017 22/17 A2993 RMK FU1SC2 DENSITY ALT 3279FT SLP134=
202407241600 METAR CYOD 241600Z 06014KT 5SM FU SCT017 23/17 A2991 RMK FU1SC2 DENSITY ALT 3456FT SLP125=
202407241700 METAR CYOD 241700Z 06009KT 5SM FU SCT020 25/18 A2990 RMK FU1SC3 DENSITY ALT 3653FT SLP123=
202407241720 SPECI CYOD 241720Z CCA 07008KT 5SM FU SCT030 24/18 A2990 RMK FU1SC3 DENSITY ALT 3629FT SLP121=
202407241800 METAR CYOD 241800Z 04009KT 5SM FU BKN030 24/18 A2991 RMK FU1SC6 DENSITY ALT 3606FT SLP125=
202407241900 METAR CYOD 241900Z 03009KT 5SM FU OVC040 25/17 A2991 RMK SC8 DENSITY ALT 3624FT SLP126=
202407242000 METAR CYOD 242000Z 03012KT 4SM FU OVC040 24/17 A2991 RMK SC8 DENSITY ALT 3614FT SLP127=
202407242100 METAR CYOD 242100Z 04013KT 4SM FU OVC040 24/18 A2992 RMK SC8 DENSITY ALT 3514FT SLP129=
202407242200 METAR CYOD 242200Z 05008KT 4SM FU FEW020 OVC040 23/18 A2991 RMK SC2SC6 DENSITY ALT 3507FT SLP129=
202407242243 SPECI CYOD 242243Z 04012KT 2 1/2SM FU BKN020 OVC040 22/19 A2992 RMK SC5SC3 DENSITY ALT 3331FT SLP131=
202407242300 METAR CYOD 242300Z 04010KT 2SM FU BKN020 OVC040 21/19 A2992 RMK SC6SC2 DENSITY ALT 3224FT SLP132=
202407242346 SPECI CYOD 242346Z 04009KT 2SM -SHRA FU BKN008 OVC020 20/19 A2992 RMK SC5SC3 DENSITY ALT 3140FT SLP136=
202407250000 METAR CYOD 250000Z 04009KT 2SM -SHRA FU BKN008 OVC020 20/19 A2992 RMK SC5SC3 DENSITY ALT 3101FT SLP135=
202407250100 METAR CYOD 250100Z 04008KT 1 1/2SM -DZ FU BKN015 OVC020 20/19 A2992 RMK ST5SC3 DENSITY ALT 3049FT SLP133=
202407250200 METAR CYOD 250200Z 01007KT 1 1/2SM -DZ FU BKN005 OVC015 20/19 A2991 RMK SF5ST3 DENSITY ALT 3071FT SLP129=
202407250243 SPECI CYOD 250243Z 36007KT 2SM FU SCT012 OVC020 19/19 A2991 RMK SF4SC4 DENSITY ALT 3022FT SLP129=
202407250300 METAR CYOD 250300Z 01006KT 2SM FU FEW015 OVC025 19/19 A2991 RMK SF2SC6 DENSITY ALT 3034FT SLP127=
202407250400 METAR CYOD 250400Z 36004KT 2SM FU OVC020 19/18 A2990 RMK SC8 DENSITY ALT 3016FT SLP124=
202407250449 SPECI CYOD 250449Z 02005KT 2SM FU OVC012 19/19 A2988 RMK SC8 DENSITY ALT 3067FT SLP117=
202407250500 METAR CYOD 250500Z 01004KT 2SM FU OVC011 19/19 A2988 RMK SC8 DENSITY ALT 3067FT SLP115=
202407250517 SPECI CYOD 250517Z 36006KT 2SM -DZ FU OVC010 19/19 A2988 RMK SF8 DENSITY ALT 3053FT SLP114=
202407250600 METAR CYOD 250600Z 34006KT 2SM -DZ FU OVC015 19/18 A2988 RMK SF8 DENSITY ALT 3013FT SLP115=
202407250700 METAR CYOD 250700Z 01008KT 2SM FU OVC015 18/17 A2984 RMK SC8 DENSITY ALT 2943FT SLP104=
202407250800 METAR CYOD 250800Z 03007KT 6SM FU OVC020 18/15 A2982 RMK SC8 DENSITY ALT 2861FT SLP096=
202407250900 METAR CYOD 250900Z 00000KT 6SM FU OVC020 16/15 A2981 RMK SC8 DENSITY ALT 2728FT SLP095=
202407251000 METAR CYOD 251000Z 30003KT 5SM FU OVC010 17/16 A2979 RMK SC8 DENSITY ALT 2832FT SLP089=
202407251046 SPECI CYOD 251046Z 31004KT 3SM -DZ FU OVC010 17/16 A2980 RMK ST8 DENSITY ALT 2768FT SLP091=
202407251100 METAR CYOD 251100Z 32005KT 4SM -DZ FU OVC010 17/16 A2979 RMK ST8 DENSITY ALT 2794FT SLP090=
202407251112 SPECI CYOD 251112Z 32006KT 2SM FU OVC015 16/16 A2978 RMK ST8 DENSITY ALT 2767FT SLP084=
202407251200 METAR CYOD 251200Z 34004KT 2SM FU OVC007 17/16 A2977 RMK ST8 DENSITY ALT 2839FT SLP082=
202407251300 METAR CYOD 251300Z 02005KT 2SM FU SCT007 OVC020 17/15 A2973 RMK ST4SC4 DENSITY ALT 2888FT SLP070=
202407251400 METAR CYOD 251400Z 03005KT 2SM FU SCT007 OVC020 18/16 A2971 RMK ST4SC4 DENSITY ALT 3048FT SLP061=
202407251500 METAR CYOD 251500Z 04003KT 2SM FU OVC020 19/16 A2970 RMK SC8 DENSITY ALT 3148FT SLP057=
202407251600 METAR CYOD 251600Z 09006KT 2SM FU BKN020 OVC045 20/17 A2968 RMK SC5SC3 DENSITY ALT 3334FT SLP049=
202407251700 METAR CYOD 251700Z 13004KT 1 1/2SM FU SCT007 OVC020 20/18 A2966 RMK SC3SC5 DENSITY ALT 3345FT SLP045=
202407251720 SPECI CYOD 251720Z 20002KT 1 1/2SM FU BKN007 OVC020 20/18 A2965 RMK FU2SC4SC2 DENSITY ALT 3410FT SLP039=
202407251800 METAR CYOD 251800Z 15003KT 1 1/2SM FU OVC015 21/18 A2963 RMK FU2SC6 DENSITY ALT 3579FT SLP031=
202407251900 METAR CYOD 251900Z 21003KT 2SM FU SCT015 BKN030 23/19 A2961 RMK SC4SC2 DENSITY ALT 3825FT SLP024=
202407252000 METAR CYOD 252000Z 23005KT 2 1/2SM FU FEW015 OVC030 23/18 A2961 RMK SC2SC6 DENSITY ALT 3820FT SLP025=
202407252100 METAR CYOD 252100Z 24009KT 2 1/2SM FU OVC035 23/18 A2961 RMK SC8 DENSITY ALT 3816FT SLP026=
202407252200 METAR CYOD 252200Z 24016KT 2 1/2SM FU SCT010 OVC030 18/15 A2964 RMK SC4SC4 DENSITY ALT 3104FT SLP041=
202407252225 SPECI CYOD 252225Z 23012KT 2 1/2SM FU BKN015 OVC030 18/15 A2964 RMK SC6SC2 DENSITY ALT 3096FT SLP040=
202407252300 METAR CYOD 252300Z 24009KT 2 1/2SM FU OVC015 18/14 A2964 RMK SC8 DENSITY ALT 3100FT SLP040=
202407252320 SPECI CYOD 252320Z 23011KT 3SM FU BKN020 18/13 A2964 RMK SC7 DENSITY ALT 3142FT OCNL LTGCC 30 NM NE SLP039=
202407260000 METAR CYOD 260000Z 24015KT 5SM FU BKN030 18/13 A2963 RMK SC7 DENSITY ALT 3143FT OCNL DIST LTNG NE SLP037=
202407260100 METAR CYOD 260100Z 23013KT 8SM BKN036 19/13 A2962 RMK SC7 DENSITY ALT 3167FT FU SLP032=
202407260200 METAR CYOD 260200Z 24013KT 12SM FEW050 18/12 A2960 RMK CU2 DENSITY ALT 3095FT SLP027=
202407260300 METAR CYOD 260300Z 23013G24KT 12SM BKN050 16/11 A2960 RMK SC7 DENSITY ALT 2895FT FU SLP027=
202407260400 METAR CYOD 260400Z 22016KT 15SM FEW025 BKN050 15/10 A2959 RMK CU1SC6 DENSITY ALT 2717FT SLP023=
202407260500 METAR CYOD 260500Z 23014G28KT 15SM OVC035 14/08 A2958 RMK SC8 DENSITY ALT 2560FT FU SLP021=
202407260600 METAR CYOD 260600Z 22011KT 15SM BKN035 13/08 A2955 RMK SC7 DENSITY ALT 2464FT SLP011=
202407260700 METAR CYOD 260700Z 19012KT 15SM BKN030 12/08 A2952 RMK SC7 DENSITY ALT 2475FT SLP997=
202407260734 SPECI CYOD 260734Z 19014G25KT 15SM -SHRA OVC023 12/08 A2948 RMK SC8 DENSITY ALT 2502FT SLP986=
202407260800 METAR CYOD 260800Z 20017G25KT 12SM -SHRA OVC021 12/09 A2947 RMK SC8 DENSITY ALT 2457FT SLP981=
202407260900 METAR CYOD 260900Z CCA 20012KT 8SM -SHRA OVC016 12/09 A2942 RMK SC8 DENSITY ALT 2449FT SLP966=
202407261000 METAR CYOD 261000Z 20011KT 10SM -SHRA OVC013 11/10 A2937 RMK SC8 DENSITY ALT 2487FT SLP951=
202407261100 METAR CYOD 261100Z 22012KT 8SM -SHRA OVC008 11/11 A2935 RMK SC8 DENSITY ALT 2581FT SLP942=
202407261116 SPECI CYOD 261116Z 24016KT 15SM OVC006 12/11 A2935 RMK SC8 DENSITY ALT 2610FT SLP943=
202407261200 METAR CYOD 261200Z 25013KT 3SM -RA OVC008 12/12 A2936 RMK SC8 DENSITY ALT 2665FT SLP945=
202407261220 SPECI CYOD 261220Z 25021KT 4SM -RA OVC010 12/11 A2936 RMK SF8 DENSITY ALT 2622FT SLP946=
202407261300 METAR CYOD 261300Z 26017KT 4SM -RA OVC015 11/11 A2937 RMK ST8 DENSITY ALT 2556FT SLP952=
202407261400 METAR CYOD 261400Z 25015KT 4SM -RA OVC015 12/11 A2937 RMK ST8 DENSITY ALT 2581FT SLP950=
202407261500 METAR CYOD 261500Z 25016G27KT 4SM -RA OVC015 12/11 A2937 RMK ST8 DENSITY ALT 2580FT SLP952=
202407261600 METAR CYOD 261600Z 26018KT 4SM -RA OVC015 12/11 A2938 RMK ST8 DENSITY ALT 2555FT SLP957=
202407261700 METAR CYOD 261700Z 25017G27KT 4SM -RA OVC015 12/11 A2940 RMK ST8 DENSITY ALT 2587FT SLP963=
202407261800 METAR CYOD 261800Z 25015KT 6SM -RA OVC015 13/12 A2941 RMK ST8 DENSITY ALT 2684FT SLP966=
202407261900 METAR CYOD 261900Z 26018KT 6SM -RA OVC015 13/12 A2942 RMK ST8 DENSITY ALT 2736FT SLP971=
202407262000 METAR CYOD 262000Z 26021G30KT 5SM -RA OVC015 13/12 A2944 RMK ST8 DENSITY ALT 2736FT SLP976=
202407262100 METAR CYOD 262100Z 26017KT 3SM -RA BR OVC015 13/12 A2946 RMK ST8 DENSITY ALT 2681FT VIS VRB 2 1/4-4 SLP983=
202407262200 METAR CYOD 262200Z 26013KT 3SM -RA BR OVC015 13/12 A2947 RMK ST8 DENSITY ALT 2696FT VIS VRB 2 1/4-4 SLP989=
202407262300 METAR CYOD 262300Z 25016G26KT 4SM -RA BR OVC015 14/13 A2947 RMK ST8 DENSITY ALT 2738FT SLP988=
202407270000 METAR CYOD 270000Z 26015KT 4SM -RA BR BKN015 OVC050 13/12 A2948 RMK SF6SC2 DENSITY ALT 2683FT SLP991=
202407270019 SPECI CYOD 270019Z 26013KT 4SM -RA BR SCT015 OVC070 13/12 A2948 RMK SF4AC4 DENSITY ALT 2641FT SLP991=
202407270100 METAR CYOD 270100Z 26013KT 3SM -RA BR SCT015 OVC025 12/11 A2948 RMK SF4SC4 DENSITY ALT 2561FT SLP992=
202407270115 SPECI CYOD 270115Z 26013KT 15SM -RA BKN015 OVC020 12/11 A2948 RMK ST6SC2 DENSITY ALT 2534FT SLP993=
202407270200 METAR CYOD 270200Z 26012KT 12SM -RA BKN020 OVC030 12/11 A2948 RMK SC6SC2 DENSITY ALT 2560FT SLP991=
202407270217 SPECI CYOD 270217Z 26009KT 15SM BKN015 OVC025 12/12 A2948 RMK ST6SC2 DENSITY ALT 2564FT SLP991=
202407270242 SPECI CYOD 270242Z 26010KT 12SM -RA BKN012 OVC020 12/12 A2948 RMK SF7SC1 DENSITY ALT 2551FT SLP993=
202407270300 METAR CYOD 270300Z 27011KT 12SM -DZ OVC015 12/12 A2949 RMK SF8 DENSITY ALT 2541FT SLP994=
202407270400 METAR CYOD 270400Z 27012KT 15SM SCT010 OVC035 12/12 A2949 RMK SF4SC4 DENSITY ALT 2551FT SLP994=
202407270435 SPECI CYOD 270435Z 26012KT 15SM -DZ OVC010 12/12 A2948 RMK SF8 DENSITY ALT 2564FT SLP993=
202407270500 METAR CYOD 270500Z 26011KT 15SM OVC010 12/12 A2948 RMK SF8 DENSITY ALT 2564FT SLP993=
202407270507 SPECI CYOD 270507Z 26011KT 12SM -RA OVC010 12/12 A2948 RMK SF8 DENSITY ALT 2564FT SLP993=
202407270600 METAR CYOD 270600Z 25010KT 6SM -RA OVC008 12/12 A2948 RMK SF8 DENSITY ALT 2553FT SLP991=
202407270700 METAR CYOD 270700Z CCA 25011KT 15SM SCT010 OVC020 12/12 A2947 RMK SF3SC5 DENSITY ALT 2577FT SLP988=
202407270800 METAR CYOD 270800Z 25009KT 15SM -DZ OVC011 13/12 A2946 RMK SF8 DENSITY ALT 2614FT SLP985=
202407270900 METAR CYOD 270900Z 26012KT 15SM -DZ OVC011 13/12 A2946 RMK SF8 DENSITY ALT 2627FT SLP983=
202407271000 METAR CYOD 271000Z 25010KT 15SM -DZ OVC008 13/12 A2945 RMK SF8 DENSITY ALT 2627FT PCPN VRY LGT SLP981=
202407271100 METAR CYOD 271100Z 26011KT 15SM OVC010 13/12 A2945 RMK SF8 DENSITY ALT 2638FT SLP981=
202407271138 SPECI CYOD 271138Z 26009KT 12SM -RA OVC010 13/12 A2945 RMK SF8 DENSITY ALT 2651FT SLP980=
202407271200 METAR CYOD 271200Z 27011KT 8SM -RA OVC010 13/12 A2945 RMK SF8 DENSITY ALT 2627FT SLP980=
202407271300 METAR CYOD 271300Z 26012KT 6SM -RA OVC015 13/12 A2945 RMK SF8 DENSITY ALT 2642FT SLP982=
202407271400 METAR CYOD 271400Z 28013KT 6SM -RA OVC015 13/12 A2946 RMK SF8 DENSITY ALT 2672FT SLP982=
202407271500 METAR CYOD 271500Z 28010KT 7SM -RA OVC015 13/13 A2946 RMK SF8 DENSITY ALT 2723FT SLP985=
202407271600 METAR CYOD 271600Z 29011KT 7SM -RA OVC015 14/13 A2948 RMK SF8 DENSITY ALT 2725FT SLP991=
202407271700 METAR CYOD 271700Z 29013KT 8SM -RA OVC015 14/13 A2949 RMK SF8 DENSITY ALT 2750FT PCPN VRY LGT SLP993=
202407271721 SPECI CYOD 271721Z 29010KT 7SM OVC015 14/13 A2949 RMK SF8 DENSITY ALT 2753FT SLP995=
202407271800 METAR CYOD 271800Z 29011KT 7SM OVC015 14/13 A2950 RMK SF8 DENSITY ALT 2790FT SLP998=
202407271900 METAR CYOD 271900Z 30013KT 7SM OVC020 15/13 A2951 RMK SC8 DENSITY ALT 2916FT CIG VRB 15-25 SLP001=
202407272000 METAR CYOD 272000Z 30011KT 7SM OVC020 17/14 A2953 RMK SC8 DENSITY ALT 3113FT CIG VRB 15-25 SLP004=
202407272024 SPECI CYOD 272024Z 31009KT 7SM OVC025 17/14 A2953 RMK SC8 DENSITY ALT 3152FT SLP006=
202407272100 METAR CYOD 272100Z 31010KT 8SM OVC030 18/13 A2954 RMK SC8 DENSITY ALT 3222FT SLP009=
202407272200 METAR CYOD 272200Z 30010KT 8SM OVC030 18/13 A2955 RMK SC8 DENSITY ALT 3246FT SLP012=
202407272300 METAR CYOD 272300Z 31005KT 7SM OVC040 18/14 A2957 RMK SC8 DENSITY ALT 3220FT SLP017=
202407280000 METAR CYOD 280000Z 28008KT 7SM BKN040 20/14 A2957 RMK SC7 DENSITY ALT 3474FT SLP017=
202407280100 METAR CYOD 280100Z 29006KT 7SM SCT040 20/13 A2958 RMK SC4 DENSITY ALT 3442FT FU SLP019=
202407280200 METAR CYOD 280200Z 28005KT 7SM FEW040 19/13 A2959 RMK CU2 DENSITY ALT 3290FT SLP025=
202407280300 METAR CYOD 280300Z 28005KT 6SM FU FEW250 17/12 A2961 RMK CI2 DENSITY ALT 2942FT SLP032=
202407280400 METAR CYOD 280400Z 26007KT 6SM FU BKN060 15/12 A2962 RMK SC7 DENSITY ALT 2676FT SLP036=
202407280500 METAR CYOD 280500Z 25008KT 6SM FU BKN060 13/11 A2962 RMK SC6 DENSITY ALT 2521FT SLP038=
202407280600 METAR CYOD 280600Z 24007KT 6SM FU FEW060 13/11 A2963 RMK SC2 DENSITY ALT 2408FT SLP040=
202407280700 METAR CYOD 280700Z 00000KT 6SM FU BKN060 12/11 A2963 RMK SC6 DENSITY ALT 2332FT SLP041=
202407280800 METAR CYOD 280800Z 00000KT 6SM FU FEW050 11/11 A2963 RMK SC2 DENSITY ALT 2241FT SLP040=
202407280846 SPECI CYOD 280846Z 00000KT 3SM BR FU SKC 10/10 A2964 RMK DENSITY ALT 2079FT VIS LWR W SLP043=
202407280900 METAR CYOD 280900Z 00000KT 3SM BR FU SKC 10/09 A2964 RMK DENSITY ALT 1983FT SLP043=
202407281000 METAR CYOD 281000Z 00000KT 3SM BR FU SCT050 09/09 A2964 RMK SC4 DENSITY ALT 1900FT SLP044=
202407281100 METAR CYOD 281100Z 00000KT 1 1/2SM BR FU SCT045 09/09 A2964 RMK SC4 DENSITY ALT 1954FT SENT VIA CFWOS SLP045=
202407281116 SPECI CYOD 281116Z 14003KT 6SM MIFG FU BKN045 09/09 A2965 RMK SC6 DENSITY ALT 1929FT SENT VIA CFWOS SLP047=
202407281200 METAR CYOD 281200Z 00000KT 7SM MIFG BKN055 BKN100 09/09 A2965 RMK SC5AC1 DENSITY ALT 1956FT SLP048=
202407281300 METAR CYOD 281300Z 16004KT 7SM MIFG SCT050 BKN100 11/10 A2966 RMK SC4AC1 DENSITY ALT 2109FT SLP049=
202407281400 METAR CYOD 281400Z 20003KT 8SM FEW050 SCT220 14/13 A2966 RMK SC1CI2 DENSITY ALT 2528FT SLP048=
202407281500 METAR CYOD 281500Z CCA 24005KT 10SM FEW050 SCT220 18/14 A2966 RMK SC1CI3 DENSITY ALT 3073FT SLP046=
202407281600 METAR CYOD 281600Z 27007KT 15SM FEW090 SCT220 20/14 A2965 RMK AC1CI3 DENSITY ALT 3378FT SLP043=
202407281700 METAR CYOD 281700Z 23006KT 200V260 15SM FEW120 SCT220 23/14 A2964 RMK AC2CI1 DENSITY ALT 3684FT SLP040=
202407281800 METAR CYOD 281800Z 20005KT 15SM SCT080 SCT120 SCT220 24/14 A2964 RMK AC3AC1CI1 DENSITY ALT 3808FT SLP039=
202407281900 METAR CYOD 281900Z 23011KT 15SM FEW080 SCT220 25/13 A2964 RMK AC1CI2 DENSITY ALT 3984FT SLP039=
202407282000 METAR CYOD 282000Z CCA 24009KT 15SM SCT060 SCT220 26/14 A2963 RMK CU3CI1 DENSITY ALT 4109FT SLP035=
202407282100 METAR CYOD 282100Z 25010KT 15SM SCT060 BKN220 27/12 A2963 RMK CU3CI2 DENSITY ALT 4191FT SLP034=
202407282200 METAR CYOD 282200Z 26010KT 15SM SCT060 BKN220 27/12 A2963 RMK CU3CI3 DENSITY ALT 4168FT SLP035=
202407282300 METAR CYOD 282300Z 23008KT 15SM FEW060 BKN220 26/13 A2963 RMK CU2CI4 DENSITY ALT 4068FT SLP037=
202407290000 METAR CYOD 290000Z 20011KT 15SM FEW060 BKN220 27/12 A2963 RMK CU1CI4 DENSITY ALT 4155FT SLP035=
202407290100 METAR CYOD 290100Z 24005KT 15SM FEW060 BKN250 26/13 A2963 RMK CU2CI4 DENSITY ALT 4022FT SLP035=
202407290200 METAR CYOD 290200Z 23004KT 15SM FEW070 SCT250 25/13 A2963 RMK CU1CI3 DENSITY ALT 3918FT SLP034=
202407290300 METAR CYOD 290300Z 21003KT 15SM SCT250 23/14 A2964 RMK CI3 DENSITY ALT 3643FT SLP034=
202407290400 METAR CYOD 290400Z 20005KT 15SM FEW250 20/14 A2964 RMK CI2 DENSITY ALT 3368FT SLP036=
202407290500 METAR CYOD 290500Z 24006KT 15SM FEW250 19/13 A2964 RMK CI1 DENSITY ALT 3236FT SLP035=
202407290600 METAR CYOD 290600Z 22005KT 15SM FEW250 16/13 A2965 RMK CI1 DENSITY ALT 2856FT SLP039=
202407290700 METAR CYOD 290700Z 22002KT 15SM FEW250 14/13 A2965 RMK CI1 DENSITY ALT 2632FT SLP040=
202407290800 METAR CYOD 290800Z 20003KT 15SM SCT100 13/12 A2965 RMK AC3 DENSITY ALT 2499FT SLP039=
202407290900 METAR CYOD 290900Z 00000KT 15SM FEW100 13/12 A2965 RMK AC2 DENSITY ALT 2448FT SLP039=
202407291000 METAR CYOD 291000Z 00000KT 15SM MIFG FEW110 12/12 A2965 RMK AC2 DENSITY ALT 2329FT SLP040=
202407291100 METAR CYOD 291100Z 00000KT 15SM MIFG FEW110 12/11 A2965 RMK AC1 DENSITY ALT 2269FT SLP040=
202407291200 METAR CYOD 291200Z 16003KT 15SM MIFG FEW110 11/10 A2965 RMK AC1 DENSITY ALT 2161FT SLP043=
202407291300 METAR CYOD 291300Z 15005KT 15SM FEW250 14/13 A2965 RMK CI1 DENSITY ALT 2567FT SLP040=
202407291400 METAR CYOD 291400Z 18003KT 15SM FEW100 17/13 A2964 RMK AC1 DENSITY ALT 3020FT SLP035=
202407291500 METAR CYOD 291500Z 17002KT 15SM FEW100 20/15 A2963 RMK AC1 DENSITY ALT 3414FT SLP032=
202407291600 METAR CYOD 291600Z 19003KT 15SM SKC 24/14 A2962 RMK DENSITY ALT 3827FT SLP027=
202407291700 METAR CYOD 291700Z 23005KT 200V260 15SM SKC 26/15 A2961 RMK DENSITY ALT 4105FT SLP023=
202407291800 METAR CYOD 291800Z 19007KT 15SM FEW250 28/13 A2960 RMK CI1 DENSITY ALT 4298FT SLP020=
202407291900 METAR CYOD 291900Z 21009KT 180V240 15SM FEW110 FEW250 27/13 A2959 RMK AC1CI1 DENSITY ALT 4176FT SLP019=
202407292000 METAR CYOD 292000Z 20010KT 15SM FEW060 FEW250 30/12 A2958 RMK CU1CI1 DENSITY ALT 4520FT SLP015=
202407292100 METAR CYOD 292100Z 21010KT 15SM FEW070 SCT250 30/12 A2958 RMK CU2CI1 DENSITY ALT 4568FT SLP012=
202407292200 METAR CYOD 292200Z 20006KT 15SM FEW080 SCT250 30/11 A2957 RMK CU2CI1 DENSITY ALT 4543FT SLP010=
202407292300 METAR CYOD 292300Z 23005KT 15SM FEW080TCU SCT250 29/12 A2956 RMK TCU2CI1 DENSITY ALT 4442FT CU ASOCTD SLP009=
202407300000 METAR CYOD 300000Z 23006KT 15SM FEW080TCU FEW150 SCT250 29/11 A2955 RMK TCU1AS1CI2 DENSITY ALT 4438FT CU ASOCTD OCNL DIST LTNG S SLP007=
202407300100 METAR CYOD 300100Z 29003KT 15SM FEW080 SCT150 BKN250 28/12 A2955 RMK CU1AC2CI3 DENSITY ALT 4353FT FRQ LTGCCCG 22NM SW SLP004=
202407300143 SPECI CYOD 300143Z CCA 31009KT 12SM TS BKN085CB OVC250 26/13 A2955 RMK CB5CI3 DENSITY ALT 4104FT CB S MOVG NE FRQ LTGCCCG SLP006=
202407300200 METAR CYOD 300200Z 30008KT 12SM TS BKN085CB BKN120 OVC250 25/15 A2956 RMK CB5AC1CI2 DENSITY ALT 4058FT CB S MOVG NE FRQ LTGCCCG SLP006=
202407300230 SPECI CYOD 300230Z 22005KT 6SM -TSRA BR BKN050CB OVC100 22/14 A2960 RMK CB6AC2 DENSITY ALT 3672FT PRESRR CB OVRHD MOVG NE FRQ LTGCCCG SLP024=
202407300300 METAR CYOD 300300Z 19017KT 3/4SM R31R/P6000FT/D -TSRA BR BKN015 OVC045CB 17/16 A2964 RMK CF5CB3 DENSITY ALT 3028FT PRESRR CB OVRHD MOVG NE FRQ LTGCCCG SLP039=
202407300322 SPECI CYOD 300322Z 12004KT 4SM -TSRA BR SCT015 OVC050CB 16/15 A2965 RMK SF3CB5 DENSITY ALT 2914FT CB E MOVG NE FRQ LTGCCCG SLP042=
202407300400 METAR CYOD 300400Z 08002KT 8SM -TSRA FEW030 BKN060CB OVC100 17/16 A2963 RMK SC2CB4AC2 DENSITY ALT 2966FT CB NE MOVG NE FRQ LTGCCCG SLP031=
202407300430 SPECI CYOD 300430Z 02004KT 15SM SCT060 OVC100 17/16 A2963 RMK SC3AC5 DENSITY ALT 2994FT OCNL LTGCCCG 24NM NE SLP033=
202407300500 METAR CYOD 300500Z 32009KT 15SM SCT040 OVC120 17/15 A2963 RMK SC4AC4 DENSITY ALT 3014FT OCNL LTGCCCG 24NM NE SLP029=
202407300600 METAR CYOD 300600Z 31006KT 15SM FEW060 BKN160 OVC250 15/14 A2962 RMK SC2AC4CI2 DENSITY ALT 2784FT SLP028=
202407300700 METAR CYOD 300700Z 27008KT 15SM SCT080 OVC160 16/14 A2964 RMK AC4AC4 DENSITY ALT 2831FT SLP036=
202407300740 SPECI CYOD 300740Z 26008KT 15SM -SHRA SCT055 OVC080 16/14 A2967 RMK SC3AC5 DENSITY ALT 2833FT SLP043=
202407300800 METAR CYOD 300800Z 27003KT 12SM -SHRA FEW040 OVC080 16/14 A2967 RMK SC2AC6 DENSITY ALT 2773FT SLP042=
202407300900 METAR CYOD 300900Z 33002KT 12SM -SHRA BKN060 OVC100 15/14 A2966 RMK SC5AC3 DENSITY ALT 2747FT SLP040=
202407301000 METAR CYOD 301000Z 30003KT 15SM FEW070 OVC150 14/14 A2966 RMK AC2AC6 DENSITY ALT 2591FT SLP041=
202407301100 METAR CYOD 301100Z 26004KT 15SM SCT110 OVC220 14/13 A2968 RMK AC3CI5 DENSITY ALT 2526FT SLP047=
202407301200 METAR CYOD 301200Z 30005KT 15SM MIFG FEW110 SCT210 13/13 A2970 RMK AC2CI2 DENSITY ALT 2419FT SLP056=
202407301300 METAR CYOD 301300Z 00000KT 15SM MIFG FEW110 SCT220 14/13 A2972 RMK AC2CI2 DENSITY ALT 2441FT SLP064=
202407301400 METAR CYOD 301400Z 31003KT 15SM SCT150 BKN250 16/13 A2973 RMK AC3CI2 DENSITY ALT 2688FT SLP067=
202407301500 METAR CYOD 301500Z 34005KT 15SM FEW150 SCT250 17/13 A2974 RMK AC2CI2 DENSITY ALT 2844FT SLP075=
202407301600 METAR CYOD 301600Z 31003KT 15SM FEW060 FEW150 SCT250 18/13 A2975 RMK CU1AC2CI2 DENSITY ALT 2967FT SLP078=
202407301700 METAR CYOD 301700Z 32007KT 15SM FEW030 FEW150 SCT250 20/12 A2974 RMK CU1AC1CI2 DENSITY ALT 3163FT SLP074=
202407301800 METAR CYOD 301800Z 24005KT 15SM FEW040 FEW250 21/11 A2974 RMK CU1CI1 DENSITY ALT 3352FT SLP073=
202407301900 METAR CYOD 301900Z 27004KT 220V340 15SM FEW040 FEW250 22/11 A2974 RMK CU1CI1 DENSITY ALT 3485FT SLP071=
202407302000 METAR CYOD 302000Z 27011KT 15SM FEW050 FEW250 24/11 A2974 RMK CU1CI1 DENSITY ALT 3634FT SLP069=
202407302100 METAR CYOD 302100Z 23007KT 15SM SCT050 SCT250 24/12 A2973 RMK CU3CI1 DENSITY ALT 3698FT SLP066=
202407302200 METAR CYOD 302200Z 25007KT 15SM FEW060 SCT110 BKN250 24/12 A2972 RMK CU1AC3CI1 DENSITY ALT 3737FT SLP065=
202407302300 METAR CYOD 302300Z 22010KT 15SM FEW050 BKN070 BKN110 25/11 A2972 RMK CU1AC4AC1 DENSITY ALT 3794FT SLP063=
202407310000 METAR CYOD 310000Z 22005KT 15SM VCSH SCT050TCU BKN070 BKN110 22/13 A2971 RMK TCU3AC3AC1 DENSITY ALT 3517FT VCSH W SLP064=
202407310016 SPECI CYOD 310016Z 23004KT 15SM -SHRA SCT050TCU BKN070 BKN110 22/13 A2971 RMK TCU4AC2AC1 DENSITY ALT 3517FT SLP064=

# No short TAF reports from CYOD in databse.

###################################
#  large TAF from CYOD
###################################
202407010240 TAF CYOD 010240Z 0103/0124 16005KT P6SM OVC180 FM010500 13005KT
                       P6SM BKN060 OVC150 FM011400 VRB03KT P6SM
                       SCT070 BKN150 FM011800 VRB03KT P6SM SCT040
                       BKN060
                      TEMPO 0118/0124 P6SM -SHRA BKN040 OVC060
                       RMK NXT FCST BY 010600Z=
202407010540 TAF CYOD 010540Z 0106/0206 13005KT P6SM OVC130 FM011000 VRB03KT
                       P6SM SCT040 BKN120
                      TEMPO 0110/0118 P6SM -SHRA BKN040 OVC150
                       FM011800 VRB03KT P6SM SCT040
                      TEMPO 0118/0206 P6SM -SHRA BKN040
                      PROB30 0119/0204 4SM TSRA BR BKN040CB RMK
                       NXT FCST BY 011200Z=
202407011140 TAF CYOD 011140Z 0112/0212 VRB03KT P6SM SCT050 BKN120
                      TEMPO 0112/0204 P6SM -SHRA BKN050 OVC120
                       PROB30 0119/0204 4SM TSRA BR OVC050CB FM020400
                       VRB03KT P6SM SCT050
                      BECMG 0205/0207 28008KT RMK NXT FCST BY 011500Z=
202407011440 TAF CYOD 011440Z 0115/0212 VRB03KT P6SM BKN050 BKN120
                      TEMPO 0115/0204 P6SM -SHRA
                      PROB30 0119/0204 4SM TSRA BR OVC050CB FM020400
                       VRB03KT P6SM SCT050
                      BECMG 0205/0207 28008KT RMK NXT FCST BY 011800Z=
202407011740 TAF CYOD 011740Z 0118/0218 VRB03KT P6SM BKN050 BKN100 BKN250
                      TEMPO 0118/0204 P6SM -SHRA
                      PROB30 0119/0204 4SM TSRA BR OVC050CB FM020400
                       28005KT P6SM SCT050 BKN250
                      BECMG 0205/0207 28008KT
                      BECMG 0214/0216 28012KT RMK NXT FCST BY 012100Z=
202407012040 TAF CYOD 012040Z 0121/0218 VRB03KT P6SM BKN050 BKN100 BKN250
                      TEMPO 0121/0204 P6SM -SHRA
                      PROB30 0121/0204 4SM TSRA BR OVC050CB FM020400
                       28005KT P6SM SCT050 BKN250
                      BECMG 0205/0207 28008KT
                      BECMG 0214/0216 28012KT RMK NXT FCST BY 020000Z=
202407012214 TAF AMD CYOD 012214Z 0122/0218 VRB03KT P6SM BKN050 BKN100 BKN250
                       TEMPO 0122/0124 VRB20G35KT 4SM TSRA BR OVC050CB
                       FM020000 VRB03KT P6SM BKN050 BKN100 BKN250
                       TEMPO 0200/0204 P6SM -SHRA
                      PROB30 0200/0204 4SM TSRA BR OVC050CB FM020400
                       28005KT P6SM SCT050 BKN250
                      BECMG 0205/0207 28008KT
                      BECMG 0214/0216 28012KT RMK NXT FCST BY 020000Z=
202407012300 TAF AMD CYOD 020210Z 0202/0224 VRB03KT P6SM BKN050 BKN100 BKN250
                       TEMPO 0202/0209 4SM -SHRA BR
                      PROB30 0202/0204 VRB20G35KT 2SM TSRA BR OVC030CB
                       FM020900 28008KT P6SM SCT015 BKN050
                      TEMPO 0209/0218 BKN015 OVC050
                      BECMG 0214/0216 28012KT FM021800 28012KT
                       P6SM BKN025
                      TEMPO 0218/0220 P6SM -SHRA FM022000 28012KT
                       P6SM BKN040
                      TEMPO 0220/0224 P6SM -SHRA RMK NXT FCST BY
                       020300Z=
202407012340 TAF CYOD 012340Z 0200/0224 VRB03KT P6SM BKN050 BKN100 BKN250
                      TEMPO 0200/0203 VRB20G35KT 2SM TSRA BR OVC040CB
                       FM020300 28005KT P6SM BKN050 BKN100 BKN250
                       TEMPO 0203/0209 4SM -SHRA
                      PROB30 0203/0204 VRB20G35KT 2SM TSRA BR OVC030CB
                       FM020900 28008KT P6SM SCT015 BKN050
                      TEMPO 0209/0218 BKN015 OVC050
                      BECMG 0214/0216 28012KT FM021800 28012KT
                       P6SM BKN025
                      TEMPO 0218/0220 P6SM -SHRA FM022000 28012KT
                       P6SM BKN040
                      TEMPO 0220/0224 P6SM -SHRA RMK NXT FCST BY
                       020300Z=
202407020210 TAF AMD CYOD 020210Z 0202/0224 VRB03KT P6SM BKN050 BKN100 BKN250
                       TEMPO 0202/0209 4SM -SHRA BR
                      PROB30 0202/0204 VRB20G35KT 2SM TSRA BR OVC030CB
                       FM020900 28008KT P6SM SCT015 BKN050
                      TEMPO 0209/0218 BKN015 OVC050
                      BECMG 0214/0216 28012KT FM021800 28012KT
                       P6SM BKN025
                      TEMPO 0218/0220 P6SM -SHRA FM022000 28012KT
                       P6SM BKN040
                      TEMPO 0220/0224 P6SM -SHRA RMK NXT FCST BY
                       020300Z=
202407020240 TAF CYOD 020240Z 0203/0224 VRB03KT P6SM BKN050 BKN100 BKN250
                      TEMPO 0203/0209 4SM -SHRA BR
                      PROB30 0203/0204 VRB20G35KT 2SM TSRA BR OVC030CB
                       FM020900 28008KT P6SM SCT015 BKN050
                      TEMPO 0209/0218 BKN015 OVC050
                      BECMG 0214/0216 28012KT FM021800 28012KT
                       P6SM BKN025
                      TEMPO 0218/0220 P6SM -SHRA FM022000 28012KT
                       P6SM BKN040
                      TEMPO 0220/0224 P6SM -SHRA RMK NXT FCST BY
                       020600Z=
202407020540 TAF CYOD 020540Z 0206/0306 VRB03KT P6SM FEW050 SCT110
                      PROB30 0206/0208 2SM BR FM020800 29008KT
                       P6SM SCT050
                      TEMPO 0208/0211 BKN050
                      PROB30 0208/0211 1SM BR OVC004 FM021100 29008KT
                       P6SM FEW015 SCT050
                      TEMPO 0211/0218 BKN015 BKN050
                      PROB30 0211/0214 1SM BR OVC004 FM021800 29012KT
                       P6SM BKN025
                      TEMPO 0218/0220 P6SM -SHRA FM022000 29012KT
                       P6SM BKN040
                      TEMPO 0220/0224 P6SM -SHRA FM030000 29012KT
                       P6SM SCT050
                      BECMG 0301/0303 29008KT RMK NXT FCST BY 021200Z=
202407021140 TAF CYOD 021140Z 0212/0312 25005KT P6SM MIFG FEW015 SCT040
                      TEMPO 0212/0216 BKN015 BKN040
                      PROB30 0212/0214 1SM BR OVC004 FM021600 29012KT
                       P6SM VCSH BKN025 FM022100 29012KT P6SM SCT040
                       TEMPO 0221/0302 P6SM -SHRA BKN040
                      BECMG 0302/0304 29008KT RMK NXT FCST BY 021500Z=
202407021440 TAF CYOD 021440Z 0215/0312 VRB03KT P6SM VCSH BKN030 BKN180
                      TEMPO 0215/0221 FEW030 BKN180
                      BECMG 0215/0217 29012KT FM022100 29012KT
                       P6SM SCT040
                      TEMPO 0221/0302 P6SM -SHRA BKN040
                      BECMG 0302/0304 29008KT RMK NXT FCST BY 021800Z=
202407021505 TAF AMD CYOD 021505Z 0215/0312 29012KT P6SM VCSH BKN015 BKN070
                       BKN180
                      TEMPO 0215/0221 FEW015 SCT070 FM022100 29012KT
                       P6SM SCT040
                      TEMPO 0221/0302 P6SM -SHRA BKN040
                      BECMG 0302/0304 29008KT RMK NXT FCST BY 021800Z=
202407021740 TAF CYOD 021740Z 0218/0318 26008KT P6SM BKN020 BKN070
                      TEMPO 0218/0221 P6SM VCSH BKN010 FM022100
                       29010KT P6SM BKN040
                      TEMPO 0221/0302 P6SM VCSH SCT040 FM030200
                       29008KT P6SM BKN060 FM031200 29008KT P6SM
                       FEW015 BKN030 RMK NXT FCST BY 022100Z=
202407022006 TAF AMD CYOD 022006Z 0220/0318 28010KT P6SM OVC025
                      TEMPO 0220/0223 P6SM VCSH BKN015 FM022300
                       29010KT P6SM BKN040
                      TEMPO 0223/0302 P6SM VCSH SCT040 FM030200
                       29008KT P6SM BKN060 FM031200 29008KT P6SM
                       FEW015 BKN030 RMK NXT FCST BY 022100Z=
202407022040 TAF CYOD 022040Z 0221/0318 28010KT P6SM OVC025
                      TEMPO 0221/0223 P6SM VCSH BKN015 FM022300
                       29010KT P6SM BKN040
                      TEMPO 0223/0302 P6SM VCSH SCT040 FM030200
                       29008KT P6SM BKN060 FM031200 29008KT P6SM
                       FEW015 BKN030 RMK NXT FCST BY 030000Z=
202407022300 TAF AMD CYOD 030141Z 0301/0324 27010KT P6SM FEW040 BKN100
                      TEMPO 0301/0304 VRB15G25KT 2SM TSRA BKN020
                       BKN040CB FM030330 29008KT P6SM BKN060
                      TEMPO 0303/0305 P6SM -SHRA OVC050 FM031000
                       27008KT P6SM FEW010 SCT060 FM031400 29010KT
                       P6SM SCT020 BKN050 FM031700 27008KT P6SM
                       BKN030
                      PROB30 0319/0324 2SM TSRA BR BKN015 BKN030CB
                       RMK NXT FCST BY 030300Z=
202407022340 TAF CYOD 022340Z 0300/0324 28012KT P6SM FEW040 SCT150
                      TEMPO 0300/0302 P6SM -SHRA BKN040 FM030200
                       29008KT P6SM BKN060 FM031000 27008KT P6SM
                       FEW010 SCT060 FM031400 29010KT P6SM SCT020
                       BKN050 FM031700 27008KT P6SM BKN030
                      PROB30 0319/0324 2SM TSRA BR BKN015 BKN030CB
                       RMK NXT FCST BY 030300Z=
202407030141 TAF AMD CYOD 030141Z 0301/0324 27010KT P6SM FEW040 BKN100
                      TEMPO 0301/0304 VRB15G25KT 2SM TSRA BKN020
                       BKN040CB FM030330 29008KT P6SM BKN060
                      TEMPO 0303/0305 P6SM -SHRA OVC050 FM031000
                       27008KT P6SM FEW010 SCT060 FM031400 29010KT
                       P6SM SCT020 BKN050 FM031700 27008KT P6SM
                       BKN030
                      PROB30 0319/0324 2SM TSRA BR BKN015 BKN030CB
                       RMK NXT FCST BY 030300Z=
202407030240 TAF CYOD 030240Z 0303/0324 27010KT P6SM BKN060 BKN100
                      TEMPO 0303/0304 P6SM -SHRA BKN040 FM031000
                       27008KT P6SM FEW010 SCT060 FM031400 29010KT
                       P6SM SCT020 BKN050 FM031700 27008KT P6SM
                       BKN030
                      PROB30 0319/0324 2SM TSRA BR BKN015 BKN030CB
                       RMK NXT FCST BY 030600Z=
202407030540 TAF CYOD 030540Z 0306/0406 28008KT P6SM SCT060 BKN090 FM031000
                       27008KT P6SM FEW010 SCT060 FM031400 27010KT
                       P6SM SCT020 BKN040 FM031800 30008KT 6SM
                       FU BKN030
                      PROB30 0319/0402 2SM TSRA BR BKN015 BKN030CB
                       FM040200 27008KT 6SM FU SCT030 SCT100 RMK
                       NXT FCST BY 031200Z=
202407031140 TAF CYOD 031140Z 0312/0412 24008KT P6SM FEW015 SCT120 FM031500
                       27010KT P6SM SCT020 BKN030 BKN160 FM031800
                       30008KT 6SM FU BKN030
                      PROB30 0318/0402 2SM TSRA BR BKN015 BKN030CB
                       FM040200 27008KT 6SM FU SCT030 SCT100
                      PROB30 0405/0412 2SM FU RMK NXT FCST BY 031500Z=
202407031440 TAF CYOD 031440Z 0315/0412 27006KT P6SM SCT030 BKN120 FM031800
                       30008KT 6SM FU BKN030
                      PROB30 0318/0402 2SM TSRA BR BKN015 BKN030CB
                       FM040200 27008KT 6SM FU SCT030 SCT100
                      PROB30 0405/0412 2SM FU RMK NXT FCST BY 031800Z=
202407031740 TAF CYOD 031740Z 0318/0418 30008KT P6SM SCT030 BKN080 BKN120
                      TEMPO 0318/0402 6SM FU
                      PROB30 0318/0402 VRB15G30KT 2SM TSRA BR BKN030CB
                       FM040200 27006KT 6SM FU FEW030 SCT100 SCT260
                       PROB30 0405/0412 2SM FU FM041300 29008KT
                       P6SM BKN060 BKN260 RMK NXT FCST BY 032100Z=
202407031833 TAF AMD CYOD 031833Z 0318/0418 30010KT P6SM SCT030 BKN080 BKN120
                       TEMPO 0318/0324 VRB15G30KT 2SM TSRA BR BKN030CB
                       FM040000 30008KT P6SM SCT030 BKN080 BKN120
                       TEMPO 0400/0402 6SM FU
                      PROB30 0400/0402 VRB15G30KT 2SM TSRA BR BKN030CB
                       FM040200 27006KT 6SM FU FEW030 SCT100 SCT260
                       PROB30 0405/0412 2SM FU FM041300 29008KT
                       P6SM BKN060 BKN260 RMK NXT FCST BY 032100Z=
202407032040 TAF CYOD 032040Z 0321/0418 32010KT P6SM SCT050 BKN080 BKN120
                      TEMPO 0321/0324 VRB15G30KT 2SM TSRA BR BKN030CB
                       FM040000 30008KT P6SM SCT030 BKN080 BKN120
                       TEMPO 0400/0402 6SM FU
                      PROB30 0400/0402 VRB15G30KT 2SM TSRA BR BKN030CB
                       FM040200 27006KT 6SM FU FEW030 SCT100 SCT260
                       PROB30 0405/0412 2SM FU FM041300 29008KT
                       P6SM BKN060 BKN260 RMK NXT FCST BY 040000Z=
202407032300 TAF AMD CYOD 040055Z 0400/0424 30008KT P6SM SCT050 BKN100 FM040500
                       29005KT P6SM FEW060 FEW250
                      TEMPO 0405/0412 6SM FU
                      PROB30 0405/0412 2SM BR FU FM041900 27010KT
                       P6SM VCSH BKN040 BKN250
                      PROB30 0420/0424 VRB15G25KT 2SM TSRA BR BKN040CB
                       RMK NXT FCST BY 040300Z=
202407032340 TAF CYOD 032340Z 0400/0424 30008KT P6SM BKN040 BKN250
                      TEMPO 0400/0401 VRB15G30KT 2SM TSRA BR BKN040CB
                       PROB30 0401/0403 2SM TSRA BR BKN040CB FM040500
                       29005KT P6SM FEW060 FEW250
                      TEMPO 0405/0412 6SM FU
                      PROB30 0405/0412 2SM BR FU FM041900 27010KT
                       P6SM VCSH BKN040 BKN250
                      PROB30 0420/0424 VRB15G25KT 2SM TSRA BR BKN040CB
                       RMK NXT FCST BY 040300Z=
202407040055 TAF AMD CYOD 040055Z 0400/0424 30008KT P6SM SCT050 BKN100 FM040500
                       29005KT P6SM FEW060 FEW250
                      TEMPO 0405/0412 6SM FU
                      PROB30 0405/0412 2SM BR FU FM041900 27010KT
                       P6SM VCSH BKN040 BKN250
                      PROB30 0420/0424 VRB15G25KT 2SM TSRA BR BKN040CB
                       RMK NXT FCST BY 040300Z=
202407040240 TAF CYOD 040240Z 0403/0424 27008KT P6SM SCT060 BKN100 FM040500
                       29005KT P6SM FEW060 FEW250
                      TEMPO 0405/0412 6SM FU
                      PROB30 0405/0412 2SM BR FU FM041900 27010KT
                       P6SM VCSH BKN040 BKN250
                      PROB30 0420/0424 VRB15G25KT 2SM TSRA BR BKN040CB
                       RMK NXT FCST BY 040600Z=
202407040540 TAF CYOD 040540Z 0406/0506 26008KT P6SM FEW060 FEW250
                      PROB30 0410/0413 2SM BR
                      BECMG 0417/0419 27010KT FM041900 27010KT
                       P6SM VCSH BKN040 BKN250
                      PROB30 0420/0501 VRB15G25KT 2SM TSRA BR BKN040CB
                       FM050500 26008KT P6SM FEW040 FEW250 RMK
                       NXT FCST BY 041200Z=
202407041140 TAF CYOD 041140Z 0412/0512 24006KT P6SM BKN080 BKN120
                      BECMG 0416/0418 27010KT FM041900 27010KT
                       P6SM VCSH SCT040 SCT100 BKN250
                      PROB30 0420/0501 VRB15G25KT 2SM TSRA BR BKN040CB
                       FM050500 26008KT P6SM FEW060 FEW250 RMK
                       NXT FCST BY 041500Z=
202407041440 TAF CYOD 041440Z 0415/0512 25006KT P6SM BKN080 BKN120
                      BECMG 0416/0418 27010KT FM041900 27010KT
                       P6SM VCSH SCT040 SCT100 BKN250
                      PROB30 0420/0501 VRB15G25KT 2SM TSRA BR BKN040CB
                       FM050500 26008KT P6SM FEW060 FEW250 RMK
                       NXT FCST BY 041800Z=
202407041740 TAF CYOD 041740Z 0418/0518 27008KT P6SM FEW040 SCT100
                      TEMPO 0418/0420 6SM FU FM042000 27010KT P6SM
                       BKN040 BKN100 BKN250
                      TEMPO 0420/0505 6SM VCSH FU
                      PROB30 0421/0501 VRB15G25KT 2SM TSRA BR BKN040CB
                       FM050500 26008KT P6SM FEW060 SCT250
                      BECMG 0516/0518 27012KT RMK NXT FCST BY 042100Z=
202407041939 TAF AMD CYOD 041939Z 0419/0518 30008KT P6SM FEW040 SCT100
                      TEMPO 0419/0420 6SM FU FM042000 28010KT P6SM
                       VCSH BKN040 BKN100 BKN250
                      TEMPO 0420/0501 VRB15G25KT 2SM TSRA BR BKN040CB
                       FM050500 26008KT P6SM FEW060 SCT250
                      BECMG 0516/0518 27012KT RMK NXT FCST BY 042100Z=
202407041941 TAF AMD CYOD 041941Z 0419/0518 27010KT P6SM VCSH BKN040 BKN100
                       BKN250
                      TEMPO 0420/0501 VRB15G25KT 2SM TSRA BR BKN040CB
                       FM050500 26008KT P6SM FEW060 SCT250
                      BECMG 0516/0518 27012KT RMK NXT FCST BY 042100Z=
202407041942 TAF AMD CYOD 041942Z 0419/0518 27010KT P6SM VCSH BKN040 BKN100
                       BKN250
                      TEMPO 0419/0501 VRB15G25KT 2SM TSRA BR BKN040CB
                       FM050500 26008KT P6SM FEW060 SCT250
                      BECMG 0516/0518 27012KT RMK NXT FCST BY 042100Z=
202407042040 TAF CYOD 042040Z 0421/0518 27010KT P6SM VCSH SCT040 SCT100
                      TEMPO 0421/0501 VRB15G25KT 2SM TSRA BR BKN040CB
                       FM050500 26008KT P6SM FEW060 SCT250
                      BECMG 0516/0518 27012KT RMK NXT FCST BY 050000Z=
202407042340 TAF CYOD 042340Z 0500/0524 02010KT P6SM VCSH SCT060
                      TEMPO 0500/0501 VRB15G25KT 2SM TSRA BR BKN060CB
                       BECMG 0501/0503 27010KT FM050500 27008KT
                       6SM FU FEW060 SCT250
                      BECMG 0516/0518 27015KT FM051900 27015KT
                       P6SM SCT050
                      PROB30 0521/0524 2SM -TSRA BR BKN050CB RMK
                       NXT FCST BY 050300Z=
202407050240 TAF CYOD 050240Z 0503/0524 27010KT P6SM FEW060 SCT100 BKN210 FM050500
                       27008KT 6SM FU FEW060 SCT210
                      BECMG 0516/0518 27015KT FM051900 27015KT
                       P6SM SCT050
                      PROB30 0521/0524 2SM -TSRA BR BKN050CB RMK
                       NXT FCST BY 050600Z=
202407050540 TAF CYOD 050540Z 0506/0606 25005KT 6SM FU FEW220
                      BECMG 0513/0515 27010KT
                      BECMG 0516/0518 27015KT FM051900 27015KT
                       P6SM SCT050
                      PROB30 0521/0602 2SM -TSRA BR BKN050CB FM060200
                       27008KT P6SM SCT250 RMK NXT FCST BY 051200Z=
202407051140 TAF CYOD 051140Z 0512/0612 25005KT 6SM FU FEW220
                      BECMG 0513/0515 27008KT
                      BECMG 0516/0518 27012KT FM051900 27015KT
                       P6SM SCT050
                      PROB30 0521/0603 VRB10G25KT 2SM -TSRA BR
                       BKN050CB FM060300 27008KT P6SM SCT250
                      BECMG 0606/0608 27005KT RMK NXT FCST BY 051500Z=
202407051440 TAF CYOD 051440Z 0515/0612 27008KT P6SM SKC
                      BECMG 0516/0518 27012KT FM051900 27015KT
                       P6SM SCT050
                      PROB30 0521/0603 VRB10G25KT 2SM -TSRA BR
                       BKN050CB FM060300 27008KT P6SM SCT250
                      BECMG 0606/0608 27005KT RMK NXT FCST BY 051800Z=
202407051740 TAF CYOD 051740Z 0518/0618 29012KT P6SM SKC FM052100 27015KT P6SM
                       SCT050
                      PROB30 0521/0603 VRB10G25KT 2SM -TSRA BR
                       BKN050CB FM060300 27008KT P6SM SCT250
                      BECMG 0606/0608 27005KT FM061600 28010KT
                       P6SM BKN250 RMK NXT FCST BY 052100Z=
202407052040 TAF CYOD 052040Z 0521/0618 27012KT P6SM SCT050
                      PROB30 0521/0603 VRB10G25KT 2SM -TSRA BR
                       BKN050CB FM060300 27008KT P6SM SCT250
                      BECMG 0606/0608 27005KT FM061600 28010KT
                       P6SM BKN250 RMK NXT FCST BY 060000Z=
202407052340 TAF CYOD 052340Z 0600/0624 27012KT P6SM FEW050 FM060300 27008KT
                       P6SM FEW080 SCT250
                      BECMG 0606/0608 27005KT FM061500 28010KT
                       P6SM BKN250 FM062000 31012KT P6SM SCT060
                       BKN100 BKN180
                      PROB30 0620/0624 2SM -TSRA BR BKN060CB RMK
                       NXT FCST BY 060300Z=
202407060240 TAF CYOD 060240Z 0603/0624 27008KT P6SM FEW080 SCT250
                      BECMG 0606/0608 27005KT FM061500 28010KT
                       P6SM BKN250 FM062000 31012KT P6SM SCT060
                       BKN100 BKN180
                      PROB30 0620/0624 2SM -TSRA BR BKN060CB RMK
                       NXT FCST BY 060600Z=
202407060540 TAF CYOD 060540Z 0606/0706 24005KT P6SM FEW080 SCT250 FM061500
                       28010KT P6SM BKN250 FM062000 31012KT P6SM
                       SCT060 BKN100 BKN180
                      PROB30 0620/0702 2SM -TSRA BR BKN060CB
                      BECMG 0702/0704 VRB03KT RMK NXT FCST BY 061200Z=
202407061140 TAF CYOD 061140Z 0612/0712 24005KT P6SM FEW200 FM061500 28010KT
                       P6SM BKN250 FM062000 31012G22KT P6SM SCT060
                       BKN100 BKN180
                      PROB30 0620/0702 VRB15G30KT 2SM -TSRA BR
                       BKN060CB
                      BECMG 0702/0704 VRB03KT SKC RMK NXT FCST
                       BY 061500Z=
202407061440 TAF CYOD 061440Z 0615/0712 28010KT P6SM SCT250 FM062000 31012G22KT
                       P6SM SCT060 BKN100 BKN180
                      PROB30 0620/0702 VRB15G30KT 2SM -TSRA BR
                       BKN060CB
                      BECMG 0702/0704 VRB03KT SKC RMK NXT FCST
                       BY 061800Z=
202407061740 TAF CYOD 061740Z 0618/0718 29008KT P6SM BKN200 FM062000 31012G22KT
                       P6SM SCT060 BKN100 BKN180
                      PROB30 0620/0702 VRB15G30KT 2SM -TSRA BR
                       BKN060CB
                      BECMG 0702/0704 VRB03KT SKC RMK NXT FCST
                       BY 062100Z=
202407061932 TAF AMD CYOD 061932Z 0619/0718 31010KT P6SM FEW050 BKN200
                      TEMPO 0619/0621 VRB10G25KT 2SM TSRA BR BKN050CB
                       BKN200 FM062030 31012G22KT P6SM SCT060 BKN100
                       BKN180
                      PROB30 0620/0702 VRB15G30KT 2SM -TSRA BR
                       BKN060CB
                      BECMG 0702/0704 VRB03KT SKC RMK NXT FCST
                       BY 062100Z=
202407062040 TAF CYOD 062040Z 0621/0718 31015G25KT P6SM SCT060 BKN100
                      TEMPO 0621/0623 VRB15G30KT 2SM TSRA BR BKN060CB
                       FM062230 31012G22KT P6SM SCT060 BKN100 BKN180
                       PROB30 0622/0702 VRB15G30KT 2SM -TSRA BR
                       BKN060CB
                      BECMG 0702/0704 VRB03KT SKC RMK NXT FCST
                       BY 070000Z=
202407062130 TAF AMD CYOD 062130Z 0621/0718 31010KT P6SM FEW050 BKN100 BKN200
                       PROB30 0621/0702 VRB15G30KT 2SM -TSRA BR
                       BKN060CB
                      BECMG 0702/0704 VRB03KT SKC RMK NXT FCST
                       BY 070000Z=
202407062300 TAF AMD CYOD 070105Z 0701/0724 30010KT 5SM FU FEW080 BKN100 BKN200
                       TEMPO 0701/0718 6SM FU
                      BECMG 0702/0704 VRB03KT FM071800 27008KT
                       P6SM FEW080 FEW200 RMK NXT FCST BY 070300Z=
202407062340 TAF CYOD 062340Z 0700/0724 30010KT P6SM FEW050 BKN100 BKN200
                      PROB30 0700/0702 VRB15G30KT 2SM -TSRA BR
                       BKN060CB
                      BECMG 0702/0704 VRB03KT FM070600 VRB03KT
                       P6SM FEW050 SCT100 SCT200
                      TEMPO 0706/0718 6SM FU FM071800 27008KT P6SM
                       FEW080 FEW200 RMK NXT FCST BY 070300Z=
202407070105 TAF AMD CYOD 070105Z 0701/0724 30010KT 5SM FU FEW080 BKN100 BKN200
                       TEMPO 0701/0718 6SM FU
                      BECMG 0702/0704 VRB03KT FM071800 27008KT
                       P6SM FEW080 FEW200 RMK NXT FCST BY 070300Z=
202407070240 TAF CYOD 070240Z 0703/0724 32005KT 3SM FU FEW080 BKN100 BKN200
                       TEMPO 0703/0718 6SM FU
                      PROB30 0703/0715 2SM FU FM071800 27008KT
                       P6SM FEW080 FEW200 RMK NXT FCST BY 070600Z=
202407070540 TAF CYOD 070540Z 0706/0806 31005KT 3SM FU SCT080 SCT250
                      TEMPO 0706/0715 6SM FU
                      PROB30 0706/0715 2SM FU FM071500 VRB03KT
                       P6SM FEW080 FEW250
                      TEMPO 0715/0719 5SM FU FM071900 27008KT P6SM
                       FEW080 FEW250 RMK NXT FCST BY 071200Z=
202407071140 TAF CYOD 071140Z 0712/0812 31005KT 3SM FU SCT080 SCT250
                      TEMPO 0712/0715 6SM FU
                      PROB30 0712/0715 2SM FU FM071500 VRB03KT
                       P6SM FEW080 FEW250
                      TEMPO 0715/0719 5SM FU FM071900 27008KT P6SM
                       FEW080 FEW250
                      BECMG 0802/0804 18005KT FM080800 VRB03KT
                       P6SM SCT080 RMK NXT FCST BY 071500Z=
202407071403 TAF AMD CYOD 071403Z 0714/0812 VRB03KT 2SM FU SKC
                      TEMPO 0714/0715 6SM FU FM071600 VRB03KT P6SM
                       FEW080 FEW250
                      TEMPO 0716/0720 5SM FU FM072000 27008KT P6SM
                       FEW080 FEW250
                      BECMG 0802/0804 18005KT FM080800 VRB03KT
                       P6SM SCT080 RMK NXT FCST BY 071500Z=
202407071440 TAF CYOD 071440Z 0715/0812 VRB03KT 2SM FU SKC
                      TEMPO 0715/0716 6SM FU FM071600 VRB03KT P6SM
                       FEW080 FEW250
                      TEMPO 0716/0720 5SM FU FM072000 27008KT P6SM
                       FEW080 FEW250
                      BECMG 0802/0804 18005KT FM080800 VRB03KT
                       P6SM SCT080 RMK NXT FCST BY 071800Z=
202407071602 TAF AMD CYOD 071602Z 0716/0812 VRB03KT 2SM FU SKC
                      TEMPO 0716/0718 6SM FU FM071800 VRB03KT P6SM
                       FEW080 FEW250
                      TEMPO 0718/0721 5SM FU FM072100 27008KT P6SM
                       FEW080 FEW250
                      BECMG 0802/0804 18005KT FM080800 VRB03KT
                       P6SM SCT080 RMK NXT FCST BY 071800Z=
202407071740 TAF CYOD 071740Z 0718/0818 VRB03KT P6SM SKC
                      TEMPO 0718/0721 3SM FU FM072100 27008KT P6SM
                       FEW080 FEW250
                      BECMG 0802/0804 18005KT FM080800 VRB03KT
                       P6SM SCT080 FM081600 25005KT P6SM SKC RMK
                       NXT FCST BY 072100Z=
202407072040 TAF CYOD 072040Z 0721/0818 VRB03KT P6SM SKC
                      TEMPO 0721/0801 4SM FU
                      BECMG 0802/0804 18005KT FM080800 VRB03KT
                       P6SM SCT080 FM081600 25005KT P6SM SKC RMK
                       NXT FCST BY 080000Z=
202407072340 TAF CYOD 072340Z 0800/0824 22005KT 6SM FU FEW060 FM080400 VRB03KT
                       6SM FU SCT080
                      TEMPO 0804/0818 4SM FU FM081800 25005KT P6SM
                       SKC RMK NXT FCST BY 080300Z=
202407080240 TAF CYOD 080240Z 0803/0824 22005KT 6SM FU FEW070 SCT250 FM080400
                       VRB03KT 6SM FU SCT080
                      TEMPO 0804/0818 4SM FU FM081800 25005KT P6SM
                       SKC RMK NXT FCST BY 080600Z=
202407080540 TAF CYOD 080540Z 0806/0906 VRB03KT 4SM FU FEW180
                      TEMPO 0806/0818 6SM FU FM081800 27005KT P6SM
                       SKC
                      BECMG 0901/0903 30005KT 5SM FU RMK NXT FCST
                       BY 081200Z=
202407081140 TAF CYOD 081140Z 0812/0912 VRB03KT 5SM FU SCT110
                      TEMPO 0812/0816 6SM FU FM081600 VRB03KT 5SM
                       FU BKN260
                      TEMPO 0816/0819 P6SM NSW FM081900 26007KT
                       P6SM SKC FM090903 VRB03KT 5SM FU SCT090
                       RMK NXT FCST BY 081500Z=
202407081440 TAF CYOD 081440Z 0815/0912 VRB03KT 6SM FU FEW090
                      TEMPO 0815/0816 5SM FU FM081600 VRB03KT 5SM
                       FU BKN260
                      TEMPO 0816/0819 P6SM NSW FM081900 26007KT
                       P6SM SKC FM090903 VRB03KT 5SM FU SCT090
                       RMK NXT FCST BY 081800Z=
202407081740 TAF CYOD 081740Z 0818/0918 24005KT P6SM FEW090 FM090300 VRB03KT
                       5SM FU FEW120 RMK NXT FCST BY 082100Z=
202407082040 TAF CYOD 082040Z 0821/0918 28005KT P6SM SCT100 FM090300 VRB03KT
                       5SM FU FEW120 RMK NXT FCST BY 090000Z=
202407082300 TAF AMD CYOD 090010Z 0900/0924 30008KT P6SM FEW080 SCT250
                      TEMPO 0900/0901 31015KT P6SM -SHRA BKN080
                       FM090400 VRB03KT 5SM FU FEW120
                      BECMG 0915/0917 P6SM NSW FEW250 RMK NXT FCST
                       BY 090300Z=
202407082340 TAF CYOD 082340Z 0900/0924 30008KT P6SM FEW080 SCT250
                      PROB30 0900/0902 VRB15G25KT 2SM TSRA BR BKN060CB
                       FM090400 VRB03KT 5SM FU FEW120
                      BECMG 0915/0917 P6SM NSW FEW250 RMK NXT FCST
                       BY 090300Z=
202407090010 TAF AMD CYOD 090010Z 0900/0924 30008KT P6SM FEW080 SCT250
                      TEMPO 0900/0901 31015KT P6SM -SHRA BKN080
                       FM090400 VRB03KT 5SM FU FEW120
                      BECMG 0915/0917 P6SM NSW FEW250 RMK NXT FCST
                       BY 090300Z=
202407090240 TAF CYOD 090240Z 0903/0924 VRB03KT P6SM FEW080 SCT150
                      TEMPO 0904/0916 5SM FU FEW150 FM091600 VRB03KT
                       P6SM FEW250 RMK NXT FCST BY 090600Z=
202407090544 TAF CYOD 090544Z 0906/1006 VRB03KT P6SM FEW080 SCT150 FM091600
                       VRB03KT P6SM FEW250 RMK NXT FCST BY 091200Z=
202407091140 TAF CYOD 091140Z 0912/1012 VRB03KT P6SM SCT090 FM091900 20007KT
                       P6SM FEW090 SCT250 FM100200 18005KT P6SM
                       FEW250 RMK NXT FCST BY 091500Z=
202407091440 TAF CYOD 091440Z 0915/1012 VRB03KT P6SM SCT090 FM091900 20007KT
                       P6SM FEW090 SCT250 FM100200 18005KT P6SM
                       FEW250 RMK NXT FCST BY 091800Z=
202407091740 TAF CYOD 091740Z 0918/1018 20007KT P6SM FEW080 FM100200 18005KT
                       P6SM FEW250
                      BECMG 1015/1017 18012KT RMK NXT FCST BY 092100Z=
202407092040 TAF CYOD 092040Z 0921/1018 20008KT P6SM FEW080 FM100200 18005KT
                       P6SM FEW250
                      BECMG 1015/1017 18012KT RMK NXT FCST BY 100000Z=
202407092340 TAF CYOD 092340Z 1000/1024 20007KT P6SM FEW080 FM100200 18006KT
                       P6SM FEW250
                      BECMG 1015/1017 17011KT RMK NXT FCST BY 100300Z=
202407100240 TAF CYOD 100240Z 1003/1024 VRB03KT P6SM SKC
                      BECMG 1015/1017 17011KT RMK NXT FCST BY 100600Z=
202407100540 TAF CYOD 100540Z 1006/1106 18006KT P6SM FEW120
                      BECMG 1015/1017 17012KT
                      BECMG 1102/1104 VRB03KT RMK NXT FCST BY 101200Z=
202407101140 TAF CYOD 101140Z 1012/1112 19005KT P6SM SKC
                      BECMG 1015/1017 16012KT FM110000 14012KT
                       P6SM FEW080
                      BECMG 1102/1104 VRB03KT RMK NXT FCST BY 101500Z=
202407101440 TAF CYOD 101440Z 1015/1112 17008KT P6SM FEW100
                      BECMG 1015/1017 16012KT
                      BECMG 1102/1104 VRB03KT RMK NXT FCST BY 101800Z=
202407101740 TAF CYOD 101740Z 1018/1118 17012KT P6SM FEW100
                      BECMG 1101/1103 12005KT FM110600 VRB03KT
                       P6SM FEW230 FM111500 34012KT P6SM SCT130
                       RMK NXT FCST BY 102100Z=
202407102040 TAF CYOD 102040Z 1021/1118 19015KT P6SM FEW100
                      BECMG 1101/1103 12005KT FM110600 VRB03KT
                       P6SM FEW230 FM111500 34012KT P6SM SCT130
                       RMK NXT FCST BY 110000Z=
202407102340 TAF CYOD 102340Z 1100/1124 17015KT P6SM FEW100
                      BECMG 1101/1103 12008KT FM110600 VRB03KT
                       P6SM FEW240 FM111500 35008KT P6SM BKN140
                       FM111900 32012KT P6SM SKC RMK NXT FCST BY
                       110300Z=
202407110244 TAF CYOD 110244Z 1103/1124 12005KT P6SM FEW250 FM110600 VRB03KT
                       P6SM FEW240 FM111500 35008KT P6SM BKN140
                       FM111900 32012KT P6SM SKC RMK NXT FCST BY
                       110600Z=
202407110540 TAF CYOD 110540Z 1106/1206 12005KT P6SM SKC
                      BECMG 1106/1108 VRB03KT FM111500 35010KT
                       P6SM SCT140 FM112000 35015KT P6SM SKC FM120400
                       32008KT P6SM FEW080 BKN120 RMK NXT FCST
                       BY 111200Z=
202407112040 TAF CYOD 112040Z 1121/1218 07010KT P6SM SCT120 SCT250
                      TEMPO 1121/1203 P6SM -SHRA BKN120
                      BECMG 1121/1123 34012KT FM120300 31008KT
                       P6SM SCT100 FM121000 25008KT P6SM FEW080
                       FEW180 FM121400 25010KT P6SM SKC
                      BECMG 1216/1218 27015G25KT RMK NXT FCST BY
                       120000Z=
202407112300 TAF AMD CYOD 120114Z 1201/1224 30012KT P6SM BKN100
                      TEMPO 1201/1203 P6SM TSRA BKN060CB FM120300
                       30008KT P6SM SCT100 FM121000 25008KT P6SM
                       FEW080 FEW180 FM121400 25010KT P6SM SKC
                       FM121800 27015G25KT P6SM SCT080 RMK NXT
                       FCST BY 120300Z=
202407112340 TAF CYOD 112340Z 1200/1224 33005KT P6SM SCT150
                      TEMPO 1200/1203 P6SM -SHRA BKN120
                      PROB30 1200/1203 VRB15G25KT 3SM TSRA BR OVC030CB
                       FM120300 31008KT P6SM SCT100 FM121000 25008KT
                       P6SM FEW080 FEW180 FM121400 25010KT P6SM
                       SKC FM121800 27015G25KT P6SM SCT080 RMK
                       NXT FCST BY 120300Z=
202407120114 TAF AMD CYOD 120114Z 1201/1224 30012KT P6SM BKN100
                      TEMPO 1201/1203 P6SM TSRA BKN060CB FM120300
                       30008KT P6SM SCT100 FM121000 25008KT P6SM
                       FEW080 FEW180 FM121400 25010KT P6SM SKC
                       FM121800 27015G25KT P6SM SCT080 RMK NXT
                       FCST BY 120300Z=
202407120240 TAF CYOD 120240Z 1203/1224 32012KT P6SM FEW090 BKN120
                      BECMG 1203/1205 30008KT FEW120 FM121000 25008KT
                       P6SM FEW080 FEW180 FM121400 25010KT P6SM
                       SKC FM121800 27015G25KT P6SM SCT080 RMK
                       NXT FCST BY 120600Z=
202407120540 TAF CYOD 120540Z 1206/1306 31008KT P6SM SCT150 BKN250 FM121000
                       25008KT P6SM SKC FM121800 28015G25KT P6SM
                       SCT080 FM130300 32008KT P6SM FEW060 RMK
                       NXT FCST BY 121200Z=
202407121140 TAF CYOD 121140Z 1212/1312 30008KT P6SM SCT090 FM121400 25008KT
                       P6SM SKC
                      BECMG 1215/1217 28015G28KT FM121800 28015G28KT
                       P6SM SCT070 FM130300 32008KT P6SM FEW060
                       FM130600 36005KT P6SM SKC
                      BECMG 1308/1310 22005KT RMK NXT FCST BY 121500Z=
202407121440 TAF CYOD 121440Z 1215/1312 26008KT P6SM FEW120
                      BECMG 1216/1218 28015G28KT FM121800 28015G28KT
                       P6SM SCT070 FM130300 32008KT P6SM FEW060
                       FM130600 36005KT P6SM SKC
                      BECMG 1308/1310 22005KT RMK NXT FCST BY 121800Z=
202407121741 TAF CYOD 121741Z 1218/1318 28015KT P6SM FEW070 FEW120 FM122000
                       29015G25KT P6SM SCT070 FM130200 33008KT
                       P6SM SKC
                      BECMG 1307/1309 22005KT FM131400 24008KT
                       P6SM FEW050 FEW120 SCT220 FM131700 25012KT
                       P6SM SCT060 BKN120 RMK NXT FCST BY 122100Z=
202407122040 TAF CYOD 122040Z 1221/1318 28015G25KT P6SM BKN060 FM130200 33008KT
                       P6SM FEW060
                      BECMG 1307/1309 22005KT FM131400 24008KT
                       P6SM FEW050 FEW120 SCT220 FM131700 25012KT
                       P6SM SCT060 BKN120 RMK NXT FCST BY 130000Z=
202407122340 TAF CYOD 122340Z 1300/1324 30015G25KT P6SM SCT060
                      BECMG 1300/1302 32008KT
                      BECMG 1307/1309 VRB03KT FM131400 24008KT
                       P6SM FEW120 SCT220 FM131700 26012KT P6SM
                       SCT080 BKN120 FM132300 28010KT P6SM -SHRA
                       BKN080 RMK NXT FCST BY 130300Z=
202407130240 TAF CYOD 130240Z 1303/1324 32008KT P6SM FEW060 FEW250
                      BECMG 1307/1309 VRB03KT FM131400 24008KT
                       P6SM FEW120 SCT220 FM131700 26012KT P6SM
                       SCT080 BKN120 FM132300 28010KT P6SM -SHRA
                       BKN080 RMK NXT FCST BY 130600Z=
202407130540 TAF CYOD 130540Z 1306/1406 VRB03KT P6SM FEW250 FM131400 24008KT
                       P6SM FEW120 SCT220 FM131700 26010KT P6SM
                       SCT080 BKN120 FM132300 28012KT P6SM -SHRA
                       BKN080 FM140500 30005KT P6SM SCT120 RMK
                       NXT FCST BY 131200Z=
202407131140 TAF CYOD 131140Z 1312/1412 VRB03KT P6SM FEW230 FM131400 24008KT
                       P6SM FEW130 SCT230 FM131700 26010KT P6SM
                       SCT130 BKN230 FM132300 28012KT P6SM BKN060
                       BKN130
                      TEMPO 1323/1410 P6SM -SHRA
                      BECMG 1403/1405 VRB03KT FM141000 VRB03KT
                       P6SM BKN030 OVC070
                      TEMPO 1410/1412 P6SM -SHRA RMK NXT FCST BY
                       131500Z=
202407131440 TAF CYOD 131440Z 1315/1412 VRB03KT P6SM FEW250 FM131700 26010KT
                       P6SM SCT130 BKN230 FM132300 28012KT P6SM
                       BKN060 BKN130
                      TEMPO 1323/1410 P6SM -SHRA
                      BECMG 1403/1405 VRB03KT FM141000 VRB03KT
                       P6SM BKN030 OVC070
                      TEMPO 1410/1412 P6SM -SHRA RMK NXT FCST BY
                       131800Z=
202407131740 TAF CYOD 131740Z 1318/1418 25008KT P6SM FEW160 FEW250 FM132300
                       28012KT P6SM SCT060 BKN130 BKN250
                      TEMPO 1323/1410 P6SM -SHRA BKN060 BKN130
                       BECMG 1403/1405 VRB03KT FM141000 VRB03KT
                       P6SM BKN030 OVC070
                      TEMPO 1410/1418 P6SM -SHRA
                      PROB30 1417/1418 VRB15G30KT 3SM TSRA BR BKN020
                       OVC030CB RMK NXT FCST BY 132100Z=
202407132040 TAF CYOD 132040Z 1321/1418 23008KT P6SM FEW060 BKN250 FM132300
                       28012KT P6SM SCT060 BKN130 BKN250
                      TEMPO 1323/1410 P6SM -SHRA BKN060 BKN130
                       BECMG 1403/1405 VRB03KT FM141000 VRB03KT
                       P6SM BKN030 OVC070
                      TEMPO 1410/1418 P6SM -SHRA
                      PROB30 1417/1418 VRB15G30KT 3SM TSRA BR BKN020
                       OVC030CB RMK NXT FCST BY 140000Z=
202407132340 TAF CYOD 132340Z 1400/1424 28008KT P6SM FEW060 BKN100 BKN250
                      TEMPO 1400/1410 P6SM -SHRA BKN060 OVC250
                       BECMG 1402/1404 26005KT FM141000 29005KT
                       P6SM BKN040 OVC200
                      TEMPO 1410/1416 P6SM -SHRA FEW020 OVC030
                       FM141600 29010KT P6SM -SHRA BKN060 BKN140
                       TEMPO 1416/1422 5SM -SHRA BR BKN030 OVC060
                       PROB30 1416/1422 VRB20G30KT 2SM TSRA BR
                       BKN015 OVC030CB FM142200 34012KT 6SM FU
                       BKN060 RMK NXT FCST BY 140300Z=
202407140240 TAF CYOD 140240Z 1403/1424 24005KT P6SM FEW060 BKN100 BKN250
                      TEMPO 1403/1410 P6SM -SHRA BKN060 OVC250
                       FM141000 29005KT P6SM BKN040 OVC200
                      TEMPO 1410/1416 P6SM -SHRA FEW020 OVC030
                       FM141600 29010KT P6SM -SHRA BKN060 BKN140
                       TEMPO 1416/1422 5SM -SHRA BR BKN030 OVC060
                       PROB30 1416/1422 VRB20G30KT 2SM TSRA BR
                       BKN015 OVC030CB FM142200 34012KT 6SM FU
                       BKN060 RMK NXT FCST BY 140600Z=
202407140540 TAF CYOD 140540Z 1406/1506 24005KT P6SM SCT080 BKN200
                      TEMPO 1406/1410 P6SM -SHRA BKN050 OVC200
                       FM141000 26005KT P6SM BKN060 BKN120
                      TEMPO 1410/1416 P6SM -SHRA OVC040 FM141600
                       28008KT P6SM -SHRA BKN040 BKN120
                      TEMPO 1416/1422 5SM -SHRA BR BKN025 OVC040
                       PROB30 1416/1422 VRB20G30KT 2SM TSRA BR
                       BKN015 OVC040CB FM142200 32012KT 6SM FU
                       SCT070 FM150400 30005KT P6SM FEW070 RMK
                       NXT FCST BY 141200Z=
202407141140 TAF CYOD 141140Z 1412/1512 23005KT P6SM FEW060 BKN120 BKN230
                      TEMPO 1412/1416 P6SM -SHRA BKN060 OVC120
                       FM141600 28008KT P6SM -SHRA BKN040 BKN120
                       TEMPO 1416/1422 5SM -SHRA BR BKN025 OVC040
                       PROB30 1416/1422 VRB20G30KT 2SM TSRA BR
                       BKN015 OVC040CB FM142200 32012KT 6SM FU
                       SCT070 FM150400 29005KT P6SM FEW070
                      PROB30 1509/1512 1SM BR RMK NXT FCST BY 141500Z=
202407141440 TAF CYOD 141440Z 1415/1512 VRB03KT P6SM SCT110 OVC250 FM141600
                       28008KT P6SM -SHRA BKN040 BKN120
                      TEMPO 1416/1422 5SM -SHRA BR BKN025 OVC040
                       PROB30 1416/1422 VRB20G30KT 2SM TSRA BR
                       BKN015 OVC040CB FM142200 32012KT 6SM FU
                       SCT070 FM150400 29005KT P6SM FEW070
                      PROB30 1509/1512 1SM BR RMK NXT FCST BY 141800Z=
202407141609 TAF AMD CYOD 141609Z 1416/1512 28005KT P6SM SCT010 OVC070
                      TEMPO 1416/1422 5SM -SHRA BR BKN010 OVC070
                       PROB30 1416/1422 VRB20G30KT 2SM TSRA BR
                       BKN010 OVC040CB FM142200 32012KT 6SM FU
                       SCT070 FM150400 29005KT P6SM FEW070
                      PROB30 1509/1512 1SM BR RMK NXT FCST BY 141800Z=
202407141740 TAF CYOD 141740Z 1418/1518 26005KT P6SM SCT015 OVC070
                      TEMPO 1418/1422 5SM -SHRA BR BKN015 OVC070
                       PROB30 1418/1422 VRB20G30KT 2SM TSRA BR
                       BKN015 OVC040CB FM142200 32008KT 6SM FU
                       SCT070
                      TEMPO 1422/1504 5SM FU FM150400 27005KT P6SM
                       FEW070
                      PROB30 1509/1513 1SM BR FM151300 VRB03KT
                       P6SM BKN050 BKN170
                      BECMG 1516/1518 24010KT RMK NXT FCST BY 142100Z=
202407141811 TAF AMD CYOD 141811Z 1418/1518 VRB03KT P6SM SCT015 OVC070
                      TEMPO 1418/1419 5SM -SHRA BR BKN015 OVC070
                       FM141830 26005KT P6SM SCT015 OVC070
                      TEMPO 1418/1421 VRB20G30KT 2SM TSRA BR BKN015
                       OVC040CB FM142100 29008KT P6SM SCT015 OVC070
                       TEMPO 1421/1422 5SM -SHRA BR BKN015 OVC070
                       PROB30 1421/1422 VRB20G30KT 2SM TSRA BR
                       BKN015 OVC040CB FM142200 32008KT 6SM FU
                       SCT070
                      TEMPO 1422/1504 5SM FU FM150400 27005KT P6SM
                       FEW070
                      PROB30 1509/1513 1SM BR FM151300 VRB03KT
                       P6SM BKN050 BKN170
                      BECMG 1516/1518 24010KT RMK NXT FCST BY 142100Z=
202407141830 TAF AMD CYOD 141830Z 1418/1518 36005KT 6SM FU SCT020 OVC070
                      TEMPO 1418/1421 VRB20G30KT 2SM TSRA FU BKN020
                       OVC040CB FM142100 29008KT 6SM FU SCT020
                       OVC070
                      TEMPO 1421/1422 5SM -SHRA FU BKN020 OVC070
                       PROB30 1421/1422 VRB20G30KT 2SM TSRA FU
                       BKN015 OVC040CB FM142200 32008KT 6SM FU
                       SCT070
                      TEMPO 1422/1504 5SM FU FM150400 27005KT P6SM
                       FEW070
                      PROB30 1509/1513 1SM BR FM151300 VRB03KT
                       P6SM BKN050 BKN170
                      BECMG 1516/1518 24010KT RMK NXT FCST BY 142100Z=
202407142042 TAF CYOD 142042Z 1421/1518 02005KT 6SM -SHRA FU SCT015 BKN060 BKN110
                       TEMPO 1421/1422 VRB20G30KT 2SM TSRA FU BKN015
                       OVC040CB FM142101 36005KT 6SM FU SCT015
                       OVC070
                      TEMPO 1421/1422 5SM -SHRA FU BKN015 OVC070
                       PROB30 1421/1422 VRB20G30KT 2SM TSRA FU
                       BKN015 OVC040CB FM142200 32005KT 6SM FU
                       SCT070
                      TEMPO 1422/1504 5SM FU FM150400 27005KT P6SM
                       FEW070
                      PROB30 1509/1513 1SM BR FM151300 VRB03KT
                       P6SM BKN050 BKN170
                      BECMG 1516/1518 24010KT RMK NXT FCST BY 150000Z=
202407142340 TAF CYOD 142340Z 1500/1524 25008KT P6SM FEW040 SCT070
                      TEMPO 1500/1505 4SM FU
                      BECMG 1501/1502 32008KT FM150500 VRB03KT
                       P6SM SKC
                      PROB30 1509/1513 1SM BR SCT004 FM151300 VRB03KT
                       P6SM SCT050 BKN170
                      BECMG 1515/1517 23010KT FM151900 25010KT
                       P6SM BKN060 BKN140 RMK NXT FCST BY 150300Z=
202407150240 TAF CYOD 150240Z 1503/1524 29008KT P6SM FEW050
                      TEMPO 1503/1505 4SM FU FM150500 VRB03KT P6SM
                       FEW250
                      PROB30 1509/1513 1SM BR SCT004 FM151300 VRB03KT
                       P6SM SCT050 BKN160 BKN250
                      BECMG 1515/1517 23010KT FM151900 25010KT
                       P6SM BKN060 BKN140 RMK NXT FCST BY 150600Z=
202407150540 TAF CYOD 150540Z 1506/1606 VRB03KT P6SM FEW250
                      PROB30 1509/1513 1SM BR SCT004 FM151400 21005KT
                       P6SM SCT060 BKN160
                      BECMG 1515/1517 23010KT FM151900 24012KT
                       P6SM FEW030 BKN060 BKN120 FM152300 23010KT
                       P6SM FEW050 SCT080 FM160400 VRB03KT P6SM
                       FEW080 RMK NXT FCST BY 151200Z=
202407150837 TAF AMD CYOD 150837Z 1508/1606 VRB03KT 1/8SM FG VV001
                      TEMPO 1508/1512 3SM BR SKC FM151200 VRB03KT
                       3/4SM BR BKN002
                      BECMG 1512/1514 P6SM NSW FEW080 FEW160 FEW250
                       FM151400 21005KT P6SM SCT060 BKN160
                      BECMG 1515/1517 23010KT FM151900 24012KT
                       P6SM FEW030 BKN060 BKN120 FM152300 23010KT
                       P6SM FEW050 SCT080 FM160400 VRB03KT P6SM
                       FEW080 RMK NXT FCST BY 151200Z=
202407151140 TAF CYOD 151140Z 1512/1612 VRB03KT 1/2SM FG FEW250
                      BECMG 1512/1514 P6SM NSW FEW080 SCT120 FM151500
                       22008KT P6SM SCT080 BKN120 FM151900 24010KT
                       P6SM FEW030 BKN060 BKN120 FM160000 VRB03KT
                       P6SM FEW080
                      PROB30 1608/1612 1SM BR RMK NXT FCST BY 151500Z=
202407151440 TAF CYOD 151440Z 1515/1612 VRB03KT P6SM BKN180 FM151516 22008KT
                       P6SM SCT080 BKN120 FM151900 24010KT P6SM
                       FEW030 BKN060 BKN120 FM160000 VRB03KT P6SM
                       FEW080
                      PROB30 1608/1612 1SM BR RMK NXT FCST BY 151800Z=
202407151742 TAF CYOD 151742Z 1518/1618 22008KT P6SM BKN060 BKN080 FM160000
                       VRB03KT P6SM FEW080
                      PROB30 1608/1613 1SM BR RMK NXT FCST BY 152100Z=
202407152040 TAF CYOD 152040Z 1521/1618 22008KT P6SM SCT050 BKN080 FM160000
                       VRB03KT P6SM FEW080
                      PROB30 1608/1613 1SM BR RMK NXT FCST BY 160000Z=
202407152340 TAF CYOD 152340Z 1600/1624 23008KT P6SM FEW050 SCT100
                      BECMG 1603/1605 VRB03KT FEW100 FM160800 VRB03KT
                       P6SM FEW100
                      PROB30 1608/1613 1SM BR FM161600 19008KT
                       P6SM BKN070 RMK NXT FCST BY 160300Z=
202407160241 TAF CYOD 160241Z 1603/1624 VRB03KT P6SM SCT100 BKN120 FM160800
                       VRB03KT P6SM FEW100
                      PROB30 1608/1613 1SM BR FM161600 19008KT
                       P6SM BKN070 RMK NXT FCST BY 160600Z=
202407160540 TAF CYOD 160540Z 1606/1706 VRB03KT P6SM SCT100 BKN120 FM160800
                       VRB03KT P6SM FEW100
                      PROB30 1608/1613 1SM BR FM161600 19008KT
                       P6SM BKN070
                      BECMG 1700/1702 VRB03KT SCT100 RMK NXT FCST
                       BY 161200Z=
202407160932 TAF AMD CYOD 160932Z 1609/1706 VRB03KT P6SM FEW100
                      BECMG 1610/1612 1SM BR
                      BECMG 1613/1615 P6SM NSW FM161600 19008KT
                       P6SM BKN070
                      BECMG 1700/1702 VRB03KT SCT100 RMK NXT FCST
                       BY 161200Z=
202407161140 TAF CYOD 161140Z 1612/1712 VRB03KT P6SM SCT100
                      TEMPO 1612/1613 1SM BR FM161800 19008KT P6SM
                       SCT070
                      TEMPO 1618/1702 P6SM -SHRA BKN070
                      PROB30 1621/1701 VRB15G25KT 2SM TSRA BR BKN050CB
                       FM170200 VRB03KT P6SM SCT100 RMK NXT FCST
                       BY 161500Z=
202407161440 TAF CYOD 161440Z 1615/1712 VRB03KT P6SM BKN090 FM161800 19008KT
                       P6SM SCT070
                      TEMPO 1618/1702 P6SM -SHRA BKN070
                      PROB30 1621/1701 VRB15G25KT 2SM TSRA BR BKN050CB
                       FM170200 VRB03KT P6SM SCT100 RMK NXT FCST
                       BY 161800Z=
202407161740 TAF CYOD 161740Z 1618/1718 19008KT P6SM SCT080
                      TEMPO 1620/1702 P6SM -SHRA BKN070
                      PROB30 1621/1701 VRB15G25KT 2SM TSRA BR BKN050CB
                       FM170200 VRB03KT P6SM FEW080 RMK NXT FCST
                       BY 162100Z=
202407162040 TAF CYOD 162040Z 1621/1718 20008KT P6SM SCT060
                      TEMPO 1621/1702 P6SM -SHRA BKN070
                      PROB30 1621/1701 VRB15G25KT 2SM TSRA BR BKN050CB
                       FM170200 VRB03KT P6SM FEW080 RMK NXT FCST
                       BY 170000Z=
202407162309 TAF AMD CYOD 162309Z 1623/1718 20008KT P6SM SCT060
                      TEMPO 1623/1701 VRB15G35KT 2SM TSRA BR BKN050CB
                       FM170100 20008KT P6SM SCT050 BKN100
                      TEMPO 1701/1705 P6SM -SHRA BKN050 BKN100
                       PROB30 1701/1705 VRB15G35KT 2SM TSRA BR
                       BKN050CB FM170500 VRB03KT P6SM FEW080 RMK
                       NXT FCST BY 170000Z=
202407162340 TAF CYOD 162340Z 1700/1724 20008KT P6SM SCT060 BKN120 BKN250
                      TEMPO 1700/1701 VRB15G35KT 2SM TSRA BR BKN050CB
                       FM170100 20008KT P6SM SCT050 BKN100
                      TEMPO 1701/1705 P6SM -SHRA BKN050 BKN100
                       PROB30 1701/1705 VRB15G35KT 2SM TSRA BR
                       BKN050CB FM170500 22005KT P6SM FEW080
                      PROB30 1710/1715 1SM BR BKN002 FM171700 23005KT
                       P6SM FEW060 RMK NXT FCST BY 170300Z=
202407170240 TAF CYOD 170240Z 1703/1724 18005KT P6SM FEW060 BKN250
                      PROB30 1710/1715 1SM BR BKN002 FM171700 23005KT
                       P6SM FEW060 RMK NXT FCST BY 170600Z=
202407170540 TAF CYOD 170540Z 1706/1806 18005KT P6SM SCT250
                      PROB30 1710/1715 1SM BR BKN002 FM171700 23005KT
                       P6SM FEW060 RMK NXT FCST BY 171200Z=
202407171140 TAF CYOD 171140Z 1712/1812 VRB03KT P6SM FEW100
                      PROB30 1712/1714 1SM BR BKN002 FM171800 20008KT
                       P6SM SCT090
                      BECMG 1801/1803 VRB03KT RMK NXT FCST BY 171500Z=
202407171440 TAF CYOD 171440Z 1715/1812 20005KT P6SM FEW100 FEW250 FM171800
                       20008KT P6SM SCT090
                      BECMG 1801/1803 VRB03KT RMK NXT FCST BY 171800Z=
202407171740 TAF CYOD 171740Z 1718/1818 23005KT P6SM FEW090 FEW250
                      BECMG 1801/1803 VRB03KT RMK NXT FCST BY 172100Z=
202407172040 TAF CYOD 172040Z 1721/1818 23008KT P6SM FEW090 FEW250
                      BECMG 1801/1803 VRB03KT RMK NXT FCST BY 180000Z=
202407172300 TAF AMD CYOD 180212Z 1802/1824 05005KT P6SM SCT090 BKN250
                      TEMPO 1802/1804 VRB15G30KT 2SM TSRA BR BKN060CB
                       FM180330 VRB03KT P6SM FEW250 RMK NXT FCST
                       BY 180300Z=
202407172340 TAF CYOD 172340Z 1800/1824 20008KT P6SM FEW090 FEW250
                      PROB30 1800/1805 VRB15G25KT 2SM TSRA BR BKN060CB
                       FM180800 VRB03KT P6SM FEW250 RMK NXT FCST
                       BY 180300Z=
202407180212 TAF AMD CYOD 180212Z 1802/1824 05005KT P6SM SCT090 BKN250
                      TEMPO 1802/1804 VRB15G30KT 2SM TSRA BR BKN060CB
                       FM180330 VRB03KT P6SM FEW250 RMK NXT FCST
                       BY 180300Z=
202407180240 TAF CYOD 180240Z 1803/1824 05005KT P6SM SCT090 BKN250
                      TEMPO 1803/1804 VRB15G30KT 2SM TSRA BR BKN060CB
                       FM180330 VRB03KT P6SM FEW250 RMK NXT FCST
                       BY 180600Z=
202407180346 TAF AMD CYOD 180346Z 1803/1824 09005KT P6SM TS BKN090 BKN250 FM180430
                       20005KT P6SM SCT250
                      BECMG 1807/1809 VRB03KT FEW250 RMK NXT FCST
                       BY 180600Z=
202407180417 TAF AMD CYOD 180417Z 1804/1824 09005KT P6SM SCT200
                      BECMG 1807/1809 VRB03KT FEW250 RMK NXT FCST
                       BY 180600Z=
202407180540 TAF CYOD 180540Z 1806/1906 20008KT P6SM BKN150
                      BECMG 1808/1810 VRB03KT FEW250 RMK NXT FCST
                       BY 181200Z=
202407181140 TAF CYOD 181140Z 1812/1912 VRB03KT P6SM FEW080 SCT250
                      BECMG 1815/1817 18008KT
                      BECMG 1903/1905 VRB03KT RMK NXT FCST BY 181500Z=
202407181440 TAF CYOD 181440Z 1815/1912 VRB03KT P6SM FEW080 SCT250
                      BECMG 1815/1817 18008KT
                      BECMG 1903/1905 VRB03KT RMK NXT FCST BY 181800Z=
202407181740 TAF CYOD 181740Z 1818/1918 VRB03KT P6SM FEW080 FEW250
                      BECMG 1818/1820 18008KT
                      BECMG 1822/1824 VRB03KT FM191500 05005KT
                       P6SM FEW070 RMK NXT FCST BY 182100Z=
202407182040 TAF CYOD 182040Z 1821/1918 16008KT P6SM FEW070 FEW250
                      BECMG 1822/1824 VRB03KT FM191500 05005KT
                       P6SM FEW070 RMK NXT FCST BY 190000Z=
202407182340 TAF CYOD 182340Z 1900/1924 VRB03KT P6SM FEW070 FEW250 FM190900
                       VRB03KT P6SM SKC FM191800 05005KT P6SM FEW070
                       RMK NXT FCST BY 190300Z=
202407190240 TAF CYOD 190240Z 1903/1924 VRB03KT P6SM FEW080 SCT250 FM190900
                       VRB03KT P6SM SKC FM191800 05005KT P6SM FEW080
                       RMK NXT FCST BY 190600Z=
202407190540 TAF CYOD 190540Z 1906/2006 VRB03KT P6SM SCT060 SCT120 SCT250
                      PROB30 1906/1918 6SM FU FM191800 05005KT
                       P6SM FEW080 BKN250 FM200000 12005KT P6SM
                       BKN080 RMK NXT FCST BY 191200Z=
202407190648 TAF AMD CYOD 190648Z 1906/2006 VRB03KT 5SM FU VV010
                      TEMPO 1906/1914 P6SM NSW SCT080 FM191400
                       05005KT P6SM FEW080 BKN250 FM200000 12005KT
                       P6SM BKN080 RMK NXT FCST BY 191200Z=
202407191140 TAF CYOD 191140Z 1912/2012 VRB03KT P6SM FEW015 SCT070
                      TEMPO 1912/1924 6SM FU
                      BECMG 1916/1918 05005KT FM200000 09005KT
                       P6SM SCT080
                      TEMPO 2000/2005 P6SM VCSH
                      BECMG 2005/2007 VRB03KT RMK NXT FCST BY 191500Z=
202407191440 TAF CYOD 191440Z 1915/2012 VRB03KT 6SM FU FEW015 OVC300
                      TEMPO 1915/1924 5SM FU
                      BECMG 1916/1918 05005KT FM200000 09005KT
                       P6SM SCT080
                      TEMPO 2000/2005 P6SM VCSH
                      BECMG 2005/2007 VRB03KT RMK NXT FCST BY 191800Z=
202407191740 TAF CYOD 191740Z 1918/2018 VRB03KT 6SM FU FEW015 OVC300
                      TEMPO 1918/1924 4SM FU FM200000 VRB03KT 6SM
                       FU SCT080 BKN300
                      TEMPO 2000/2018 4SM FU RMK NXT FCST BY 192100Z=
202407192040 TAF CYOD 192040Z 1921/2018 VRB03KT 5SM FU FEW015 OVC250
                      TEMPO 1921/1924 6SM FU FM200000 VRB03KT 6SM
                       FU SCT080 BKN250
                      TEMPO 2000/2018 4SM FU RMK NXT FCST BY 200000Z=
202407192127 TAF AMD CYOD 192127Z 1921/2018 VRB03KT 2SM FU FEW015 OVC250
                      TEMPO 1921/1924 6SM FU FM200000 VRB03KT 6SM
                       FU SCT080 BKN250
                      TEMPO 2000/2018 3SM FU RMK NXT FCST BY 200000Z=
202407192254 TAF AMD CYOD 192254Z 1922/2018 VRB03KT 1SM FU FEW015 OVC250
                      TEMPO 1922/2003 5SM FU
                      PROB30 1922/2003 3/4SM FU FM200300 VRB03KT
                       3/4SM FU SCT080 BKN250
                      TEMPO 2003/2018 3SM FU
                      PROB30 2005/2012 1/4SM FU RMK NXT FCST BY
                       200000Z=
202407192303 TAF AMD CYOD 192303Z 1923/2018 VRB03KT 1/4SM FU FEW015 OVC250
                      TEMPO 1923/2018 2SM FU RMK NXT FCST BY 200000Z=
202407192340 TAF CYOD 192340Z 2000/2024 VRB03KT 1/4SM FU FEW015 OVC250
                      TEMPO 2000/2019 2SM FU FM201900 VRB03KT 1SM
                       FU FEW040
                      TEMPO 2019/2024 4SM FU
                      PROB30 2019/2024 1/2SM FU RMK NXT FCST BY
                       200300Z=
202407200240 TAF CYOD 200240Z 2003/2024 VRB03KT 1/4SM FU FEW015 OVC250
                      TEMPO 2003/2019 2SM FU FM201900 VRB03KT 1SM
                       FU FEW040
                      TEMPO 2019/2024 4SM FU
                      PROB30 2019/2024 1/2SM FU RMK NXT FCST BY
                       200600Z=
202407200540 TAF CYOD 200540Z 2006/2106 VRB03KT 1/4SM FU FEW015 OVC250
                      TEMPO 2006/2019 2SM FU FM201900 VRB03KT 1SM
                       FU FEW040
                      TEMPO 2019/2106 4SM FU
                      PROB30 2019/2106 1/2SM FU RMK NXT FCST BY
                       201200Z=
202407201140 TAF CYOD 201140Z 2012/2112 VRB03KT 1/2SM FU OVC250
                      TEMPO 2012/2019 2SM FU FM201900 VRB03KT 1SM
                       FU FEW040
                      TEMPO 2019/2106 4SM FU
                      PROB30 2019/2106 1/2SM FU FM210600 VRB03KT
                       1/2SM FU OVC250
                      TEMPO 2106/2112 2SM FU RMK NXT FCST BY 201500Z=
202407201440 TAF CYOD 201440Z 2015/2112 VRB03KT 1/2SM FU OVC250
                      TEMPO 2015/2019 2SM FU FM201900 VRB03KT 1SM
                       FU FEW040
                      TEMPO 2019/2106 4SM FU
                      PROB30 2019/2106 1/2SM FU FM210600 VRB03KT
                       1/2SM FU OVC250
                      TEMPO 2106/2112 2SM FU RMK NXT FCST BY 201800Z=
202407201740 TAF CYOD 201740Z 2018/2118 VRB03KT 3/4SM FU OVC250
                      TEMPO 2018/2118 2SM FU RMK NXT FCST BY 202100Z=
202407202040 TAF CYOD 202040Z 2021/2118 VRB03KT 3/4SM FU OVC250
                      TEMPO 2021/2118 2SM FU RMK NXT FCST BY 210000Z=
202407202317 TAF AMD CYOD 202317Z 2023/2118 VRB03KT 1SM FU OVC250
                      TEMPO 2023/2107 3SM FU
                      PROB30 2100/2107 3/4SM FU FM210700 VRB03KT
                       3/4SM FU OVC250
                      TEMPO 2107/2118 2SM FU RMK NXT FCST BY 210000Z=
202407202340 TAF CYOD 202340Z 2100/2124 VRB03KT 1SM FU OVC250
                      TEMPO 2100/2107 3SM FU
                      PROB30 2100/2107 3/4SM FU FM210700 VRB03KT
                       3/4SM FU OVC250
                      TEMPO 2107/2120 2SM FU FM212000 VRB03KT 1SM
                       FU OVC250
                      TEMPO 2120/2124 3SM FU RMK NXT FCST BY 210300Z=
202407210243 TAF CYOD 210243Z 2103/2124 VRB03KT 1SM FU OVC250
                      TEMPO 2103/2107 3SM FU
                      PROB30 2103/2107 3/4SM FU FM210700 VRB03KT
                       3/4SM FU OVC250
                      TEMPO 2107/2120 2SM FU FM212000 VRB03KT 1SM
                       FU OVC250
                      TEMPO 2120/2124 3SM FU RMK NXT FCST BY 210600Z=
202407210540 TAF CYOD 210540Z 2106/2206 VRB03KT 1SM FU OVC250
                      TEMPO 2106/2121 6SM FU
                      PROB30 2106/2121 3/4SM FU FM212100 VRB03KT
                       2SM FU OVC250
                      TEMPO 2121/2206 6SM FU
                      PROB30 2121/2206 1SM FU RMK NXT FCST BY 211200Z=
202407210840 TAF AMD CYOD 210840Z 2108/2206 VRB03KT 6SM FU OVC250
                      TEMPO 2108/2121 2SM FU
                      PROB30 2108/2121 3/4SM FU FM212100 VRB03KT
                       6SM FU OVC250
                      TEMPO 2121/2206 3SM FU
                      PROB30 2121/2206 1SM FU RMK NXT FCST BY 211200Z=
202407211134 TAF AMD CYOD 211134Z 2111/2206 VRB03KT 1/2SM FG SCT002
                      TEMPO 2111/2113 3SM FU SKC FM211300 VRB03KT
                       1SM BR SCT002
                      TEMPO 2113/2115 6SM FU FEW250 FM211500 VRB03KT
                       6SM FU FEW250
                      TEMPO 2115/2121 2SM FU FM212100 16005KT 6SM
                       FU SCT040
                      TEMPO 2121/2204 3SM FU
                      PROB30 2121/2204 2SM FU FM220400 VRB03KT
                       3SM FU FEW250 RMK NXT FCST BY 211200Z=
202407211140 TAF CYOD 211140Z 2112/2212 VRB03KT 1/2SM FG SCT002
                      TEMPO 2112/2113 3SM FU SKC FM211300 VRB03KT
                       1SM BR SCT002
                      TEMPO 2113/2115 6SM FU SKC FM211500 VRB03KT
                       6SM FU FEW250
                      TEMPO 2115/2121 2SM FU FM212100 16005KT 6SM
                       FU SCT040
                      TEMPO 2121/2204 3SM FU
                      PROB30 2121/2204 2SM FU FM220400 VRB03KT
                       3SM FU FEW250 FM220900 VRB03KT 1SM BR FU
                       FEW250 RMK NXT FCST BY 211500Z=
202407211313 TAF AMD CYOD 211313Z 2113/2212 VRB03KT 1/4SM FG FU VV001
                      TEMPO 2113/2115 3SM FU OVC250 FM211500 VRB03KT
                       1 1/2SM FU OVC250
                      TEMPO 2115/2120 6SM FU FM212000 16005KT 6SM
                       FU SCT040 SCT250
                      TEMPO 2120/2204 3SM FU
                      PROB30 2120/2204 1 1/2SM FU FM220400 VRB03KT
                       3SM FU FEW250 FM220900 VRB03KT 1SM BR FU
                       FEW250 RMK NXT FCST BY 211500Z=
202407211440 TAF CYOD 211440Z 2115/2212 VRB03KT 1 1/2SM FU OVC250
                      TEMPO 2115/2120 5SM FU FM212000 16005KT 3SM
                       FU SCT040 OVC250
                      TEMPO 2120/2204 6SM FU
                      PROB30 2120/2204 1 1/2SM FU FM220400 VRB03KT
                       3SM FU FEW250 FM220900 VRB03KT 1SM BR FU
                       FEW250 RMK NXT FCST BY 211800Z=
202407211740 TAF CYOD 211740Z 2118/2218 17005KT 2SM FU FEW030 OVC250
                      TEMPO 2118/2124 4SM FU
                      PROB30 2118/2124 1 1/2SM FU FM220000 VRB03KT
                       3SM FU SCT250
                      TEMPO 2200/2209 6SM FU FM220900 VRB03KT 2SM
                       BR FU FEW004 FEW250
                      PROB30 2209/2214 1/2SM FG FU VV002 FM221400
                       11005KT 3SM FU SCT250
                      BECMG 2216/2218 11010KT RMK NXT FCST BY 212100Z=
202407212040 TAF CYOD 212040Z 2121/2218 14005KT 1 1/2SM FU FEW030 OVC250
                      TEMPO 2121/2201 3SM FU FM220100 VRB03KT 2SM
                       FU SCT250
                      TEMPO 2201/2209 6SM FU FM220900 VRB03KT 1
                       1/2SM BR FU FEW004 FEW250
                      PROB30 2209/2214 1/2SM FG FU VV002 FM221400
                       11005KT 3SM FU SCT250
                      BECMG 2216/2218 11010KT RMK NXT FCST BY 220000Z=
202407212340 TAF CYOD 212340Z 2200/2224 VRB03KT 2SM FU OVC250
                      TEMPO 2200/2201 3SM FU FM220100 VRB03KT 2SM
                       FU BKN250
                      TEMPO 2201/2209 6SM FU FM220900 VRB03KT 2SM
                       BR FU FEW004 SCT250
                      TEMPO 2209/2214 3/4SM BR FU
                      PROB40 2209/2214 1/2SM FG FU FM221400 13005KT
                       3SM FU SCT250
                      BECMG 2216/2218 13010KT FM221800 13010KT
                       3SM FU SCT040 RMK NXT FCST BY 220300Z=
202407220240 TAF CYOD 220240Z 2203/2224 VRB03KT 2SM FU BKN250
                      TEMPO 2203/2209 6SM FU FM220900 VRB03KT 2SM
                       BR FU FEW004 SCT250
                      TEMPO 2209/2214 3/4SM BR FU
                      PROB40 2209/2214 1/2SM FG FU FM221400 13005KT
                       3SM FU SCT250
                      BECMG 2216/2218 13010KT FM221800 13010KT
                       3SM FU SCT040 RMK NXT FCST BY 220600Z=
202407220540 TAF CYOD 220540Z 2206/2306 VRB03KT 6SM FU BKN250
                      TEMPO 2206/2209 3SM FU FM220900 VRB03KT 2SM
                       BR FU FEW004 SCT250
                      TEMPO 2209/2214 3/4SM BR FU
                      PROB40 2209/2214 1/2SM FG FU FM221400 13005KT
                       3SM FU SCT250
                      BECMG 2216/2218 13010KT FM221800 13010KT
                       3SM FU SCT040 SCT250 RMK NXT FCST BY 221200Z=
202407220904 TAF AMD CYOD 220904Z 2209/2306 VRB03KT 5SM FU BKN250
                      TEMPO 2209/2211 2SM BR FU FM221100 VRB03KT
                       2SM BR FU FEW004 BKN250
                      TEMPO 2211/2214 3/4SM BR FU
                      PROB40 2211/2214 1/2SM FG FU FM221400 13005KT
                       3SM FU SCT250
                      BECMG 2216/2218 13010KT FM221800 13010KT
                       3SM FU SCT040 SCT250 RMK NXT FCST BY 221200Z=
202407221113 TAF AMD CYOD 221113Z 2211/2306 VRB03KT 3SM FU FEW004 BKN250
                      TEMPO 2211/2214 3/4SM BR FU
                      PROB40 2211/2214 1/2SM FG FU FM221400 13005KT
                       3SM FU SCT250
                      BECMG 2216/2218 13010KT FM221800 13010KT
                       3SM FU SCT040 SCT250 RMK NXT FCST BY 221200Z=
202407221140 TAF CYOD 221140Z 2212/2312 VRB03KT 2SM FU FEW004 BKN250
                      TEMPO 2212/2214 3/4SM BR FU
                      PROB40 2212/2214 1/2SM FG FU FM221400 13005KT
                       3SM FU SCT250
                      BECMG 2216/2218 13010KT FM221800 13010KT
                       3SM FU SCT040 SCT250 FM230300 13010KT 5SM
                       FU FEW040 SCT250 RMK NXT FCST BY 221500Z=
202407221416 TAF AMD CYOD 221416Z 2214/2312 12008KT 2SM FU SKC
                      TEMPO 2214/2216 3/4SM BR FU SCT250
                      PROB40 2214/2216 1/2SM FG FU FM221600 13010KT
                       2SM FU SCT250
                      TEMPO 2216/2218 4SM FU FM221800 13010KT 3SM
                       FU SCT040 SCT250 FM230300 13010KT 5SM FU
                       FEW040 SCT250 RMK NXT FCST BY 221500Z=
202407221444 TAF CYOD 221444Z 2215/2312 12008KT 2SM FU SKC
                      TEMPO 2215/2216 3/4SM BR FU SCT250
                      PROB40 2215/2216 1/2SM FG FU FM221600 13010KT
                       2SM FU SCT250
                      TEMPO 2216/2218 4SM FU FM221800 13010KT 3SM
                       FU SCT040 SCT250 FM230300 13010KT 5SM FU
                       FEW040 SCT250 RMK NXT FCST BY 221800Z=
202407221617 TAF AMD CYOD 221617Z 2216/2312 12010KT 3/4SM FU BKN210
                      TEMPO 2216/2221 2SM FU SCT210
                      PROB30 2216/2221 1/2SM FU FM222100 13012KT
                       2SM FU SCT040 SCT250
                      TEMPO 2221/2303 4SM FU FM230300 13010KT 5SM
                       FU FEW040 SCT250 RMK NXT FCST BY 221800Z=
202407221741 TAF CYOD 221741Z 2218/2318 12010KT 3/4SM FU BKN150
                      TEMPO 2218/2221 2SM FU
                      PROB30 2218/2221 1/2SM FU FM222100 13012KT
                       1SM FU SCT040 SCT250
                      TEMPO 2221/2303 3SM FU FM230600 13010KT 5SM
                       FU FEW250
                      TEMPO 2306/2312 3SM FU FM231200 13012KT 5SM
                       FU SCT250 RMK NXT FCST BY 222100Z=
202407222040 TAF CYOD 222040Z 2221/2318 12012KT 3/4SM FU FEW040 BKN150 BKN210
                       TEMPO 2221/2303 3SM FU FM230300 12010KT
                       3SM FU FEW040 SCT210
                      TEMPO 2303/2306 1SM FU BKN210 FM230600 13010KT
                       5SM FU FEW250
                      TEMPO 2306/2312 3SM FU FM231200 13012KT 5SM
                       FU SCT250 RMK NXT FCST BY 230000Z=
202407222340 TAF CYOD 222340Z 2300/2324 12012KT 2SM FU FEW140 BKN210
                      TEMPO 2300/2303 4SM FU FM230300 12012KT 5SM
                       FU BKN210
                      TEMPO 2303/2310 2SM FU FM231000 13012KT 6SM
                       FU SCT210
                      TEMPO 2310/2315 3SM FU
                      BECMG 2313/2315 13015G25KT FM231500 13015G25KT
                       3SM FU SCT210
                      TEMPO 2315/2321 6SM FU FM232100 15015G25KT
                       3SM FU BKN030 BKN250
                      BECMG 2323/2324 15012KT RMK NXT FCST BY 230300Z=
202407230240 TAF CYOD 230240Z 2303/2324 10010KT 2 1/2SM FU SKC
                      TEMPO 2303/2310 6SM FU FM231000 13012KT 6SM
                       FU FEW210
                      TEMPO 2310/2315 3SM FU
                      BECMG 2313/2315 13015G25KT FM231500 13015G25KT
                       3SM FU SCT210
                      TEMPO 2315/2321 6SM FU FM232100 15015G25KT
                       3SM FU BKN030 BKN250
                      BECMG 2323/2324 15012KT RMK NXT FCST BY 230600Z=
202407230540 TAF CYOD 230540Z 2306/2406 10008KT 3SM FU BKN060
                      TEMPO 2306/2310 6SM FU FM231000 13012KT 6SM
                       FU SCT060
                      TEMPO 2310/2315 3SM FU
                      BECMG 2313/2315 13015G25KT FM231500 13015G25KT
                       3SM FU SCT210
                      TEMPO 2315/2321 6SM FU FM232100 15012G22KT
                       3SM FU BKN030 BKN250 FM240000 15010KT 4SM
                       -SHRA BR FU FEW010 OVC025
                      PROB30 2400/2404 2SM -TSRA FU OVC025CB FM240400
                       05005KT 4SM -SHRA BR FU FEW010 OVC025
                      PROB30 2404/2406 2SM -TSRA FU OVC025CB RMK
                       NXT FCST BY 231200Z=
202407231140 TAF CYOD 231140Z 2312/2412 13012KT 6SM FU BKN250
                      TEMPO 2312/2315 3SM FU
                      BECMG 2313/2315 13015G25KT FM231500 13015G25KT
                       3SM FU FEW100 BKN250
                      TEMPO 2315/2321 6SM FU FM232100 15012G22KT
                       5SM FU BKN030 BKN250 FM240000 15010KT 6SM
                       -SHRA FU FEW015 OVC030
                      PROB30 2400/2403 2SM -TSRA FU OVC025CB FM240300
                       05005KT 3SM -SHRA BR FU FEW010 OVC025
                      PROB30 2403/2406 2SM -TSRA FU OVC025CB FM240900
                       09005KT 5SM -SHRA FU FEW015 OVC025 RMK NXT
                       FCST BY 231500Z=
202407231209 TAF AMD CYOD 231209Z 2312/2412 13012KT 6SM FU BKN250
                      TEMPO 2312/2315 2SM FU
                      BECMG 2313/2315 13015G25KT FM231500 13015G25KT
                       3SM FU FEW100 BKN250
                      TEMPO 2315/2321 6SM FU FM232100 15012G22KT
                       5SM FU BKN030 BKN250 FM240000 15010KT 6SM
                       -SHRA FU FEW015 OVC030
                      PROB30 2400/2403 2SM -TSRA FU OVC025CB FM240300
                       05005KT 3SM -SHRA BR FU FEW010 OVC025
                      PROB30 2403/2406 2SM -TSRA FU OVC025CB FM240900
                       09005KT 5SM -SHRA FU FEW015 OVC025 RMK NXT
                       FCST BY 231500Z=
202407231440 TAF CYOD 231440Z 2315/2412 12015G25KT 3SM FU OVC010
                      TEMPO 2315/2321 6SM FU SCT010 BKN020 OVC200
                       FM232100 15012G22KT 5SM FU FEW010 BKN025
                       BKN250 FM240000 15010KT 6SM -SHRA FU FEW015
                       OVC030
                      PROB30 2400/2403 2SM -TSRA FU OVC025CB FM240300
                       05005KT 3SM -SHRA BR FU FEW010 OVC025
                      PROB30 2403/2406 2SM -TSRA FU OVC025CB FM240900
                       09005KT 5SM -SHRA FU FEW015 OVC025 RMK NXT
                       FCST BY 231800Z=
202407231512 TAF AMD CYOD 231512Z 2315/2412 12015G25KT 3SM FU OVC008
                      TEMPO 2315/2321 6SM FU SCT008 BKN020 OVC200
                       FM232100 15012G22KT 5SM FU FEW010 BKN025
                       BKN250 FM240000 15010KT 6SM -SHRA FU FEW015
                       OVC030
                      PROB30 2400/2403 2SM -TSRA FU OVC025CB FM240300
                       05005KT 3SM -SHRA BR FU FEW010 OVC025
                      PROB30 2403/2406 2SM -TSRA FU OVC025CB FM240900
                       09005KT 5SM -SHRA FU FEW015 OVC025 RMK NXT
                       FCST BY 231800Z=
202407231740 TAF CYOD 231740Z 2318/2418 11015G25KT 3SM FU OVC015
                      TEMPO 2318/2321 6SM FU SCT015 BKN025 OVC200
                       FM232100 15012G22KT 6SM FU FEW015 BKN025
                       BKN250
                      TEMPO 2321/2324 4SM FU FM240000 15010KT 6SM
                       -SHRA FU FEW015 OVC030
                      PROB30 2400/2403 2SM -TSRA FU OVC025CB FM240300
                       05005KT 3SM -SHRA BR FU FEW010 OVC025
                      PROB30 2403/2406 2SM -TSRA FU OVC025CB FM240900
                       09005KT 5SM -SHRA FU FEW015 OVC020 FM241200
                       06008KT 5SM FU FEW015 OVC025 FM241700 06010KT
                       5SM -SHRA FU OVC015 RMK NXT FCST BY 232100Z=
202407232040 TAF CYOD 232040Z 2321/2418 10015KT 3SM FU SCT030 BKN150 BKN210
                       TEMPO 2321/2324 6SM FU FM240000 12010KT
                       6SM FU OVC030
                      TEMPO 2400/2403 3SM -SHRA BR FU
                      PROB30 2400/2403 2SM -TSRA FU OVC025CB FM240300
                       08005KT 3SM -SHRA BR FU BKN015 OVC030
                      TEMPO 2403/2409 6SM FU SCT015 OVC030
                      PROB30 2403/2406 2SM -TSRA FU BKN010 OVC025CB
                       FM240900 07005KT 5SM -SHRA FU FEW015 OVC020
                       FM241200 06008KT 5SM FU FEW015 OVC025 FM241700
                       06010KT 5SM -SHRA FU OVC015 RMK NXT FCST
                       BY 240000Z=
202407232341 TAF CYOD 232341Z 2400/2424 08012KT 6SM FU BKN040
                      TEMPO 2400/2403 3SM FU FM240300 08005KT 3SM
                       -SHRA BR FU BKN015 OVC030
                      TEMPO 2403/2409 6SM FU SCT015 OVC030
                      PROB30 2403/2406 2SM -TSRA FU BKN010 OVC025CB
                       FM240900 07005KT 5SM FU FEW015 OVC020
                      TEMPO 2409/2412 2SM FU FM241200 06008KT 5SM
                       FU FEW015 OVC025 FM241800 06010KT 5SM -SHRA
                       FU OVC025 RMK NXT FCST BY 240300Z=
202407240241 TAF CYOD 240241Z 2403/2424 10012KT 6SM FU SCT040
                      TEMPO 2403/2409 3SM FU FEW015 BKN040 FM240900
                       07008KT 5SM FU FEW015 BKN030
                      TEMPO 2409/2412 2SM FU BKN020 FM241200 06008KT
                       5SM FU FEW015 OVC025 FM241800 06010KT 5SM
                       -SHRA FU OVC025 RMK NXT FCST BY 240600Z=
202407240541 TAF CYOD 240541Z 2406/2506 10010KT 6SM FU SCT040
                      TEMPO 2406/2409 3SM FU FEW015 BKN040 FM240900
                       08008KT 5SM FU FEW015 BKN030
                      TEMPO 2409/2415 2SM FU BKN020 FM241500 06008KT
                       5SM FU FEW015 OVC025
                      TEMPO 2415/2418 3SM -SHRA BR FU BKN015
                      PROB30 2415/2418 VRB15G35KT 2SM TSRA BR BKN012
                       OVC025CB FM241800 06010KT 5SM -SHRA FU OVC025
                       BECMG 2419/2421 35008KT FM242300 33010KT
                       5SM FU SCT010 BKN025 RMK NXT FCST BY 241200Z=
202407240915 TAF AMD CYOD 240915Z 2409/2506 05005KT 6SM FU FEW015 BKN050
                      TEMPO 2409/2415 3SM FU BKN020 FM241500 06008KT
                       5SM FU FEW015 OVC025
                      TEMPO 2415/2418 3SM -SHRA BR FU BKN015
                      PROB30 2415/2418 VRB15G35KT 2SM TSRA BR BKN012
                       OVC025CB FM241800 06010KT 5SM -SHRA FU OVC025
                       BECMG 2419/2421 35008KT FM242300 33010KT
                       5SM FU SCT010 BKN025 RMK NXT FCST BY 241200Z=
202407241140 TAF CYOD 241140Z 2412/2512 05005KT 6SM FU FEW015 BKN030
                      TEMPO 2412/2415 3SM FU BKN015 OVC030 FM241500
                       06008KT 6SM FU FEW015 OVC025
                      TEMPO 2415/2418 3SM -SHRA BR FU BKN015 FM241800
                       06010KT 5SM -SHRA FU FEW020 OVC025
                      TEMPO 2418/2421 2SM FU BKN020 OVC025
                      PROB30 2418/2421 VRB15G35KT 2SM TSRA BR BKN012
                       OVC025CB FM242100 05008KT 5SM -SHRA FU SCT008
                       BKN015 FM250300 04006KT 6SM FU FEW008 BKN020
                       FM250900 08006KT 6SM -SHRA FU BKN010 RMK
                       NXT FCST BY 241500Z=
202407241440 TAF CYOD 241440Z 2415/2512 05008KT 6SM FU SCT015 OVC025
                      TEMPO 2415/2418 3SM -SHRA BR FU OVC015 FM241800
                       06010KT 6SM FU FEW020 OVC025
                      TEMPO 2418/2421 3SM -SHRA FU BKN020 OVC025
                       PROB30 2418/2421 VRB15G35KT 2SM TSRA BR
                       BKN012 OVC025CB FM242100 05008KT 5SM -SHRA
                       FU SCT008 BKN015 FM250300 04006KT 6SM FU
                       FEW008 BKN020 FM250900 08006KT 6SM -SHRA
                       FU BKN010 RMK NXT FCST BY 241800Z=
202407241740 TAF CYOD 241740Z 2418/2518 06010KT 6SM FU FEW015 SCT030
                      TEMPO 2418/2421 3SM -SHRA FU BKN015 OVC030
                       PROB30 2418/2421 VRB15G35KT 2SM TSRA BR
                       BKN010 OVC015CB FM242100 06008KT 5SM -SHRA
                       FU SCT008 OVC015
                      TEMPO 2421/2503 BKN008 OVC015 FM250300 04006KT
                       6SM FU FEW008 BKN020 FM250900 08006KT 6SM
                       -SHRA FU OVC010 RMK NXT FCST BY 242100Z=
202407242040 TAF CYOD 242040Z 2421/2518 03010KT 6SM FU FEW015 OVC040
                      TEMPO 2421/2503 3SM -SHRA FU BKN015 OVC040
                       PROB30 2421/2503 VRB15G25KT 2SM -TSRA BR
                       BKN012 OVC025CB FM250300 04006KT 6SM FU
                       FEW008 OVC010 FM250900 08006KT 6SM -SHRA
                       FU OVC010 RMK NXT FCST BY 250000Z=
202407242300 TAF AMD CYOD 250119Z 2501/2524 04010KT 3SM FU SCT010 OVC020
                      TEMPO 2501/2503 1SM -DZ FU BKN010 OVC020
                       PROB30 2501/2503 3/4SM -DZ BR FU BKN008
                       FM250300 04005KT 5SM FU SCT010 OVC015
                      TEMPO 2503/2509 2SM FU BKN010 OVC015 FM250900
                       05008KT 6SM FU SCT010 OVC030
                      TEMPO 2509/2518 3SM -SHRA BR FU BKN010 OVC020
                       FM251800 18008KT 6SM FU BKN030 FM252200
                       20010G20KT 4SM -SHRA BR FU BKN040
                      BECMG 2522/2524 22012G22KT RMK NXT FCST BY
                       250300Z=
202407242303 TAF AMD CYOD 242303Z 2423/2518 04010KT 5SM FU FEW020 OVC040
                      TEMPO 2423/2503 2SM -SHRA FU BKN020 OVC040
                       PROB30 2423/2503 VRB15G25KT 2SM -TSRA FU
                       BR BKN012 OVC025CB FM250300 04006KT 6SM
                       FU FEW008 OVC015
                      TEMPO 2503/2509 3SM FU SCT008 OVC012 FM250900
                       08006KT 6SM -SHRA FU OVC010 RMK NXT FCST
                       BY 250000Z=
202407242340 TAF CYOD 242340Z 2500/2524 04010KT 5SM FU FEW010 OVC040
                      TEMPO 2500/2503 2SM -SHRA FU SCT010 OVC020
                       PROB30 2500/2503 VRB15G25KT 2SM -TSRA FU
                       BR BKN010 OVC025CB FM250300 04005KT 5SM
                       FU SCT010 OVC015
                      TEMPO 2503/2509 2SM FU BKN010 OVC015 FM250900
                       05008KT 6SM FU SCT010 OVC030
                      TEMPO 2509/2518 3SM -SHRA BR FU BKN010 OVC020
                       FM251800 18008KT 6SM FU BKN030 FM252200
                       20010G20KT 4SM -SHRA BR FU BKN040
                      BECMG 2522/2524 22012G22KT RMK NXT FCST BY
                       250300Z=
202407250119 TAF AMD CYOD 250119Z 2501/2524 04010KT 3SM FU SCT010 OVC020
                      TEMPO 2501/2503 1SM -DZ FU BKN010 OVC020
                       PROB30 2501/2503 3/4SM -DZ BR FU BKN008
                       FM250300 04005KT 5SM FU SCT010 OVC015
                      TEMPO 2503/2509 2SM FU BKN010 OVC015 FM250900
                       05008KT 6SM FU SCT010 OVC030
                      TEMPO 2509/2518 3SM -SHRA BR FU BKN010 OVC020
                       FM251800 18008KT 6SM FU BKN030 FM252200
                       20010G20KT 4SM -SHRA BR FU BKN040
                      BECMG 2522/2524 22012G22KT RMK NXT FCST BY
                       250300Z=
202407250240 TAF CYOD 250240Z 2503/2524 01010KT 3SM FU SCT005 OVC020
                      TEMPO 2503/2509 1SM -DZ FU BKN005 OVC015
                       PROB30 2503/2509 3/4SM -DZ BR FU FM250900
                       05008KT 5SM FU SCT008 OVC025
                      TEMPO 2509/2518 2SM -SHRA BR FU BKN008 OVC015
                       PROB30 2509/2515 1SM -DZ BR FU BKN005 FM251800
                       18008KT 6SM FU BKN030 FM252200 20010G20KT
                       4SM -SHRA BR FU BKN040
                      BECMG 2522/2524 22012G22KT RMK NXT FCST BY
                       250600Z=
202407250540 TAF CYOD 250540Z 2506/2606 01010KT 3SM FU SCT005 OVC020
                      TEMPO 2506/2509 1SM -DZ FU BKN005 OVC010
                       PROB30 2506/2509 3/4SM -DZ BR FU FM250900
                       05008KT 5SM FU SCT008 OVC020
                      TEMPO 2509/2518 2SM -DZ BR FU BKN008 OVC015
                       PROB30 2509/2515 3/4SM -DZ BR FU BKN005
                       FM251800 18008KT 6SM FU BKN030 FM252200
                       20010G20KT 4SM -SHRA BR FU BKN040
                      BECMG 2522/2524 22012G22KT FM260000 24015G25KT
                       5SM FU BKN025
                      BECMG 2602/2604 24020G30KT RMK NXT FCST BY
                       251200Z=
202407250815 TAF AMD CYOD 250815Z 2508/2606 05008KT 6SM FU SCT008 OVC020
                      TEMPO 2508/2518 2SM -DZ BR FU BKN008 OVC015
                       PROB30 2508/2515 3/4SM -DZ BR FU BKN005
                       FM251800 18008KT 6SM FU BKN030 FM252200
                       20010G20KT 4SM -SHRA BR FU BKN040
                      BECMG 2522/2524 22012G22KT FM260000 24015G25KT
                       5SM FU BKN025
                      BECMG 2602/2604 24020G30KT RMK NXT FCST BY
                       251200Z=
202407251140 TAF CYOD 251140Z 2512/2612 32006KT 5SM FU SCT008 OVC020
                      TEMPO 2512/2518 2SM -DZ FU BKN008 OVC015
                       PROB30 2512/2515 3/4SM -DZ BR FU BKN005
                       FM251800 18008KT P6SM BKN030
                      TEMPO 2518/2522 5SM FU BKN015 OVC030 FM252200
                       20010G20KT 4SM -SHRA BR FU BKN040
                      BECMG 2522/2524 22012G22KT FM260000 24015G25KT
                       5SM -SHRA BR BKN025
                      BECMG 2602/2604 24020G30KT FM260900 24025G35KT
                       4SM -RA BR BKN010 OVC025 RMK NXT FCST BY
                       251500Z=
202407251440 TAF CYOD 251440Z 2515/2612 03005KT 5SM FU SCT008 OVC020
                      TEMPO 2515/2518 2SM -DZ FU BKN008 OVC015
                       FM251800 18008KT P6SM BKN030
                      TEMPO 2518/2522 5SM FU BKN015 OVC030 FM252200
                       20010G20KT 4SM -SHRA BR FU BKN040
                      BECMG 2522/2524 22012G22KT FM260000 24015G25KT
                       5SM -SHRA BR BKN025
                      BECMG 2602/2604 24020G30KT FM260900 24025G35KT
                       4SM -RA BR BKN010 OVC025 RMK NXT FCST BY
                       251800Z=
202407251705 TAF AMD CYOD 251705Z 2517/2612 VRB03KT 1 1/2SM FU SCT007 OVC020
                       TEMPO 2517/2522 4SM FU FM252200 20010G20KT
                       4SM -SHRA BR FU SCT020 BKN040
                      TEMPO 2522/2524 6SM FU SCT040
                      BECMG 2522/2524 22012G22KT FM260000 24015G25KT
                       5SM -SHRA BR BKN025
                      BECMG 2602/2604 24020G30KT FM260900 24025G35KT
                       4SM -RA BR BKN010 OVC025 RMK NXT FCST BY
                       251800Z=
202407251740 TAF CYOD 251740Z 2518/2618 VRB03KT 1 1/2SM FU SCT007 OVC020
                      TEMPO 2518/2522 4SM FU FM252200 20010G20KT
                       4SM -SHRA BR FU SCT020 BKN040
                      TEMPO 2522/2524 6SM FU SCT040
                      BECMG 2522/2524 22012G22KT FM260000 24015G25KT
                       5SM -SHRA BR BKN025
                      BECMG 2602/2604 24020G30KT FM260900 24025G35KT
                       4SM -RA BR BKN010 OVC025 FM261400 24025G40KT
                       P6SM -RA OVC020 RMK NXT FCST BY 252100Z=
202407252040 TAF CYOD 252040Z 2521/2618 22008KT 2SM BR FU SCT015 OVC030
                      TEMPO 2521/2524 4SM FU SCT030
                      BECMG 2522/2524 22012G22KT FM260000 24015G25KT
                       5SM -SHRA BR BKN025
                      BECMG 2602/2604 24020G30KT FM260900 24025G35KT
                       4SM -RA BR BKN010 OVC025 FM261400 24025G40KT
                       P6SM -RA OVC020 RMK NXT FCST BY 260000Z=
202407252300 TAF AMD CYOD 260106Z 2601/2624 23015G25KT P6SM BKN030
                      TEMPO 2601/2609 4SM -SHRA FU BR
                      PROB30 2601/2606 VRB20G35KT 1SM TSRA BR FU
                       BKN015 OVC020CB FM260900 24025G35KT 4SM
                       -RA BR FU BKN008 OVC020 FM261400 24025G40KT
                       6SM -RA FU OVC015 FM261900 25025G40KT 4SM
                       -RA BR FU OVC010 RMK NXT FCST BY 260300Z=
202407252340 TAF CYOD 252340Z 2600/2624 24015G25KT 2SM -SHRA FU BR OVC015
                      TEMPO 2600/2609 5SM FU SCT015 BKN020
                      PROB30 2600/2606 VRB20G35KT 1SM TSRA BR FU
                       BKN015 OVC020CB FM260900 24025G35KT 4SM
                       -RA BR FU BKN008 OVC020 FM261400 24025G40KT
                       6SM -RA FU OVC015 FM261900 25025G40KT 4SM
                       -RA BR FU OVC010 RMK NXT FCST BY 260300Z=
202407260106 TAF AMD CYOD 260106Z 2601/2624 23015G25KT P6SM BKN030
                      TEMPO 2601/2609 4SM -SHRA FU BR
                      PROB30 2601/2606 VRB20G35KT 1SM TSRA BR FU
                       BKN015 OVC020CB FM260900 24025G35KT 4SM
                       -RA BR FU BKN008 OVC020 FM261400 24025G40KT
                       6SM -RA FU OVC015 FM261900 25025G40KT 4SM
                       -RA BR FU OVC010 RMK NXT FCST BY 260300Z=
202407260240 TAF CYOD 260240Z 2603/2624 24015G25KT P6SM SCT050
                      PROB30 2603/2607 VRB20G35KT 1SM TSRA BR FU
                       BKN015 OVC030CB FM260700 23020G30KT P6SM
                       SCT015 OVC030
                      TEMPO 2607/2609 4SM -SHRA FU BR BKN015 OVC030
                       FM260900 24025G35KT 4SM -RA BR FU BKN008
                       OVC020 FM261400 24025G40KT 6SM -RA FU OVC015
                       FM261900 25025G40KT 4SM -RA BR FU OVC010
                       RMK NXT FCST BY 260600Z=
202407260540 TAF CYOD 260540Z 2606/2706 23015G25KT P6SM OVC030 FM260700 23020G30KT
                       P6SM SCT015 OVC030
                      TEMPO 2607/2609 4SM -SHRA BR FU BKN015 OVC030
                       FM260900 24025G35KT 4SM -RA BR FU BKN008
                       OVC020
                      TEMPO 2609/2614 P6SM -RA SCT008 OVC020 FM261400
                       24025G40KT 6SM -RA FU OVC015 FM261900 25025G40KT
                       4SM -RA BR FU OVC010 FM270200 25020G30KT
                       6SM -RA FU OVC020 RMK NXT FCST BY 261200Z=
202407260909 TAF AMD CYOD 260909Z 2609/2706 22015G30KT 4SM -RA BR BKN012 OVC020
                       TEMPO 2609/2614 P6SM -RA SCT012 OVC020 FM261400
                       24020G35KT 6SM -RA OVC015
                      TEMPO 2614/2619 OVC010 FM261900 25020G35KT
                       4SM -RA BR OVC010 FM270200 25020G30KT 6SM
                       -RA OVC020 RMK NXT FCST BY 261200Z=
202407261103 TAF AMD CYOD 261103Z 2611/2706 22012G22KT 4SM -RA BR BKN008 OVC020
                       TEMPO 2611/2614 P6SM -RA SCT012 OVC020 FM261400
                       24020G35KT 6SM -RA OVC015
                      TEMPO 2614/2619 OVC010 FM261900 25020G35KT
                       4SM -RA BR OVC010 FM270200 25020G30KT 6SM
                       -RA OVC020 RMK NXT FCST BY 261200Z=
202407261140 TAF CYOD 261140Z 2612/2712 22012G22KT 4SM -RA BR OVC006
                      TEMPO 2612/2614 P6SM -RA SCT006 OVC015 FM261400
                       24020G35KT 6SM -RA SCT010 OVC015
                      TEMPO 2614/2619 3SM -SHRA BR SCT008 OVC010
                       PROB30 2614/2618 2SM -SHRA BR OVC006 FM261900
                       25020G35KT 4SM -RA BR OVC010 FM270200 25020G30KT
                       6SM -RA OVC020 FM271000 27012KT P6SM -SHRA
                       OVC025 RMK NXT FCST BY 261500Z=
202407261447 TAF CYOD 261447Z 2615/2712 24015G25KT 6SM -RA SCT010 OVC015
                      TEMPO 2615/2619 3SM -SHRA BR SCT008 OVC010
                       PROB30 2615/2618 2SM -SHRA BR OVC006 FM261900
                       25020G35KT 4SM -RA BR OVC010 FM270200 25020G30KT
                       6SM -RA OVC020 FM271000 27012KT P6SM -SHRA
                       OVC025 RMK NXT FCST BY 261800Z=
202407261740 TAF CYOD 261740Z 2618/2718 24018G28KT 4SM -RA BR SCT008 OVC010
                       TEMPO 2618/2710 6SM -SHRA SCT010 OVC015
                       BECMG 2700/2702 24012KT FM271000 27012KT
                       P6SM -SHRA OVC025 FM271100 27015KT 4SM -RA
                       OVC015 FM271600 29012KT P6SM -RA OVC020
                       RMK NXT FCST BY 262100Z=
202407262040 TAF CYOD 262040Z 2621/2718 26020G30KT 4SM -RA BR SCT008 OVC010
                       TEMPO 2621/2710 6SM -SHRA SCT010 OVC015
                       BECMG 2700/2702 24012KT FM271000 27012KT
                       P6SM -SHRA OVC025 FM271100 27015KT 4SM -RA
                       OVC015 FM271600 29012KT P6SM -RA OVC020
                       RMK NXT FCST BY 270000Z=
202407262340 TAF CYOD 262340Z 2700/2724 26015G30KT 3SM -RA BR OVC012
                      TEMPO 2700/2705 P6SM -RA SCT012 OVC030 FM270500
                       27012G25KT P6SM SCT020 OVC050
                      TEMPO 2705/2708 5SM -SHRA BR BKN020 FM270800
                       28018G28KT 2SM -RA BR OVC012 FM271100 29010G20KT
                       6SM -SHRA BR BKN015 OVC025 FM272000 30010G20KT
                       6SM FU SCT020 OVC040 RMK NXT FCST BY 270300Z=
202407270240 TAF CYOD 270240Z 2703/2724 27012G25KT P6SM SCT012 OVC025
                      TEMPO 2703/2708 5SM -SHRA BR BKN012 FM270800
                       28018G28KT 2SM -RA BR OVC012 FM271100 29010G20KT
                       6SM -SHRA BR BKN015 OVC025 FM272000 30010G20KT
                       6SM FU SCT020 OVC040 RMK NXT FCST BY 270600Z=
202407270540 TAF CYOD 270540Z 2706/2806 28012KT P6SM SCT008 OVC020
                      TEMPO 2706/2712 3SM -RA -DZ BR BKN008 OVC020
                       FM271200 29010G20KT 6SM -SHRA BR BKN015
                       OVC025 FM272000 30010G20KT 6SM FU SCT020
                       OVC040
                      BECMG 2802/2804 5SM FU SCT100 BKN250 RMK
                       NXT FCST BY 271200Z=
202407271140 TAF CYOD 271140Z 2712/2812 29010G20KT P6SM -SHRA BKN015 OVC025
                       TEMPO 2712/2716 3SM -SHRA BR BKN008 OVC015
                       FM271600 30010G20KT P6SM SCT015 OVC030
                      TEMPO 2716/2720 5SM -SHRA BR BKN015 OVC030
                       FM272000 30010G20KT 6SM FU SCT020 OVC040
                       BECMG 2802/2804 5SM FU SCT100 BKN250 FM280400
                       31008KT 5SM FU FEW040
                      TEMPO 2804/2812 3SM FU
                      BECMG 2804/2806 26005KT RMK NXT FCST BY 271500Z=
202407271445 TAF CYOD 271445Z 2715/2812 30010KT P6SM SCT015 OVC030
                      TEMPO 2715/2720 5SM -SHRA BR BKN015 OVC030
                       FM272000 30010G20KT 6SM FU SCT020 OVC040
                       BECMG 2802/2804 5SM FU SCT100 BKN250 FM280400
                       31008KT 5SM FU FEW040
                      TEMPO 2804/2812 3SM FU
                      BECMG 2804/2806 26005KT RMK NXT FCST BY 271800Z=
202407271740 TAF CYOD 271740Z 2718/2818 30010KT P6SM SCT015 OVC030
                      TEMPO 2718/2720 P6SM -SHRA BKN015 OVC030
                       FM272000 30010G20KT 6SM FU SCT020 OVC040
                       BECMG 2802/2804 5SM FU SCT100 BKN250 FM280400
                       31008KT 5SM FU FEW040
                      TEMPO 2804/2809 3SM FU
                      BECMG 2804/2806 26005KT FM280900 24005KT
                       P6SM BKN050
                      TEMPO 2809/2818 5SM FU RMK NXT FCST BY 272100Z=
202407272022 TAF AMD CYOD 272022Z 2720/2818 30012KT 6SM FU SCT020 OVC040
                      TEMPO 2720/2724 OVC020 FM280000 30012KT P6SM
                       SCT020 OVC040
                      BECMG 2802/2804 6SM FU SCT100 BKN250 FM280400
                       31008KT 6SM FU FEW040
                      TEMPO 2804/2809 3SM FU
                      BECMG 2804/2806 26005KT FM280900 24005KT
                       P6SM BKN050
                      TEMPO 2809/2818 5SM FU RMK NXT FCST BY 272100Z=
202407272042 TAF CYOD 272042Z 2721/2818 30012KT P6SM SCT020 OVC040
                      TEMPO 2721/2724 OVC020 FM280000 30012KT P6SM
                       SCT020 OVC040
                      BECMG 2802/2804 6SM FU SCT100 BKN250 FM280400
                       31008KT 6SM FU FEW040
                      TEMPO 2804/2809 3SM FU
                      BECMG 2804/2806 26005KT FM280900 24005KT
                       P6SM BKN050
                      TEMPO 2809/2818 5SM FU RMK NXT FCST BY 280000Z=
202407272340 TAF CYOD 272340Z 2800/2824 31005KT P6SM OVC040
                      BECMG 2802/2804 6SM FU SCT100 BKN250 FM280400
                       31008KT 6SM FU FEW040
                      TEMPO 2804/2809 5SM FU
                      PROB30 2804/2809 2SM FU FM280900 24005KT
                       P6SM BKN050
                      TEMPO 2809/2815 5SM FU FM281800 24008KT P6SM
                       SCT050 FM282200 24012KT P6SM -SHRA BKN050
                       RMK NXT FCST BY 280300Z=
202407280240 TAF CYOD 280240Z 2803/2824 28005KT P6SM FEW040
                      TEMPO 2803/2809 5SM FU
                      PROB30 2803/2809 2SM FU FM280900 24005KT
                       P6SM BKN050
                      TEMPO 2809/2815 5SM FU FM281800 24008KT P6SM
                       SCT050 FM282200 24012KT P6SM -SHRA BKN050
                       RMK NXT FCST BY 280600Z=
202407280540 TAF CYOD 280540Z 2806/2906 25008KT P6SM BKN060
                      TEMPO 2806/2815 5SM FU
                      PROB30 2806/2815 2SM FU FM281800 24008KT
                       P6SM SCT050 FM282200 24012KT P6SM -SHRA
                       BKN050 FM290300 23008KT P6SM SCT050 RMK
                       NXT FCST BY 281200Z=
202407281103 TAF AMD CYOD 281103Z 2811/2906 VRB03KT 3/4SM FU BR SKC
                      TEMPO 2811/2814 3SM FU BR FM281400 24008KT
                       6SM FU FEW070
                      TEMPO 2814/2818 3SM FU FM281800 24008KT P6SM
                       SCT050 FM282200 24012KT P6SM -SHRA BKN050
                       FM290300 23008KT P6SM SCT050 RMK NXT FCST
                       BY 281200Z=
202407281140 TAF CYOD 281140Z 2812/2912 VRB03KT 2SM FU BR SCT050
                      TEMPO 2812/2814 6SM FU FM281400 24008KT 6SM
                       FU FEW070
                      TEMPO 2814/2818 3SM FU FM281800 24008KT P6SM
                       SCT050 FM282200 24012KT P6SM -SHRA BKN050
                       FM290300 23008KT P6SM SCT050 RMK NXT FCST
                       BY 281500Z=
202407281440 TAF CYOD 281440Z 2815/2912 22005KT P6SM FEW050 SCT220
                      TEMPO 2815/2818 5SM FU FM281800 24008KT P6SM
                       SCT050 FM282200 24012KT P6SM -SHRA BKN050
                       FM290300 23008KT P6SM SCT050 RMK NXT FCST
                       BY 281800Z=
202407281740 TAF CYOD 281740Z 2818/2918 24008KT P6SM FEW120 SCT220 FM282000
                       24012KT P6SM -SHRA BKN050 FM290300 23008KT
                       P6SM SCT050 FM290900 VRB03KT P6SM FEW080
                       PROB30 2909/2912 1SM BR RMK NXT FCST BY
                       282100Z=
202407282040 TAF CYOD 282040Z 2821/2918 24008KT P6SM SCT060
                      TEMPO 2821/2903 P6SM -SHRA BKN060 FM290900
                       VRB03KT P6SM FEW080
                      PROB30 2909/2912 1SM BR RMK NXT FCST BY 290000Z=
202407282340 TAF CYOD 282340Z 2900/2924 24008KT P6SM SCT060
                      BECMG 2901/2903 VRB03KT FM291900 23008KT
                       P6SM SCT080 RMK NXT FCST BY 290300Z=
202407290240 TAF CYOD 290240Z 2903/2924 VRB03KT P6SM SCT060 FM291900 23008KT
                       P6SM SCT080 RMK NXT FCST BY 290600Z=
202407290540 TAF CYOD 290540Z 2906/3006 24005KT P6SM FEW250 FM291900 23008KT
                       P6SM SCT080 FM300300 33010KT P6SM SCT060
                       OVC080
                      TEMPO 3003/3006 P6SM -SHRA BKN060 RMK NXT
                       FCST BY 291200Z=
202407291140 TAF CYOD 291140Z 2912/3012 VRB03KT P6SM FEW110
                      PROB30 2912/2914 2SM BR FM291900 23008KT
                       P6SM SCT080 FM300000 27008KT P6SM BKN080
                       BKN240 FM300300 29010KT P6SM SCT060 OVC080
                       TEMPO 3003/3008 5SM -SHRA BKN060
                      PROB30 3003/3008 VRB15G25KT 2SM TSRA BR BKN050CB
                       OVC080 FM300800 29008KT P6SM BKN040 OVC060
                       RMK NXT FCST BY 291500Z=
202407291440 TAF CYOD 291440Z 2915/3012 VRB03KT P6SM FEW100
                      BECMG 2915/2917 18005KT FM291900 21008KT
                       P6SM SCT080 FM300000 27008KT P6SM BKN080
                       BKN240
                      TEMPO 3000/3003 P6SM -SHRA FM300300 29010KT
                       P6SM SCT060 OVC080
                      TEMPO 3003/3008 5SM -SHRA BKN060
                      PROB30 3003/3008 VRB15G25KT 2SM TSRA BR BKN050CB
                       OVC080 FM300800 29008KT P6SM BKN040 OVC060
                       RMK NXT FCST BY 291800Z=
202407291740 TAF CYOD 291740Z 2918/3018 20005KT P6SM SKC FM291900 21008KT P6SM
                       SCT090 FM300000 27008KT P6SM BKN090 BKN250
                       TEMPO 3000/3003 P6SM -SHRA FM300300 29010KT
                       P6SM SCT060 OVC080
                      TEMPO 3003/3008 5SM -SHRA BKN060
                      PROB30 3003/3008 VRB15G25KT 2SM TSRA BR BKN050CB
                       OVC080 FM300800 27008KT P6SM SCT040 OVC060
                       FM301400 31005KT P6SM FEW040 FEW120 SCT240
                       RMK NXT FCST BY 292100Z=
202407292040 TAF CYOD 292040Z 2921/3018 21010KT P6SM FEW080 SCT250 FM300000
                       27008KT P6SM SCT080 BKN250
                      TEMPO 3000/3003 P6SM -SHRA BKN080 FM300300
                       29010KT P6SM SCT060 OVC080
                      TEMPO 3003/3008 5SM -SHRA BKN060
                      PROB30 3003/3008 VRB15G25KT 2SM TSRA BR BKN050CB
                       OVC080 FM300800 27008KT P6SM SCT040 OVC060
                       FM301400 31005KT P6SM FEW040 FEW120 SCT240
                       RMK NXT FCST BY 300000Z=
202407292300 TAF AMD CYOD 300112Z 3001/3024 29005KT P6SM SCT080 BKN250
                      TEMPO 3001/3002 P6SM -SHRA BKN080 FM300145
                       27010KT P6SM SCT060 OVC080
                      TEMPO 3001/3004 VRB15G25KT 2SM TSRA BR BKN050CB
                       OVC080 FM300400 27010KT P6SM SCT060 OVC080
                       TEMPO 3004/3008 5SM -SHRA BKN060
                      PROB30 3004/3008 VRB15G25KT 2SM TSRA BR BKN050CB
                       OVC080 FM300800 27008KT P6SM SCT040 OVC060
                       FM301400 31008KT P6SM SCT025 SCT240 FM302000
                       29008KT P6SM SCT050 RMK NXT FCST BY 300300Z=
202407292340 TAF CYOD 292340Z 3000/3024 23008KT P6SM SCT080 BKN250
                      TEMPO 3000/3002 P6SM -SHRA BKN080
                      BECMG 3000/3002 26008KT FM300200 27010KT
                       P6SM SCT060 OVC080
                      TEMPO 3002/3008 5SM -SHRA BKN060
                      PROB30 3002/3008 VRB15G25KT 2SM TSRA BR BKN050CB
                       OVC080 FM300800 27008KT P6SM SCT040 OVC060
                       FM301400 31008KT P6SM SCT025 SCT240 FM302000
                       29008KT P6SM SCT050 RMK NXT FCST BY 300300Z=
202407300112 TAF AMD CYOD 300112Z 3001/3024 29005KT P6SM SCT080 BKN250
                      TEMPO 3001/3002 P6SM -SHRA BKN080 FM300145
                       27010KT P6SM SCT060 OVC080
                      TEMPO 3001/3004 VRB15G25KT 2SM TSRA BR BKN050CB
                       OVC080 FM300400 27010KT P6SM SCT060 OVC080
                       TEMPO 3004/3008 5SM -SHRA BKN060
                      PROB30 3004/3008 VRB15G25KT 2SM TSRA BR BKN050CB
                       OVC080 FM300800 27008KT P6SM SCT040 OVC060
                       FM301400 31008KT P6SM SCT025 SCT240 FM302000
                       29008KT P6SM SCT050 RMK NXT FCST BY 300300Z=
202407300240 TAF CYOD 300240Z 3003/3024 30008KT P6SM SCT060 OVC080
                      TEMPO 3003/3004 VRB15G25KT 2SM TSRA BR BKN050CB
                       OVC080 FM300400 28008KT P6SM SCT060 OVC080
                       TEMPO 3004/3008 5SM -SHRA BKN060
                      PROB30 3004/3008 VRB15G25KT 2SM TSRA BR BKN050CB
                       OVC080 FM300800 27008KT P6SM SCT040 OVC060
                       FM301400 31008KT P6SM SCT025 SCT240 FM302000
                       29008KT P6SM SCT050 RMK NXT FCST BY 300600Z=
202407300306 TAF AMD CYOD 300306Z 3003/3024 30008KT P6SM SCT060 OVC080
                      TEMPO 3003/3004 VRB15G25KT 3/4SM +TSRA BR
                       BKN050CB OVC080 FM300400 28008KT P6SM SCT060
                       OVC080
                      TEMPO 3004/3008 3SM -SHRA BR BKN060
                      PROB30 3004/3008 VRB15G25KT 3/4SM TSRA BR
                       BKN050CB OVC080 FM300800 27008KT P6SM SCT040
                       OVC060 FM301400 31008KT P6SM SCT025 SCT240
                       FM302000 29008KT P6SM SCT050 RMK NXT FCST
                       BY 300600Z=
202407300405 TAF AMD CYOD 300405Z 3004/3024 VRB03KT P6SM SCT030 OVC060
                      TEMPO 3004/3005 VRB15G25KT 2SM TSRA BR BKN015
                       OVC040CB FM300500 28008KT P6SM SCT060 OVC080
                       TEMPO 3005/3008 3SM -SHRA BR BKN060
                      PROB30 3005/3008 VRB15G25KT 2SM TSRA BR BKN050CB
                       OVC080 FM300800 27008KT P6SM SCT040 OVC060
                       FM301400 31008KT P6SM SCT025 SCT240 FM302000
                       29008KT P6SM SCT050 RMK NXT FCST BY 300600Z=
202407300540 TAF CYOD 300540Z 3006/3106 32008KT P6SM SCT040 BKN120
                      TEMPO 3006/3008 3SM -SHRA BR BKN040 OVC120
                       FM300800 32008KT P6SM SCT040 BKN060 FM301100
                       32008KT P6SM SCT015 BKN060 FM301400 32008KT
                       P6SM FEW025 SCT150 FM302000 30008KT P6SM
                       BKN050
                      BECMG 3100/3102 VRB03KT FM310400 VRB03KT
                       P6SM SCT050 RMK NXT FCST BY 301200Z=
202407301140 TAF CYOD 301140Z 3012/3112 VRB03KT P6SM SCT110 OVC220
                      BECMG 3015/3017 32008KT SCT100 FM302200 30008KT
                       P6SM BKN050
                      TEMPO 3022/3103 P6SM VCSH
                      BECMG 3101/3103 VRB03KT FM310300 VRB03KT
                       P6SM SCT050
                      BECMG 3107/3109 25005KT RMK NXT FCST BY 301500Z=
202407301440 TAF CYOD 301440Z 3015/3112 VRB03KT P6SM SCT150 BKN250
                      BECMG 3015/3017 31005KT SCT100 FM302200 30008KT
                       P6SM SCT060
                      TEMPO 3022/3103 P6SM VCSH BKN050
                      BECMG 3101/3103 VRB03KT FM310300 VRB03KT
                       P6SM SCT050
                      BECMG 3107/3109 25005KT RMK NXT FCST BY 301800Z=
202407301741 TAF CYOD 301741Z 3018/3118 32008KT P6SM FEW030 FEW150 SCT250 FM302200
                       32010KT P6SM SCT060 SCT100
                      TEMPO 3022/3104 P6SM VCSH BKN050
                      BECMG 3101/3103 VRB03KT FM310400 VRB03KT
                       P6SM SCT050
                      TEMPO 3104/3112 BKN050
                      BECMG 3107/3109 25005KT FM311200 VRB03KT
                       P6SM BKN070
                      BECMG 3115/3117 26008KT RMK NXT FCST BY 302100Z=
202407302040 TAF CYOD 302040Z 3021/3118 25010KT P6SM SCT050 SCT100
                      TEMPO 3022/3104 P6SM -SHRA BKN050 BKN100
                       BECMG 3101/3103 25005KT FM310400 VRB03KT
                       P6SM SCT050
                      TEMPO 3104/3112 BKN050
                      BECMG 3107/3109 25005KT FM311200 VRB03KT
                       P6SM BKN070
                      BECMG 3115/3117 26008KT RMK NXT FCST BY 310000Z=
202407302340 TAF CYOD 302340Z 3100/3124 22010KT P6SM FEW050 BKN070
                      TEMPO 3100/3104 P6SM -SHRA BKN050
                      BECMG 3101/3103 22005KT FM310400 22005KT
                       P6SM SCT050
                      TEMPO 3104/3112 BKN050 FM311200 25005KT P6SM
                       SCT070
                      BECMG 3115/3117 26010KT RMK NXT FCST BY 310300Z=

</pre>



</body></html>