<!DOCTYPE html PUBLIC "-//W3C//DTD HTML 4.01 Transitional//EN">
<!-- saved from url=(0177)https://www.ogimet.com/display_metars2.php?lang=en&lugar=CYOD&tipo=ALL&ord=DIR&nil=SI&fmt=txt&ano=2024&mes=06&day=01&hora=00&anof=2024&mesf=06&dayf=31&horaf=00&minf=59&send=send -->
<html><head><meta http-equiv="Content-Type" content="text/html; charset=UTF-8">
  <title>Display metars</title>
  
  <meta name="Author" content="G. Ballester">
  <meta name="GENERATOR" content="Quanta Plus">
  <meta name="robots" content="index,nofollow">
  <meta name="keywords" content="metar, speci, taf, weather reports">
  <meta name="viewport" content="width=device-width, initial-scale=1">
  <link rel="stylesheet" href="./DisplayMetarsCYOD_June_files/ogimet.css">
  <link rel="stylesheet" type="text/css" href="./DisplayMetarsCYOD_June_files/cookieconsent.min.css">
<script src="./DisplayMetarsCYOD_June_files/cookieconsent.min.js.download"></script>
<script>
window.addEventListener("load", function(){
window.cookieconsent.initialise({
  "palette": {
    "popup": {
      "background": "#eb6c44",
      "text": "#ffffff"
    },
    "button": {
      "background": "#f5d948"
    }
  },
  "theme": "classic",
  "position": "top",
  "content": {
    "message": "Las cookies de este sitio web se usan para personalizar el contenido y los anuncios, ofrecer funciones de redes sociales y analizar el tráfico. Ademas, compartimos el uso que haga del sitio web con nuestros partners de redes sociales, publicidad y análisis web, quienes pueden combinarla con otra información que les haya proporcionado o que hayan recopilado a partir del uso que haya hecho de sus servicios. Si continua navegando en estas páginas consideramos que acepta su uso. ",
    "dismiss": "Entendido",
    "link": "Saber más",
    "href": "/cookiespolicy.phtml"
  }
})});
</script>
<style></style></head>

<body><div role="dialog" aria-live="polite" aria-label="cookieconsent" aria-describedby="cookieconsent:desc" class="cc-window cc-banner cc-type-info cc-theme-classic cc-top cc-color-override-1519961192 cc-invisible" style="display: none;"><!--googleoff: all--><span id="cookieconsent:desc" class="cc-message">Las cookies de este sitio web se usan para personalizar el contenido y los anuncios, ofrecer funciones de redes sociales y analizar el tráfico. Ademas, compartimos el uso que haga del sitio web con nuestros partners de redes sociales, publicidad y análisis web, quienes pueden combinarla con otra información que les haya proporcionado o que hayan recopilado a partir del uso que haya hecho de sus servicios. Si continua navegando en estas páginas consideramos que acepta su uso.  <a aria-label="learn more about cookies" role="button" tabindex="0" class="cc-link" href="https://www.ogimet.com/cookiespolicy.phtml" target="_blank">Saber más</a></span><div class="cc-compliance"><a aria-label="dismiss cookie message" role="button" tabindex="0" class="cc-btn cc-dismiss">Entendido</a></div><!--googleon: all--></div>
  <pre>##########################################################
# Query made at 10/28/2024 11:47:22 UTC
# Time interval: from 06/01/2024 00:00  to 07/01/2024 00:59  UTC
##########################################################

##########################################################
# CYOD, Cold Lake, Alta. (Canada)
# WMO index: 71120. WIGOS ID: 0-20000-0-71120
# Latitude 54-25-00N. Longitude 110-16-59W. Altitude 541 m.
##########################################################

###################################
#  METAR/SPECI from CYOD
###################################
202406010000 METAR CYOD 010000Z 31020G27KT 6SM -SHRA OVC030 09/07 A2973 RMK SC8 DENSITY ALT 1739FT SLP082=
202406010006 SPECI CYOD 010006Z 29016G33KT 3SM -SHRA OVC030 08/06 A2972 RMK SC8 DENSITY ALT 1624FT SLP081=
202406010022 SPECI CYOD 010022Z 26014KT 15SM -SHRA BKN035 07/05 A2971 RMK SC7 DENSITY ALT 1594FT SLP077=
202406010029 SPECI CYOD 010029Z 25013KT 15SM SCT035 BKN075 08/06 A2971 RMK SC4AC3 DENSITY ALT 1623FT SLP077=
202406010100 METAR CYOD 010100Z 23008KT 15SM SCT045 OVC090 08/07 A2971 RMK SC4AC4 DENSITY ALT 1683FT SLP077=
202406010200 METAR CYOD 010200Z 23010KT 15SM FEW060 OVC120 10/07 A2970 RMK SC2AC6 DENSITY ALT 1887FT SLP071=
202406010300 METAR CYOD 010300Z 24009KT 15SM FEW080 OVC120 10/07 A2969 RMK AC2AC6 DENSITY ALT 1909FT SLP068=
202406010400 METAR CYOD 010400Z 25008KT 15SM BKN050 OVC180 10/06 A2970 RMK SC5AC3 DENSITY ALT 1917FT SLP069=
202406010500 METAR CYOD 010500Z 25012KT 15SM FEW090 BKN110 09/05 A2969 RMK AC2AC3 DENSITY ALT 1862FT SLP067=
202406010600 METAR CYOD 010600Z 24012KT 15SM FEW090 09/05 A2969 RMK AC2 DENSITY ALT 1796FT SLP065=
202406010700 METAR CYOD 010700Z 25010KT 15SM FEW100 08/05 A2968 RMK AC2 DENSITY ALT 1730FT SLP062=
202406010800 METAR CYOD 010800Z 25009KT 15SM FEW100 08/05 A2968 RMK AC1 DENSITY ALT 1664FT SLP063=
202406010900 METAR CYOD 010900Z 24010KT 15SM FEW100 07/05 A2968 RMK AC1 DENSITY ALT 1613FT SLP063=
202406011000 METAR CYOD 011000Z 24010KT 15SM FEW100 07/05 A2968 RMK AC1 DENSITY ALT 1586FT SLP064=
202406011100 METAR CYOD 011100Z 24009KT 15SM FEW100 06/05 A2969 RMK AC1 DENSITY ALT 1484FT SLP066=
202406011200 METAR CYOD 011200Z 25010KT 15SM SKC 07/05 A2969 RMK DENSITY ALT 1562FT SLP069=
202406011300 METAR CYOD 011300Z 26011KT 15SM FEW060 08/05 A2969 RMK CF1 DENSITY ALT 1731FT SLP069=
202406011400 METAR CYOD 011400Z 28013KT 15SM FEW060 10/05 A2969 RMK SC2 DENSITY ALT 1884FT SLP068=
202406011500 METAR CYOD 011500Z 26012KT 15SM FEW060 11/05 A2968 RMK CU2 DENSITY ALT 2111FT SLP063=
202406011600 METAR CYOD 011600Z 29014KT 15SM FEW060 13/03 A2968 RMK CU2 DENSITY ALT 2338FT SLP060=
202406011700 METAR CYOD 011700Z 30014KT 15SM FEW060 14/02 A2968 RMK CU2 DENSITY ALT 2478FT SLP059=
202406011800 METAR CYOD 011800Z CCA 30021KT 15SM FEW055 15/01 A2967 RMK CU1 DENSITY ALT 2555FT SLP058=
202406011900 METAR CYOD 011900Z 31017G27KT 15SM FEW055 16/M01 A2967 RMK CU2 DENSITY ALT 2684FT SLP057=
202406012000 METAR CYOD 012000Z 28013KT 15SM FEW070 17/00 A2966 RMK CU2 DENSITY ALT 2837FT SLP054=
202406012100 METAR CYOD 012100Z 28017G28KT 15SM SCT070 17/M01 A2965 RMK CU3 DENSITY ALT 2878FT SLP051=
202406012200 METAR CYOD 012200Z 26010KT 15SM FEW075 18/M01 A2965 RMK CU2 DENSITY ALT 2965FT SLP049=
202406012300 METAR CYOD 012300Z 31012KT 15SM SCT080 18/M01 A2964 RMK CU3 DENSITY ALT 2999FT SLP048=
202406020000 METAR CYOD 020000Z 31012KT 15SM BKN080 17/M01 A2965 RMK AC5 DENSITY ALT 2801FT SLP050=
202406020100 METAR CYOD 020100Z 04010KT 15SM BKN080 BKN250 15/03 A2966 RMK AC5CI1 DENSITY ALT 2644FT SLP054=
202406020200 METAR CYOD 020200Z 03014KT 15SM SCT090 BKN250 13/04 A2968 RMK AC4CI1 DENSITY ALT 2302FT SLP061=
202406020300 METAR CYOD 020300Z 04010KT 15SM FEW090 FEW250 12/04 A2969 RMK AC1CI1 DENSITY ALT 2126FT SLP064=
202406020400 METAR CYOD 020400Z 08004KT 15SM FEW090 FEW250 09/04 A2970 RMK AC1CI1 DENSITY ALT 1771FT SLP068=
202406020500 METAR CYOD 020500Z 03005KT 15SM FEW250 07/03 A2971 RMK CI1 DENSITY ALT 1553FT SLP073=
202406020600 METAR CYOD 020600Z 05005KT 15SM FEW250 05/03 A2972 RMK CI1 DENSITY ALT 1293FT SLP077=
202406020700 METAR CYOD 020700Z 10003KT 15SM FEW250 05/03 A2973 RMK CI1 DENSITY ALT 1239FT SLP078=
202406020800 METAR CYOD 020800Z 00000KT 15SM MIFG SKC 04/03 A2973 RMK DENSITY ALT 1096FT SLP079=
202406020900 METAR CYOD 020900Z 33005KT 15SM FEW230 01/00 A2974 RMK CI1 DENSITY ALT 661FT SLP083=
202406021000 METAR CYOD 021000Z 32002KT 15SM MIFG FEW230 01/01 A2974 RMK CI1 DENSITY ALT 744FT SLP084=
202406021100 METAR CYOD 021100Z 31002KT 15SM MIFG FEW230 00/00 A2974 RMK CI1 DENSITY ALT 605FT SLP084=
202406021200 METAR CYOD 021200Z 00000KT 15SM MIFG FEW210 00/M00 A2974 RMK CI1 DENSITY ALT 589FT SLP087=
202406021300 METAR CYOD 021300Z 36002KT 15SM FEW110 04/03 A2975 RMK AC1 DENSITY ALT 1140FT SLP088=
202406021400 METAR CYOD 021400Z 35002KT 15SM FEW030 FEW110 07/03 A2976 RMK CF1AC1 DENSITY ALT 1469FT SLP090=
202406021500 METAR CYOD 021500Z 03003KT 15SM FEW110 10/03 A2975 RMK AC1 DENSITY ALT 1812FT SLP087=
202406021600 METAR CYOD 021600Z 31004KT 15SM FEW030 FEW110 12/03 A2974 RMK CU1AC1 DENSITY ALT 2166FT SLP085=
202406021700 METAR CYOD 021700Z 20005KT 15SM FEW040 14/02 A2974 RMK CU1 DENSITY ALT 2348FT SLP081=
202406021800 METAR CYOD 021800Z 12006KT 15SM FEW050 16/02 A2973 RMK CU2 DENSITY ALT 2570FT SLP078=
202406021900 METAR CYOD 021900Z 01005KT 15SM SCT050 15/02 A2972 RMK CU3 DENSITY ALT 2507FT SLP077=
202406022000 METAR CYOD 022000Z 04005KT 15SM SCT055 17/02 A2971 RMK CU3 DENSITY ALT 2717FT SLP074=
202406022100 METAR CYOD 022100Z 02005KT 15SM FEW065 FEW250 16/02 A2970 RMK CU2CI1 DENSITY ALT 2602FT SLP074=
202406022200 METAR CYOD 022200Z 08006KT 15SM SCT075 SCT250 18/02 A2969 RMK CU3CI1 DENSITY ALT 2901FT SLP068=
202406022300 METAR CYOD 022300Z 07007KT 15SM FEW065 FEW110 18/02 A2968 RMK CU2AC1 DENSITY ALT 2912FT SLP064=
202406030000 METAR CYOD 030000Z 10008KT 15SM FEW070 18/02 A2967 RMK CU2 DENSITY ALT 2970FT SLP060=
202406030100 METAR CYOD 030100Z 07009KT 15SM FEW070 18/02 A2966 RMK CU1 DENSITY ALT 2967FT SLP056=
202406030200 METAR CYOD 030200Z 10007KT 15SM FEW070 17/01 A2966 RMK AC2 DENSITY ALT 2841FT SLP053=
202406030300 METAR CYOD 030300Z 10007KT 15SM FEW110 15/02 A2965 RMK AC2 DENSITY ALT 2574FT SLP049=
202406030400 METAR CYOD 030400Z 10007KT 15SM FEW110 13/03 A2965 RMK AC1 DENSITY ALT 2293FT SLP049=
202406030500 METAR CYOD 030500Z 11009KT 15SM FEW120 11/03 A2964 RMK AC2 DENSITY ALT 2169FT SLP047=
202406030600 METAR CYOD 030600Z 10011KT 15SM SCT110 11/04 A2963 RMK AC4 DENSITY ALT 2171FT SLP042=
202406030700 METAR CYOD 030700Z 11010KT 15SM FEW110 10/04 A2963 RMK AC1 DENSITY ALT 2008FT SLP043=
202406030800 METAR CYOD 030800Z 11010KT 15SM FEW110 09/04 A2962 RMK AC1 DENSITY ALT 1919FT SLP038=
202406030900 METAR CYOD 030900Z 10011KT 15SM SCT110 09/04 A2960 RMK AC3 DENSITY ALT 1854FT SLP035=
202406031000 METAR CYOD 031000Z 09011KT 15SM BKN100 09/04 A2959 RMK AC5 DENSITY ALT 1863FT SLP028=
202406031100 METAR CYOD 031100Z 09012KT 15SM BKN095 08/03 A2958 RMK AC6 DENSITY ALT 1845FT SLP024=
202406031200 METAR CYOD 031200Z 10008KT 15SM BKN095 BKN150 08/03 A2957 RMK AC5AC2 DENSITY ALT 1817FT SLP021=
202406031300 METAR CYOD 031300Z 10008KT 15SM BKN095 BKN150 08/03 A2956 RMK AC6AC1 DENSITY ALT 1855FT SLP017=
202406031400 METAR CYOD 031400Z 11012KT 15SM BKN095 BKN150 11/03 A2954 RMK AC5AC2 DENSITY ALT 2250FT SLP009=
202406031500 METAR CYOD 031500Z 09015KT 15SM SCT110 OVC170 12/03 A2952 RMK AC4AC4 DENSITY ALT 2422FT SLP004=
202406031600 METAR CYOD 031600Z 09014KT 15SM FEW060 BKN170 OVC260 14/03 A2950 RMK SC1AS5CI3 DENSITY ALT 2647FT SLP998=
202406031700 METAR CYOD 031700Z 08016KT 15SM FEW060 BKN110 OVC260 16/04 A2948 RMK SC1AC5CI3 DENSITY ALT 2884FT SLP990=
202406031800 METAR CYOD 031800Z 08016KT 15SM FEW050 BKN075 OVC120 15/04 A2947 RMK SC1AC5AS3 DENSITY ALT 2874FT SLP988=
202406031900 METAR CYOD 031900Z 09013KT 15SM FEW050 BKN075 OVC120 16/05 A2946 RMK SC1AC6AS2 DENSITY ALT 2940FT SLP984=
202406031917 SPECI CYOD 031917Z 08013KT 12SM -RA FEW050 BKN075 OVC120 16/05 A2946 RMK SC1AC6AS2 DENSITY ALT 2917FT SLP983=
202406032000 METAR CYOD 032000Z 08013KT 12SM -RA SCT040 OVC070 15/05 A2946 RMK SC3AS5 DENSITY ALT 2821FT SLP983=
202406032100 METAR CYOD 032100Z 08011KT 9SM -RA SCT040 OVC070 15/07 A2945 RMK SC3AS5 DENSITY ALT 2827FT SLP981=
202406032200 METAR CYOD 032200Z 08008KT 7SM -RA FEW030 OVC050 13/09 A2944 RMK SC2SC6 DENSITY ALT 2705FT SLP980=
202406032300 METAR CYOD 032300Z 06011KT 9SM -RA SCT050 OVC070 13/10 A2942 RMK SC4AS4 DENSITY ALT 2722FT SLP974=
202406040000 METAR CYOD 040000Z 07009KT 9SM -RA FEW030 OVC050 13/10 A2942 RMK SC2SC6 DENSITY ALT 2638FT SLP974=
202406040100 METAR CYOD 040100Z 06009KT 15SM -RA OVC060 13/10 A2941 RMK SC8 DENSITY ALT 2721FT PCPN VRY LGT SLP971=
202406040200 METAR CYOD 040200Z 07014KT 15SM -RA OVC055 13/09 A2941 RMK SC8 DENSITY ALT 2705FT PCPN VRY LGT SLP967=
202406040300 METAR CYOD 040300Z 07014KT 15SM BKN020 OVC050 13/10 A2940 RMK SC5SC3 DENSITY ALT 2674FT SLP963=
202406040340 SPECI CYOD 040340Z 06013KT 15SM -SHRA BKN020 OVC050 12/10 A2941 RMK SC5SC3 DENSITY ALT 2623FT SLP968=
202406040400 METAR CYOD 040400Z 07014KT 3SM -SHRA BKN020 OVC040 12/10 A2941 RMK SC6SC2 DENSITY ALT 2578FT SLP967=
202406040500 METAR CYOD 040500Z 05009KT 6SM -SHRA OVC019 12/10 A2940 RMK SC8 DENSITY ALT 2541FT SLP961=
202406040600 METAR CYOD 040600Z 05014KT 8SM -SHRA OVC019 12/10 A2939 RMK SC8 DENSITY ALT 2537FT PCPN VRY LGT SLP958=
202406040635 SPECI CYOD 040635Z 03010KT 3SM -SHRA OVC015 11/10 A2938 RMK SC8 DENSITY ALT 2471FT SLP957=
202406040700 METAR CYOD 040700Z 02010KT 4SM -SHRA OVC013 10/10 A2938 RMK SC8 DENSITY ALT 2406FT SLP957=
202406040800 METAR CYOD 040800Z 02010KT 10SM -SHRA OVC011 10/10 A2938 RMK SC8 DENSITY ALT 2409FT PCPN VRY LGT SLP957=
202406040900 METAR CYOD 040900Z 02009KT 15SM OVC010 10/10 A2938 RMK SC8 DENSITY ALT 2409FT SLP956=
202406041000 METAR CYOD 041000Z 02009KT 15SM OVC012 10/10 A2938 RMK SC8 DENSITY ALT 2407FT SLP957=
202406041100 METAR CYOD 041100Z 01009KT 10SM -SHRA OVC013 11/10 A2937 RMK SC8 DENSITY ALT 2433FT SLP955=
202406041200 METAR CYOD 041200Z 02010KT 12SM -SHRA OVC010 11/10 A2937 RMK SC8 DENSITY ALT 2458FT SLP956=
202406041222 SPECI CYOD 041222Z 02014KT 15SM OVC010 10/09 A2938 RMK SC8 DENSITY ALT 2403FT SLP957=
202406041300 METAR CYOD 041300Z 01010KT 8SM -RA FEW008 OVC010 10/09 A2938 RMK SF2ST6 DENSITY ALT 2391FT SLP958=
202406041317 SPECI CYOD 041317Z 01010KT 5SM -RA SCT008 OVC010 10/09 A2938 RMK SF4ST4 DENSITY ALT 2365FT SLP958=
202406041328 SPECI CYOD 041328Z 01010KT 2SM -RA BR FEW005 OVC008 10/10 A2938 RMK SF2ST6 DENSITY ALT 2367FT SLP958=
202406041343 SPECI CYOD 041343Z 01010KT 1SM R31R/P6000FT/U -RA BR SCT005 OVC010 10/10 A2938 RMK SF4ST4 DENSITY ALT 2354FT SLP959=
202406041400 METAR CYOD 041400Z 36009KT 2SM -RA BR SCT006 OVC015 10/09 A2938 RMK SF4ST8 DENSITY ALT 2340FT SLP959=
202406041434 SPECI CYOD 041434Z 35008KT 6SM -RA BR FEW005 SCT008 OVC015 10/10 A2938 RMK SF2SF2ST4 DENSITY ALT 2355FT SLP959=
202406041500 METAR CYOD 041500Z 36009KT 4SM -RA BR SCT005 OVC015 10/10 A2938 RMK SF3ST5 DENSITY ALT 2381FT SLP960=
202406041519 SPECI CYOD 041519Z 35008KT 6SM -RA BR SCT005 OVC015 10/10 A2938 RMK SF3ST8 DENSITY ALT 2396FT SLP958=
202406041600 METAR CYOD 041600Z 35008KT 5SM -RA BR SCT005 OVC015 11/10 A2937 RMK SF4ST8 DENSITY ALT 2435FT SLP957=
202406041700 METAR CYOD 041700Z 01007KT 5SM -RA BR SCT006 OVC017 11/10 A2937 RMK SF4ST4 DENSITY ALT 2488FT SLP956=
202406041800 METAR CYOD 041800Z 02008KT 5SM -RA BR SCT005 OVC015 11/10 A2936 RMK SF4ST4 DENSITY ALT 2485FT SLP953=
202406041900 METAR CYOD 041900Z 01007KT 5SM -RA BR SCT005 OVC015 10/10 A2936 RMK SF4ST4 DENSITY ALT 2431FT SLP954=
202406042000 METAR CYOD 042000Z 36006KT 5SM -RA BR SCT005 OVC012 11/10 A2936 RMK SF4ST4 DENSITY ALT 2514FT SLP952=
202406042100 METAR CYOD 042100Z 01005KT 5SM -RA BR BKN005 OVC012 11/11 A2935 RMK SF5ST3 DENSITY ALT 2566FT SLP950=
202406042148 SPECI CYOD 042148Z 35004KT 5SM -RA BR BKN006 OVC012 11/11 A2935 RMK SF5ST3 DENSITY ALT 2578FT SLP947=
202406042200 METAR CYOD 042200Z 34003KT 7SM -RA BKN007 OVC012 11/10 A2934 RMK SF5ST3 DENSITY ALT 2588FT SLP946=
202406042300 METAR CYOD 042300Z 28003KT 7SM -RA SCT006 OVC028 11/11 A2934 RMK SF4SC4 DENSITY ALT 2590FT SLP945=
202406050000 METAR CYOD 050000Z 27008KT 7SM -RA SCT008 OVC028 12/11 A2934 RMK SF4SC4 DENSITY ALT 2618FT SLP944=
202406050100 METAR CYOD 050100Z 26006KT 7SM -RA BKN007 OVC015 11/11 A2933 RMK SF5SC3 DENSITY ALT 2606FT SLP942=
202406050200 METAR CYOD 050200Z 27009KT 10SM -RA SCT008 OVC060 11/10 A2934 RMK SF4SC4 DENSITY ALT 2481FT SLP945=
202406050300 METAR CYOD 050300Z 27008KT 12SM -RA FEW008 OVC013 10/10 A2934 RMK SF2SC6 DENSITY ALT 2429FT SLP945=
202406050320 SPECI CYOD 050320Z 28009KT 15SM FEW015 OVC130 10/09 A2933 RMK SC2AC6 DENSITY ALT 2412FT SLP944=
202406050400 METAR CYOD 050400Z 31007KT 15SM SCT070 OVC120 10/09 A2934 RMK AC4AC4 DENSITY ALT 2360FT SLP946=
202406050415 SPECI CYOD 050415Z 28006KT 10SM -RA OVC060 10/09 A2935 RMK SC8 DENSITY ALT 2348FT SLP950=
202406050500 METAR CYOD 050500Z 26007KT 10SM -RA SCT012 OVC055 10/09 A2936 RMK SC4SC4 DENSITY ALT 2322FT SLP954=
202406050514 SPECI CYOD 050514Z 27008KT 8SM -RA OVC012 10/09 A2936 RMK SC8 DENSITY ALT 2309FT SLP954=
202406050600 METAR CYOD 050600Z 26006KT 8SM -RA BKN015 OVC050 09/09 A2936 RMK SC6SC2 DENSITY ALT 2281FT SLP954=
202406050700 METAR CYOD 050700Z 27007KT 15SM -RA SCT014 OVC020 09/09 A2937 RMK SC3SC5 DENSITY ALT 2268FT SLP956=
202406050736 SPECI CYOD 050736Z 28008KT 3SM -RA OVC010 09/09 A2938 RMK SC8 DENSITY ALT 2258FT SLP959=
202406050800 METAR CYOD 050800Z 27011KT 2SM -RA OVC009 09/09 A2938 RMK SF8 DENSITY ALT 2245FT SLP961=
202406050900 METAR CYOD 050900Z 29010KT 3SM -RA BR OVC007 09/09 A2941 RMK SF8 DENSITY ALT 2197FT SLP971=
202406051000 METAR CYOD 051000Z 29010KT 3SM -RA BR OVC005 09/09 A2944 RMK SF8 DENSITY ALT 2175FT SLP981=
202406051100 METAR CYOD 051100Z 28011KT 6SM -RA BR OVC005 09/09 A2947 RMK SF8 DENSITY ALT 2154FT SLP991=
202406051115 SPECI CYOD 051115Z 29009KT 2SM -RA BR BKN005 OVC013 09/09 A2948 RMK SF5SC3 DENSITY ALT 2141FT SLP994=
202406051200 METAR CYOD 051200Z 28010KT 6SM -RA BR BKN005 OVC013 09/08 A2950 RMK SF6SC2 DENSITY ALT 2061FT SLP002=
202406051218 SPECI CYOD 051218Z 28012KT 6SM -RA BR BKN008 OVC012 09/08 A2951 RMK SF6SC2 DENSITY ALT 2036FT SLP005=
202406051235 SPECI CYOD 051235Z 28012KT 4SM -RA BR BKN010 OVC018 09/08 A2952 RMK SF6SC2 DENSITY ALT 2023FT VIS VRB 2-6 SLP009=
202406051300 METAR CYOD 051300Z 29011KT 5SM -RA BR BKN007 OVC015 09/08 A2953 RMK SF5ST3 DENSITY ALT 2026FT SLP012=
202406051400 METAR CYOD 051400Z 29011KT 8SM -RA BKN009 OVC015 10/09 A2956 RMK SF5ST3 DENSITY ALT 2125FT SLP022=
202406051500 METAR CYOD 051500Z 30012KT 6SM -RA SCT007 BKN012 OVC020 10/09 A2959 RMK SF3SF4SC1 DENSITY ALT 2143FT SLP033=
202406051600 METAR CYOD 051600Z 33013KT 6SM -RA FEW009 BKN014 OVC022 10/09 A2962 RMK SF2SF3SC3 DENSITY ALT 2067FT SLP042=
202406051700 METAR CYOD 051700Z CCA 32010KT 6SM -RA SCT009 OVC013 10/09 A2965 RMK SF3SC5 DENSITY ALT 1966FT VIS HYR W SLP053=
202406051800 METAR CYOD 051800Z 30017KT 6SM -RA BKN012 OVC025 10/09 A2967 RMK SF5SC3 DENSITY ALT 2056FT SLP061=
202406051900 METAR CYOD 051900Z 32012KT 6SM -RA BKN012 OVC025 11/09 A2970 RMK SF5SC3 DENSITY ALT 2062FT SLP069=
202406052000 METAR CYOD 052000Z 29015KT 6SM -RA BKN012 OVC025 11/09 A2972 RMK SF5SC3 DENSITY ALT 2052FT SLP077=
202406052100 METAR CYOD 052100Z 29018KT 8SM -RA SCT017 OVC025 12/09 A2974 RMK SC4SC4 DENSITY ALT 2180FT SLP082=
202406052200 METAR CYOD 052200Z 30017KT 9SM SCT018 OVC025 12/09 A2976 RMK SC4SC4 DENSITY ALT 2195FT SLP089=
202406052300 METAR CYOD 052300Z 32017KT 9SM BKN025 BKN050 13/09 A2978 RMK SC5SC2 DENSITY ALT 2217FT SLP095=
202406060000 METAR CYOD 060000Z 31015KT 9SM FEW025 BKN040 BKN100 13/09 A2979 RMK SC2SC4AC1 DENSITY ALT 2296FT SLP099=
202406060100 METAR CYOD 060100Z 31013KT 15SM BKN050 BKN090 15/09 A2980 RMK SC5AC2 DENSITY ALT 2445FT SLP103=
202406060200 METAR CYOD 060200Z 33013KT 15SM FEW040 SCT090 SCT160 14/09 A2980 RMK SC1AC2AC1 DENSITY ALT 2356FT SLP103=
202406060300 METAR CYOD 060300Z 32014KT 15SM FEW030 SCT090 13/08 A2982 RMK CU1AC2 DENSITY ALT 2141FT SLP109=
202406060400 METAR CYOD 060400Z 31009KT 15SM BKN090 11/08 A2983 RMK AC6 DENSITY ALT 1966FT SLP114=
202406060500 METAR CYOD 060500Z 28007KT 15SM BKN100 11/08 A2983 RMK AC7 DENSITY ALT 1911FT SLP116=
202406060600 METAR CYOD 060600Z 29008KT 15SM BKN090 BKN110 10/08 A2984 RMK AC5AC2 DENSITY ALT 1846FT SLP119=
202406060700 METAR CYOD 060700Z 27005KT 15SM BKN085 10/08 A2985 RMK AC7 DENSITY ALT 1760FT SLP122=
202406060800 METAR CYOD 060800Z 27006KT 15SM OVC085 10/08 A2985 RMK AC8 DENSITY ALT 1760FT SLP121=
202406060900 METAR CYOD 060900Z 26006KT 15SM BKN100 09/08 A2986 RMK AC7 DENSITY ALT 1683FT SLP123=
202406061000 METAR CYOD 061000Z 25006KT 15SM SCT110 08/07 A2985 RMK AC4 DENSITY ALT 1547FT SLP122=
202406061100 METAR CYOD 061100Z 28004KT 15SM SCT090 07/06 A2985 RMK AC4 DENSITY ALT 1346FT SLP123=
202406061200 METAR CYOD 061200Z 26008KT 15SM BKN080 08/06 A2986 RMK AC5 DENSITY ALT 1528FT SLP123=
202406061300 METAR CYOD 061300Z 26008KT 15SM BKN080 09/04 A2986 RMK AC5 DENSITY ALT 1642FT SLP121=
202406061400 METAR CYOD 061400Z 28011KT 15SM SCT110 12/04 A2986 RMK AC3 DENSITY ALT 1958FT SLP121=
202406061500 METAR CYOD 061500Z 29011KT 15SM FEW110 14/05 A2985 RMK AC2 DENSITY ALT 2231FT SLP119=
202406061600 METAR CYOD 061600Z 28013G25KT 15SM FEW060 FEW110 15/05 A2984 RMK SC1AC1 DENSITY ALT 2386FT SLP115=
202406061700 METAR CYOD 061700Z 29020KT 15SM FEW060 FEW110 16/03 A2983 RMK SC1AC1 DENSITY ALT 2521FT SLP112=
202406061800 METAR CYOD 061800Z 29018KT 15SM FEW060 FEW110 17/03 A2982 RMK SC1AC1 DENSITY ALT 2703FT SLP107=
202406061900 METAR CYOD 061900Z 28016G31KT 15SM SCT060 SCT110 18/02 A2980 RMK SC3AC1 DENSITY ALT 2797FT SLP100=
202406062000 METAR CYOD 062000Z 27021G31KT 15SM BKN070 19/01 A2979 RMK SC5 DENSITY ALT 2901FT SLP096=
202406062100 METAR CYOD 062100Z 27018KT 15SM BKN070 20/01 A2978 RMK SC5 DENSITY ALT 2994FT SLP092=
202406062200 METAR CYOD 062200Z 26017G33KT 15SM BKN080 19/00 A2978 RMK CU5 DENSITY ALT 2953FT SLP091=
202406062300 METAR CYOD 062300Z 28014G29KT 15SM BKN080 19/01 A2978 RMK CU5 DENSITY ALT 2934FT SLP092=
202406070000 METAR CYOD 070000Z 31018KT 15SM SCT080 BKN110 17/02 A2978 RMK AC4AC2 DENSITY ALT 2706FT SLP094=
202406070021 SPECI CYOD 070021Z 33021KT 15SM -SHRA SCT080 BKN110 15/05 A2979 RMK AC4AC2 DENSITY ALT 2488FT SLP100=
202406070100 METAR CYOD 070100Z 31019KT 15SM VCSH BKN100 16/06 A2980 RMK AC6 DENSITY ALT 2552FT SLP101=
202406070200 METAR CYOD 070200Z 30021KT 15SM SCT100 15/04 A2980 RMK AC4 DENSITY ALT 2464FT SLP100=
202406070300 METAR CYOD 070300Z 28015KT 15SM -SHRA BKN075 14/05 A2981 RMK AC5 DENSITY ALT 2252FT PCPN VRY LGT SLP104=
202406070345 SPECI CYOD 070345Z 27008KT 15SM SCT110 11/06 A2980 RMK AC4 DENSITY ALT 1976FT SLP100=
202406070400 METAR CYOD 070400Z 27008KT 15SM SCT095 11/06 A2980 RMK AC3 DENSITY ALT 1952FT SLP102=
202406070500 METAR CYOD 070500Z 26005KT 15SM SCT130 10/06 A2981 RMK AC3 DENSITY ALT 1825FT SLP103=
202406070600 METAR CYOD 070600Z 26007KT 15SM SCT060 BKN120 10/06 A2979 RMK SC3AC2 DENSITY ALT 1787FT SLP098=
202406070646 SPECI CYOD 070646Z 26008KT 12SM -SHRA OVC050 10/06 A2979 RMK SC8 DENSITY ALT 1851FT SLP096=
202406070700 METAR CYOD 070700Z 26009KT 12SM -SHRA BKN050 10/07 A2980 RMK SC7 DENSITY ALT 1795FT SLP098=
202406070800 METAR CYOD 070800Z 23006KT 15SM BKN065 10/06 A2978 RMK SC6 DENSITY ALT 1825FT SLP090=
202406070900 METAR CYOD 070900Z 24007KT 15SM BKN100 09/06 A2977 RMK AC6 DENSITY ALT 1708FT SLP088=
202406071000 METAR CYOD 071000Z 24006KT 15SM BKN090 BKN140 09/05 A2977 RMK AC6AC1 DENSITY ALT 1704FT SLP087=
202406071100 METAR CYOD 071100Z 24006KT 15SM BKN090 BKN140 08/05 A2976 RMK AC5AC2 DENSITY ALT 1621FT SLP085=
202406071200 METAR CYOD 071200Z 24008KT 15SM SCT050 BKN090 BKN180 09/04 A2974 RMK SC4AC2AC1 DENSITY ALT 1743FT SLP081=
202406071300 METAR CYOD 071300Z 24011KT 15SM SCT060 BKN100 OVC250 10/04 A2974 RMK SC3AC4CI1 DENSITY ALT 1857FT SLP078=
202406071400 METAR CYOD 071400Z 26011KT 15SM FEW060 BKN100 12/04 A2972 RMK SC1AC6 DENSITY ALT 2134FT SLP073=
202406071500 METAR CYOD 071500Z 26015G28KT 230V290 15SM FEW060 BKN100 13/04 A2971 RMK SC1AC6 DENSITY ALT 2267FT SLP069=
202406071600 METAR CYOD 071600Z 26025G34KT 15SM BKN050 OVC100 14/04 A2971 RMK SC7AC1 DENSITY ALT 2422FT SLP070=
202406071643 SPECI CYOD 071643Z CCA 29018G33KT 15SM -RA OVC050 14/05 A2971 RMK SC8 DENSITY ALT 2375FT SLP069=
202406071700 METAR CYOD 071700Z 33014KT 12SM -RA OVC040 11/08 A2972 RMK SC8 DENSITY ALT 2014FT SLP075=
202406071800 METAR CYOD 071800Z 32021KT 15SM -RA OVC050 10/07 A2973 RMK SC8 DENSITY ALT 1917FT PCPN VRY LGT SLP081=
202406071900 METAR CYOD 071900Z 32012KT 10SM -RA BKN030 OVC050 09/07 A2976 RMK SC5SC3 DENSITY ALT 1720FT SLP091=
202406072000 METAR CYOD 072000Z 31015KT 10SM -RA BKN035 OVC050 08/07 A2978 RMK SC5SC3 DENSITY ALT 1653FT SLP100=
202406072100 METAR CYOD 072100Z 33012KT 15SM -RA SCT020 OVC030 09/07 A2980 RMK SC4SC4 DENSITY ALT 1751FT SLP106=
202406072200 METAR CYOD 072200Z 31015KT 12SM -RA SCT020 OVC040 08/06 A2983 RMK SC4SC4 DENSITY ALT 1538FT SLP115=
202406072300 METAR CYOD 072300Z 31013KT 15SM -RA FEW020 OVC030 08/05 A2984 RMK SC2SC6 DENSITY ALT 1495FT PCPN VRY LGT SLP121=
202406080000 METAR CYOD 080000Z 32013KT 15SM -RA SCT020 OVC030 08/05 A2985 RMK SC4SC4 DENSITY ALT 1477FT PCPN VRY LGT SLP125=
202406080100 METAR CYOD 080100Z 32017KT 15SM SCT020 OVC045 07/04 A2988 RMK SC4SC4 DENSITY ALT 1356FT SLP133=
202406080200 METAR CYOD 080200Z 30012KT 15SM FEW020 OVC045 06/02 A2988 RMK SC2SC6 DENSITY ALT 1188FT SLP134=
202406080300 METAR CYOD 080300Z 31008KT 15SM -SHRA BKN025 OVC060 06/03 A2990 RMK SC5SC3 DENSITY ALT 1158FT PCPN VRY LGT SLP139=
202406080400 METAR CYOD 080400Z 31008KT 15SM FEW025 OVC060 05/02 A2991 RMK SC2SC6 DENSITY ALT 1000FT SLP143=
202406080500 METAR CYOD 080500Z 31010KT 15SM SCT035 OVC060 04/01 A2992 RMK SC4SC4 DENSITY ALT 863FT SLP151=
202406080600 METAR CYOD 080600Z 31011KT 15SM SCT020 OVC040 04/01 A2993 RMK SC4SC4 DENSITY ALT 814FT SLP154=
202406080651 SPECI CYOD 080651Z 30009KT 15SM BKN017 BKN050 03/01 A2993 RMK SC5SC2 DENSITY ALT 788FT SLP154=
202406080700 METAR CYOD 080700Z 30008KT 15SM BKN017 OVC030 03/01 A2993 RMK SC5SC3 DENSITY ALT 788FT SLP155=
202406080800 METAR CYOD 080800Z 30010KT 15SM OVC015 03/01 A2994 RMK SC8 DENSITY ALT 776FT SLP157=
202406080824 SPECI CYOD 080824Z 30010KT 12SM -RA OVC015 03/02 A2994 RMK SC8 DENSITY ALT 764FT SLP158=
202406080900 METAR CYOD 080900Z 29009KT 12SM -RA OVC013 03/02 A2995 RMK SC8 DENSITY ALT 703FT SLP161=
202406081000 METAR CYOD 081000Z 28008KT 10SM -RA BKN012 OVC030 03/02 A2996 RMK SC6SC2 DENSITY ALT 693FT SLP164=
202406081100 METAR CYOD 081100Z 28007KT 15SM OVC011 03/03 A2997 RMK SC8 DENSITY ALT 722FT SLP168=
202406081149 SPECI CYOD 081149Z 28009KT 12SM -DZ OVC010 03/03 A2998 RMK ST8 DENSITY ALT 739FT SLP172=
202406081200 METAR CYOD 081200Z 29008KT 12SM -DZ OVC010 04/03 A2998 RMK ST8 DENSITY ALT 753FT SLP173=
202406081300 METAR CYOD 081300Z 29010KT 15SM -RA OVC013 04/03 A2999 RMK ST8 DENSITY ALT 809FT SLP177=
202406081400 METAR CYOD 081400Z 30008KT 15SM -RA OVC013 05/04 A3001 RMK ST8 DENSITY ALT 896FT PCPN VRY LGT SLP181=
202406081500 METAR CYOD 081500Z 31008KT 12SM -RA OVC013 05/04 A3002 RMK ST8 DENSITY ALT 964FT PCPN VRY LGT SLP185=
202406081600 METAR CYOD 081600Z 32008KT 12SM -RA OVC014 06/04 A3003 RMK ST8 DENSITY ALT 1020FT PCPN VRY LGT SLP190=
202406081700 METAR CYOD 081700Z 36007KT 15SM BKN018 OVC028 08/05 A3004 RMK SC5SC3 DENSITY ALT 1216FT SLP194=
202406081800 METAR CYOD 081800Z 23011KT 15SM SCT020 OVC030 OVC120 08/04 A3006 RMK SC4SC4AC1 DENSITY ALT 1267FT SLP199=
202406081900 METAR CYOD 081900Z 32015KT 15SM BKN022 OVC030 09/04 A3008 RMK SC6SC2 DENSITY ALT 1331FT SLP205=
202406082000 METAR CYOD 082000Z 35007KT 15SM BKN030 BKN045 OVC120 10/03 A3009 RMK SC5SC2AC1 DENSITY ALT 1508FT SLP209=
202406082100 METAR CYOD 082100Z 02006KT 15SM -SHRA BKN035 OVC050 09/05 A3011 RMK SC7SC1 DENSITY ALT 1332FT SLP217=
202406082200 METAR CYOD 082200Z 32009KT 15SM SCT040 OVC150 11/04 A3011 RMK SC3AC5 DENSITY ALT 1588FT SLP216=
202406082300 METAR CYOD 082300Z 32007KT 15SM SCT040 OVC140 12/03 A3013 RMK SC3AC5 DENSITY ALT 1700FT SLP221=
202406090000 METAR CYOD 090000Z 36006KT 15SM BKN040 OVC120 11/04 A3014 RMK SC5AC3 DENSITY ALT 1531FT SLP225=
202406090100 METAR CYOD 090100Z 01009KT 15SM BKN040 BKN130 11/03 A3015 RMK SC5AC2 DENSITY ALT 1488FT SLP228=
202406090200 METAR CYOD 090200Z 34006KT 15SM SCT040 BKN130 10/03 A3016 RMK SC3AC2 DENSITY ALT 1387FT SLP231=
202406090300 METAR CYOD 090300Z 31004KT 15SM BKN050 BKN130 09/05 A3017 RMK SC5AC1 DENSITY ALT 1220FT SLP237=
202406090400 METAR CYOD 090400Z 03006KT 15SM -SHRA BKN045 OVC130 08/05 A3020 RMK SC7AC1 DENSITY ALT 1148FT SLP244=
202406090450 SPECI CYOD 090450Z 34006KT 15SM BKN040 OVC130 08/06 A3021 RMK SC7AC1 DENSITY ALT 1031FT SLP250=
202406090500 METAR CYOD 090500Z 01007KT 15SM OVC040 08/06 A3021 RMK SC8 DENSITY ALT 1030FT SLP249=
202406090520 SPECI CYOD 090520Z 01008KT 15SM -SHRA OVC040 08/06 A3021 RMK SC8 DENSITY ALT 1044FT SLP249=
202406090600 METAR CYOD 090600Z 05008KT 15SM -SHRA OVC050 08/06 A3020 RMK SC8 DENSITY ALT 1041FT SLP246=
202406090642 SPECI CYOD 090642Z 03003KT 15SM OVC055 07/06 A3021 RMK SC8 DENSITY ALT 976FT SLP249=
202406090700 METAR CYOD 090700Z 04003KT 15SM OVC060 07/06 A3021 RMK SC8 DENSITY ALT 964FT SLP249=
202406090800 METAR CYOD 090800Z 01003KT 15SM BKN060 OVC100 06/06 A3021 RMK SC6AC2 DENSITY ALT 847FT SLP248=
202406090900 METAR CYOD 090900Z 05004KT 15SM OVC055 06/06 A3021 RMK SC8 DENSITY ALT 861FT SLP249=
202406091000 METAR CYOD 091000Z 04003KT 15SM OVC045 06/06 A3022 RMK SC8 DENSITY ALT 848FT SLP251=
202406091100 METAR CYOD 091100Z 06004KT 15SM OVC040 06/06 A3023 RMK SC8 DENSITY ALT 824FT SLP252=
202406091200 METAR CYOD 091200Z 06002KT 15SM BKN040 06/06 A3023 RMK SC7 DENSITY ALT 838FT SLP253=
202406091300 METAR CYOD 091300Z 08003KT 15SM FEW015 BKN040 OVC100 07/06 A3023 RMK SF1SC7AC1 DENSITY ALT 932FT SLP252=
202406091400 METAR CYOD 091400Z 11007KT 15SM SCT010 BKN050 08/06 A3023 RMK SF3SC4 DENSITY ALT 1127FT SLP253=
202406091500 METAR CYOD 091500Z 11006KT 15SM FEW010 BKN040 09/06 A3023 RMK SF1SC6 DENSITY ALT 1231FT SLP252=
202406091543 SPECI CYOD 091543Z 11006KT 15SM -SHRA FEW010 SCT040 OVC060 09/07 A3022 RMK SF1SC3SC4 DENSITY ALT 1271FT SLP250=
202406091600 METAR CYOD 091600Z 10006KT 15SM FEW010 BKN040 OVC060 10/07 A3022 RMK SF2SC4SC2 DENSITY ALT 1297FT SLP250=
202406091700 METAR CYOD 091700Z 06006KT 15SM FEW010 BKN060 OVC100 11/06 A3021 RMK SF2SC4AC2 DENSITY ALT 1467FT SLP246=
202406091800 METAR CYOD 091800Z CCA 10004KT 15SM -SHRA BKN026 OVC060 11/06 A3020 RMK SC5SC3 DENSITY ALT 1475FT SLP241=
202406091900 METAR CYOD 091900Z 15005KT 15SM BKN029 BKN060 14/06 A3018 RMK SC5SC2 DENSITY ALT 1853FT SLP234=
202406091943 SPECI CYOD 091943Z 15013KT 15SM -SHRA BKN029 OVC060 12/06 A3018 RMK SC6SC2 DENSITY ALT 1577FT SLP236=
202406092000 METAR CYOD 092000Z 11009KT 15SM BKN030 OVC060 11/07 A3018 RMK SC6SC2 DENSITY ALT 1486FT SLP236=
202406092017 SPECI CYOD 092017Z 12008KT 15SM -SHRA BKN035 OVC060 11/07 A3017 RMK SC6SC2 DENSITY ALT 1526FT SLP235=
202406092100 METAR CYOD 092100Z 14007KT 15SM BKN050 BKN065 BKN100 13/06 A3016 RMK SC5SC2AC1 DENSITY ALT 1794FT SLP229=
202406092200 METAR CYOD 092200Z 16010KT 15SM FEW050 BKN060 BKN100 13/05 A3015 RMK SC1SC6AC1 DENSITY ALT 1844FT SLP226=
202406092300 METAR CYOD 092300Z 15007KT 15SM FEW030 BKN060 BKN100 14/05 A3013 RMK SC1SC5AC1 DENSITY ALT 1879FT SLP218=
202406100000 METAR CYOD 100000Z 16009KT 15SM FEW040 BKN050 OVC080 14/05 A3011 RMK SC1SC5AC3 DENSITY ALT 1925FT SLP210=
202406100100 METAR CYOD 100100Z 16007KT 15SM BKN070 14/05 A3010 RMK AC7 DENSITY ALT 1936FT SLP206=
202406100200 METAR CYOD 100200Z 13004KT 15SM BKN070 13/05 A3008 RMK AC7 DENSITY ALT 1925FT SLP198=
202406100300 METAR CYOD 100300Z 09004KT 15SM OVC070 13/06 A3006 RMK AC8 DENSITY ALT 1843FT SLP193=
202406100400 METAR CYOD 100400Z 10005KT 15SM OVC065 12/06 A3005 RMK SC8 DENSITY ALT 1764FT SLP188=
202406100500 METAR CYOD 100500Z 10006KT 15SM OVC065 12/06 A3002 RMK SC8 DENSITY ALT 1772FT SLP180=
202406100600 METAR CYOD 100600Z 10006KT 15SM OVC070 11/06 A3000 RMK AC8 DENSITY ALT 1774FT SLP171=
202406100700 METAR CYOD 100700Z 10006KT 15SM OVC070 11/06 A2998 RMK AC8 DENSITY ALT 1747FT SLP163=
202406100800 METAR CYOD 100800Z 12009KT 15SM OVC075 11/06 A2995 RMK AC8 DENSITY ALT 1803FT SLP156=
202406100900 METAR CYOD 100900Z 13012KT 15SM OVC075 11/06 A2993 RMK AC8 DENSITY ALT 1801FT SLP147=
202406101000 METAR CYOD 101000Z 13009KT 15SM OVC085 11/06 A2991 RMK AC8 DENSITY ALT 1773FT SLP139=
202406101100 METAR CYOD 101100Z 12009KT 15SM BKN100 OVC250 10/05 A2989 RMK AC6CI2 DENSITY ALT 1730FT SLP132=
202406101200 METAR CYOD 101200Z 12007KT 15SM FEW120 BKN150 BKN250 10/06 A2987 RMK AC2AC3CI2 DENSITY ALT 1755FT SLP126=
202406101300 METAR CYOD 101300Z 12007KT 15SM SCT095 OVC150 11/06 A2985 RMK AC4AC4 DENSITY ALT 1869FT SLP118=
202406101400 METAR CYOD 101400Z 13008KT 15SM BKN120 OVC150 12/06 A2983 RMK AC6AC2 DENSITY ALT 2047FT SLP109=
202406101500 METAR CYOD 101500Z 11004KT 15SM OVC110 13/07 A2982 RMK AC8 DENSITY ALT 2179FT SLP106=
202406101600 METAR CYOD 101600Z 15006KT 15SM SCT120 OVC150 14/08 A2979 RMK AC3AC5 DENSITY ALT 2370FT SLP097=
202406101700 METAR CYOD 101700Z 20011KT 15SM SCT070 BKN110 OVC150 16/07 A2978 RMK AC3AC3AC2 DENSITY ALT 2562FT SLP094=
202406101718 SPECI CYOD 101718Z 19010KT 15SM -SHRA SCT070 OVC095 15/07 A2978 RMK AC4AC4 DENSITY ALT 2492FT PCPN VRY LGT SLP093=
202406101800 METAR CYOD 101800Z 25009KT 12SM -SHRA BKN060 OVC090 13/09 A2979 RMK SC6AC2 DENSITY ALT 2295FT SLP097=
202406101900 METAR CYOD 101900Z 20003KT 8SM -SHRA FEW045 OVC060 13/10 A2977 RMK SC2SC6 DENSITY ALT 2280FT SLP092=
202406101937 SPECI CYOD 101937Z 25004KT 15SM BKN045 OVC070 13/10 A2977 RMK SC6AC2 DENSITY ALT 2234FT SLP090=
202406102000 METAR CYOD 102000Z 26003KT 15SM OVC040 13/10 A2976 RMK SC8 DENSITY ALT 2297FT SLP088=
202406102100 METAR CYOD 102100Z 24002KT 15SM BKN055 15/10 A2974 RMK SC7 DENSITY ALT 2548FT SLP081=
202406102200 METAR CYOD 102200Z 15002KT 15SM FEW030 BKN045 BKN075 16/10 A2974 RMK CU1SC4AC2 DENSITY ALT 2724FT SLP079=
202406102300 METAR CYOD 102300Z 30003KT 15SM SCT035 OVC060 16/10 A2974 RMK SC4SC4 DENSITY ALT 2681FT SLP079=
202406110000 METAR CYOD 110000Z 27008KT 15SM FEW035 BKN075 17/06 A2973 RMK SC2AC5 DENSITY ALT 2749FT SLP075=
202406110100 METAR CYOD 110100Z 30005KT 15SM SCT048 BKN070 BKN250 16/07 A2973 RMK SC4AC1CI1 DENSITY ALT 2695FT SLP075=
202406110200 METAR CYOD 110200Z 32010KT 15SM FEW048 SCT065 BKN250 16/06 A2973 RMK SC2SC2CI1 DENSITY ALT 2653FT SLP076=
202406110300 METAR CYOD 110300Z 30007KT 15SM FEW050 SCT100 BKN180 13/07 A2974 RMK SC1AC2AC3 DENSITY ALT 2334FT SLP078=
202406110400 METAR CYOD 110400Z 32003KT 15SM FEW080 SCT120 BKN180 11/06 A2974 RMK AC2AC2AC3 DENSITY ALT 2065FT SLP081=
202406110500 METAR CYOD 110500Z 34005KT 15SM SCT065 BKN130 BKN180 11/07 A2974 RMK SC4AC2AC1 DENSITY ALT 2058FT SLP080=
202406110600 METAR CYOD 110600Z 27004KT 15SM BKN055 11/07 A2974 RMK SC7 DENSITY ALT 2033FT SLP080=
202406110700 METAR CYOD 110700Z 28005KT 15SM BKN055 BKN130 11/06 A2974 RMK SC5AC1 DENSITY ALT 1989FT SLP082=
202406110800 METAR CYOD 110800Z 29003KT 15SM -RA BKN055 BKN120 10/07 A2974 RMK SC5AC2 DENSITY ALT 1877FT PCPN VRY LGT SLP080=
202406110900 METAR CYOD 110900Z 25004KT 15SM SCT055 BKN120 BKN150 09/07 A2974 RMK SC3AC2AC2 DENSITY ALT 1764FT SLP082=
202406111000 METAR CYOD 111000Z 25006KT 15SM FEW060 SCT080 BKN140 09/07 A2975 RMK SC2AC1AC4 DENSITY ALT 1752FT SLP085=
202406111040 SPECI CYOD 111040Z 27005KT 15SM -RA BKN060 OVC080 09/07 A2975 RMK SC5AC3 DENSITY ALT 1792FT SLP085=
202406111100 METAR CYOD 111100Z 25007KT 12SM -RA BKN050 OVC070 09/07 A2976 RMK SC5AC3 DENSITY ALT 1746FT SLP087=
202406111136 SPECI CYOD 111136Z 29004KT 15SM BKN055 BKN070 09/08 A2975 RMK SC6AC1 DENSITY ALT 1750FT SLP084=
202406111200 METAR CYOD 111200Z 25003KT 15SM BKN055 09/08 A2976 RMK SC7 DENSITY ALT 1739FT SLP086=
202406111300 METAR CYOD 111300Z 22004KT 15SM BKN050 09/08 A2976 RMK SC7 DENSITY ALT 1754FT SLP086=
202406111400 METAR CYOD 111400Z 22003KT 15SM BKN050 10/09 A2975 RMK SC7 DENSITY ALT 1938FT SLP082=
202406111500 METAR CYOD 111500Z 20003KT 15SM BKN055 12/09 A2973 RMK SC7 DENSITY ALT 2170FT SLP078=
202406111600 METAR CYOD 111600Z 06002KT 15SM FEW055 14/08 A2971 RMK SC2 DENSITY ALT 2483FT SLP071=
202406111700 METAR CYOD 111700Z 00000KT 15SM FEW050 FEW250 16/08 A2969 RMK CU1CI1 DENSITY ALT 2765FT SLP062=
202406111800 METAR CYOD 111800Z 22005KT 15SM FEW035 FEW250 18/09 A2967 RMK CU1CI1 DENSITY ALT 3021FT SLP055=
202406111900 METAR CYOD 111900Z 20004KT 15SM SCT040 SCT250 19/09 A2966 RMK CU3CI1 DENSITY ALT 3167FT SLP049=
202406112000 METAR CYOD 112000Z 26004KT 15SM SCT045 BKN250 21/09 A2964 RMK CU4CI1 DENSITY ALT 3380FT SLP043=
202406112100 METAR CYOD 112100Z 18002KT 15SM BKN050 BKN250 21/09 A2962 RMK CU5CI1 DENSITY ALT 3441FT SLP037=
202406112200 METAR CYOD 112200Z 27005KT 15SM SCT050 BKN250 22/08 A2960 RMK CU3CI3 DENSITY ALT 3530FT SLP028=
202406112300 METAR CYOD 112300Z 06010KT 15SM SCT055 BKN250 23/10 A2957 RMK CU3CI3 DENSITY ALT 3687FT SLP019=
202406120000 METAR CYOD 120000Z 08011KT 15SM FEW055 SCT170 BKN250 22/10 A2956 RMK CU1AC2CI2 DENSITY ALT 3590FT SLP014=
202406120100 METAR CYOD 120100Z 06012KT 15SM FEW060 SCT160 SCT250 22/10 A2955 RMK CU2AC2CI1 DENSITY ALT 3652FT SLP011=
202406120200 METAR CYOD 120200Z 09009KT 15SM FEW060 FEW110 SCT160 SCT250 21/10 A2955 RMK CU1AC2AC2CI1 DENSITY ALT 3493FT SLP011=
202406120300 METAR CYOD 120300Z 08009KT 15SM FEW110 SCT160 SCT250 18/10 A2953 RMK AC2AC1CI1 DENSITY ALT 3211FT SLP006=
202406120400 METAR CYOD 120400Z 09007KT 15SM FEW060TCU SCT120 BKN250 16/09 A2954 RMK TCU2AC2CI1 DENSITY ALT 2862FT TCU W MOV E SLP007=
202406120500 METAR CYOD 120500Z 20005KT 15SM SCT060TCU BKN110 OVC190 16/10 A2958 RMK TCU4AC3AC1 DENSITY ALT 2859FT TCU SW MOV NE SLP020=
202406120530 SPECI CYOD 120530Z 21010KT 12SM -SHRA BKN055TCU OVC075 15/11 A2959 RMK TCU6AC2 DENSITY ALT 2772FT TCU OHD MOV NE SLP024=
202406120600 METAR CYOD 120600Z 23006KT 6SM -SHRA SCT030 BKN050 OVC070 13/12 A2959 RMK SC3SC3AC2 DENSITY ALT 2496FT TCU EMBD MOV NE SLP026=
202406120700 METAR CYOD 120700Z 02003KT 6SM -SHRA SCT030 BKN045 OVC070 13/12 A2957 RMK SC3SC3AC2 DENSITY ALT 2489FT TCU EMBD MOV NE SLP018=
202406120800 METAR CYOD 120800Z 02006KT 10SM -SHRA SCT035 BKN050 OVC070 13/12 A2956 RMK SC3SC2AC3 DENSITY ALT 2526FT SLP014=
202406120834 SPECI CYOD 120834Z 04006KT 5SM -SHRA FEW030 BKN045 OVC065 13/12 A2956 RMK SC2SC4SC2 DENSITY ALT 2487FT SLP015=
202406120900 METAR CYOD 120900Z 05003KT 4SM -SHRA SCT030 OVC050 12/12 A2956 RMK SC4SC4 DENSITY ALT 2446FT SLP015=
202406120927 SPECI CYOD 120927Z 23003KT 6SM -SHRA BKN006 BKN025 OVC035 12/11 A2957 RMK ST5SC2SC1 DENSITY ALT 2392FT SLP016=
202406120943 SPECI CYOD 120943Z 07003KT 2SM -SHRA SCT008 BKN020 OVC045 12/11 A2956 RMK ST4SC3SC1 DENSITY ALT 2417FT SLP014=
202406121000 METAR CYOD 121000Z 06004KT 7SM -SHRA FEW006 BKN015 OVC025 12/11 A2955 RMK ST2SC3SC3 DENSITY ALT 2388FT SLP011=
202406121029 SPECI CYOD 121029Z 10003KT 7SM -SHRA BKN004 OVC013 12/11 A2955 RMK ST5SC3 DENSITY ALT 2362FT PCPN VRY LGT SLP010=
202406121100 METAR CYOD 121100Z 36003KT 2SM -DZ BR OVC006 12/11 A2955 RMK ST8 DENSITY ALT 2362FT SLP008=
202406121120 SPECI CYOD 121120Z 02004KT 2SM BR OVC005 11/11 A2955 RMK ST8 DENSITY ALT 2321FT SLP008=
202406121200 METAR CYOD 121200Z 36003KT 2SM BR OVC005 11/11 A2955 RMK ST8 DENSITY ALT 2293FT SLP009=
202406121300 METAR CYOD 121300Z 27002KT 2SM BR OVC003 11/11 A2955 RMK ST8 DENSITY ALT 2308FT SLP009=
202406121400 METAR CYOD 121400Z 30005KT 3/4SM R31R/P6000FT/D -DZ BR OVC003 11/11 A2955 RMK ST8 DENSITY ALT 2335FT SLP009=
202406121500 METAR CYOD 121500Z 33003KT 3/4SM R31R/P6000FT/U -DZ BR OVC003 11/11 A2956 RMK ST8 DENSITY ALT 2324FT SLP016=
202406121520 SPECI CYOD 121520Z 36004KT 1/2SM R31R/P6000FT/D -DZ FG OVC003 11/11 A2956 RMK ST8 DENSITY ALT 2325FT SLP017=
202406121600 METAR CYOD 121600Z 01002KT 1/2SM R31R/P6000FT/D -DZ FG OVC003 12/11 A2957 RMK ST8 DENSITY ALT 2341FT SLP022=
202406121617 SPECI CYOD 121617Z 07006KT 2SM -DZ BR OVC004 12/12 A2958 RMK ST8 DENSITY ALT 2371FT SLP023=
202406121700 METAR CYOD 121700Z 05008KT 1 1/2SM -SHRA BR BKN004 OVC008 12/12 A2959 RMK SF6ST2 DENSITY ALT 2412FT SLP028=
202406121720 SPECI CYOD 121720Z 03008KT 2SM -SHRA BR BKN004 OVC008 12/12 A2960 RMK SF6ST2 DENSITY ALT 2400FT SLP030=
202406121738 SPECI CYOD 121738Z 04009KT 5SM -SHRA BR OVC005 13/12 A2960 RMK SF8 DENSITY ALT 2479FT SLP031=
202406121800 METAR CYOD 121800Z 03008KT 6SM -SHRA BR BKN007 OVC015 13/12 A2961 RMK SF6SC2 DENSITY ALT 2452FT SLP035=
202406121900 METAR CYOD 121900Z 02009KT 8SM SCT007 OVC015 14/12 A2962 RMK SF3SC5 DENSITY ALT 2584FT SLP039=
202406121930 SPECI CYOD 121930Z 03010KT 8SM -DZ SCT015 OVC045 14/12 A2963 RMK SC4SC4 DENSITY ALT 2579FT SLP043=
202406122000 METAR CYOD 122000Z 02011KT 10SM -DZ BKN020 OVC045 15/12 A2964 RMK SC6SC2 DENSITY ALT 2647FT SLP044=
202406122013 SPECI CYOD 122013Z 03009KT 15SM BKN020 OVC050 15/12 A2964 RMK SC5SC3 DENSITY ALT 2708FT SLP046=
202406122100 METAR CYOD 122100Z 02012KT 15SM SCT015 OVC040 15/12 A2966 RMK SC3SC5 DENSITY ALT 2667FT SLP051=
202406122120 SPECI CYOD 122120Z 02010KT 8SM -DZ FEW015 OVC035 14/12 A2967 RMK SC2SC6 DENSITY ALT 2568FT SLP054=
202406122200 METAR CYOD 122200Z 02009KT 15SM -DZ SCT030 OVC065 15/12 A2968 RMK SC4SC4 DENSITY ALT 2636FT PCPN VRY LGT SLP059=
202406122300 METAR CYOD 122300Z 36010KT 15SM SCT030 OVC070 15/11 A2969 RMK SC3AC5 DENSITY ALT 2689FT OCNL DIST LTNG NW QUAD SLP064=
202406130000 METAR CYOD 130000Z 01011KT 15SM FEW020 SCT070 OVC110 16/11 A2971 RMK SC2AC2AC4 DENSITY ALT 2777FT OCNL DIST LTNG NW QUAD SLP068=
202406130100 METAR CYOD 130100Z 34006KT 15SM -RA SCT060 BKN075 OVC110 15/11 A2973 RMK SC4AC2AC2 DENSITY ALT 2637FT PCPN VRY LGT SLP077=
202406130200 METAR CYOD 130200Z 34005KT 12SM -RA FEW040 OVC065 14/11 A2976 RMK CF2SC6 DENSITY ALT 2480FT SLP087=
202406130300 METAR CYOD 130300Z 32006KT 12SM -RA FEW040 BKN065 OVC080 13/12 A2978 RMK CF1SC5AC2 DENSITY ALT 2302FT SLP093=
202406130400 METAR CYOD 130400Z 29007KT 10SM -RA FEW020 BKN065 OVC075 12/12 A2979 RMK CF1SC5AC2 DENSITY ALT 2201FT SLP100=
202406130500 METAR CYOD 130500Z 25006KT 12SM -RA SCT055 OVC080 12/11 A2982 RMK SC3AC5 DENSITY ALT 2071FT PCPN VRY LGT SLP107=
202406130520 SPECI CYOD 130520Z 27007KT 12SM BKN050 OVC080 12/11 A2982 RMK SC5AC3 DENSITY ALT 2056FT SLP108=
202406130600 METAR CYOD 130600Z 26007KT 12SM BKN055 OVC080 11/11 A2983 RMK SC6AC2 DENSITY ALT 2018FT SLP111=
202406130700 METAR CYOD 130700Z 26006KT 15SM BKN055 OVC070 12/11 A2984 RMK SC6AC2 DENSITY ALT 2048FT SLP115=
202406130800 METAR CYOD 130800Z 27005KT 15SM FEW020 BKN060 OVC085 12/11 A2985 RMK CF1SC6AC2 DENSITY ALT 2037FT SLP119=
202406130900 METAR CYOD 130900Z 26004KT 15SM FEW005 SCT065 OVC080 11/11 A2987 RMK ST1SC3AC4 DENSITY ALT 1974FT SLP123=
202406131000 METAR CYOD 131000Z 25004KT 10SM -SHRA FEW045 SCT065 OVC090 11/11 A2987 RMK SC1SC3AC4 DENSITY ALT 1919FT SLP125=
202406131039 SPECI CYOD 131039Z CCA 22004KT 5SM BR SCT045 OVC060 11/11 A2988 RMK SC4SC4 DENSITY ALT 1895FT SLP129=
202406131100 METAR CYOD 131100Z 24004KT 3SM -SHRA BR FEW008 BKN045 OVC060 11/11 A2989 RMK SF1SC4SC3 DENSITY ALT 1898FT PCPN VRY LGT SLP130=
202406131120 SPECI CYOD 131120Z 25004KT 3SM BR FEW008 BKN045 OVC065 11/11 A2989 RMK SF2SC3SC3 DENSITY ALT 1911FT SLP131=
202406131200 METAR CYOD 131200Z 25004KT 3SM BR FEW006 OVC040 11/11 A2990 RMK SF2SC6 DENSITY ALT 1927FT SLP134=
202406131208 SPECI CYOD 131208Z 25006KT 3SM -SHRA BR FEW004 BKN040 OVC055 11/11 A2990 RMK SF2SC5SC1 DENSITY ALT 1941FT PCPN VRY LGT SLP134=
202406131300 METAR CYOD 131300Z 26006KT 6SM -SHRA BR FEW006 SCT045 OVC060 12/11 A2991 RMK SF2SC2SC4 DENSITY ALT 1996FT PCPN VRY LGT SLP138=
202406131331 SPECI CYOD 131331Z 26007KT 8SM BKN007 OVC040 13/12 A2992 RMK SF7SC1 DENSITY ALT 2077FT SLP141=
202406131400 METAR CYOD 131400Z 28007KT 8SM OVC007 13/12 A2993 RMK SF8 DENSITY ALT 2101FT SLP143=
202406131446 SPECI CYOD 131446Z 27006KT 6SM -SHRA BR BKN007 OVC050 13/12 A2994 RMK SF6SC2 DENSITY ALT 2104FT SLP148=
202406131500 METAR CYOD 131500Z 27006KT 6SM -SHRA BR BKN007 OVC050 13/12 A2994 RMK SF6SC2 DENSITY ALT 2136FT SLP149=
202406131522 SPECI CYOD 131522Z 25006KT 8SM BKN008 OVC015 14/12 A2995 RMK SF5SC3 DENSITY ALT 2199FT SLP150=
202406131600 METAR CYOD 131600Z 24008KT 12SM BKN008 OVC015 13/12 A2996 RMK SF6SC2 DENSITY ALT 2081FT SLP154=
202406131645 SPECI CYOD 131645Z 23007KT 12SM -SHRA BKN008 OVC015 14/12 A2996 RMK SF5SC3 DENSITY ALT 2245FT PCPN VRY LGT SLP155=
202406131700 METAR CYOD 131700Z 24007KT 12SM -SHRA BKN010 OVC015 14/12 A2996 RMK SC5SC3 DENSITY ALT 2233FT PCPN VRY LGT SLP156=
202406131800 METAR CYOD 131800Z 23010KT 12SM -SHRA BKN015 OVC060 15/12 A2997 RMK SC5SC3 DENSITY ALT 2311FT SLP158=
202406131900 METAR CYOD 131900Z 27009KT 15SM -SHRA SCT017 OVC040 16/10 A2997 RMK SC4SC4 DENSITY ALT 2415FT PCPN VRY LGT SLP156=
202406132000 METAR CYOD 132000Z 23010KT 15SM -SHRA BKN025 BKN250 18/10 A2997 RMK CU5CI2 DENSITY ALT 2620FT PCPN VRY LGT SLP155=
202406132013 SPECI CYOD 132013Z 30010KT 15SM BKN027 BKN250 18/10 A2997 RMK CU5CI2 DENSITY ALT 2669FT SLP155=
202406132100 METAR CYOD 132100Z 24010KT 15SM -SHRA BKN030 OVC060 16/11 A2997 RMK SC6SC2 DENSITY ALT 2396FT PCPN VRY LGT SLP156=
202406132200 METAR CYOD 132200Z 27010KT 15SM SCT035 OVC060 16/10 A2997 RMK SC3SC5 DENSITY ALT 2410FT SLP158=
202406132300 METAR CYOD 132300Z 29007KT 15SM -SHRA BKN025 OVC045 15/11 A2997 RMK SC5SC3 DENSITY ALT 2321FT PCPN VRY LGT SLP159=
202406132316 SPECI CYOD 132316Z 31005KT 15SM SCT025 BKN045 OVC070 16/11 A2997 RMK SC4SC2AC2 DENSITY ALT 2397FT SLP158=
202406140000 METAR CYOD 140000Z 24007KT 15SM FEW025 BKN050 BKN080 17/11 A2996 RMK SC2SC3AC2 DENSITY ALT 2557FT SLP155=
202406140100 METAR CYOD 140100Z 27007KT 15SM FEW030 BKN080 17/10 A2997 RMK CU2AC5 DENSITY ALT 2585FT SLP155=
202406140200 METAR CYOD 140200Z 24005KT 15SM FEW030 BKN085 BKN250 16/10 A2997 RMK CU1AC5CI1 DENSITY ALT 2452FT SLP155=
202406140300 METAR CYOD 140300Z CCA 28003KT 15SM FEW035 FEW085 FEW250 16/10 A2996 RMK CU1AC1CI1 DENSITY ALT 2411FT SLP154=
202406140400 METAR CYOD 140400Z 21003KT 15SM FEW085 SCT230 13/11 A2996 RMK AC1CI3 DENSITY ALT 2041FT SLP156=
202406140500 METAR CYOD 140500Z 16003KT 15SM FEW085 SCT230 10/09 A2997 RMK AC1CI3 DENSITY ALT 1700FT SLP158=
202406140600 METAR CYOD 140600Z 16004KT 15SM SCT230 09/08 A2997 RMK CI3 DENSITY ALT 1486FT SLP160=
202406140700 METAR CYOD 140700Z 12002KT 15SM MIFG SCT250 09/09 A2997 RMK CI4 DENSITY ALT 1501FT SLP158=
202406140800 METAR CYOD 140800Z 12002KT 15SM MIFG SCT250 08/08 A2996 RMK CI4 DENSITY ALT 1389FT SLP156=
202406140900 METAR CYOD 140900Z 00000KT 5SM BR BKN240 07/07 A2995 RMK CI5 DENSITY ALT 1289FT SLP155=
202406140917 SPECI CYOD 140917Z 06002KT 2SM BR SCT240 07/07 A2995 RMK CI4 DENSITY ALT 1277FT SLP153=
202406141000 METAR CYOD 141000Z 11003KT 10SM MIFG SCT240 06/06 A2994 RMK CI3 DENSITY ALT 1108FT SLP150=
202406141100 METAR CYOD 141100Z 11003KT 15SM MIFG FEW240 06/06 A2993 RMK CI2 DENSITY ALT 1161FT SLP150=
202406141200 METAR CYOD 141200Z 06002KT 15SM FEW160 SCT240 07/06 A2994 RMK AC2CI2 DENSITY ALT 1271FT SLP149=
202406141300 METAR CYOD 141300Z 11002KT 15SM SCT120 SCT160 BKN240 11/10 A2993 RMK AC3AC1CI3 DENSITY ALT 1893FT SLP145=
202406141400 METAR CYOD 141400Z 12003KT 15SM BKN130 BKN240 13/10 A2992 RMK AC6CI1 DENSITY ALT 2085FT VIRGA SW SLP139=
202406141500 METAR CYOD 141500Z 12004KT 15SM BKN130 BKN240 15/10 A2991 RMK AC6CI1 DENSITY ALT 2417FT SLP133=
202406141600 METAR CYOD 141600Z 15004KT 15SM FEW090 SCT120 OVC240 17/11 A2990 RMK AC1AC3CI4 DENSITY ALT 2687FT VIRGA SW SLP132=
202406141700 METAR CYOD 141700Z 12005KT 15SM FEW030 BKN090 OVC180 19/11 A2988 RMK CU1AC5AC3 DENSITY ALT 2869FT SLP127=
202406141800 METAR CYOD 141800Z 11005KT 15SM FEW030 BKN090 OVC120 19/11 A2989 RMK CU1AC7AC1 DENSITY ALT 2845FT SLP131=
202406141841 SPECI CYOD 141841Z 20014KT 12SM -SHRA FEW030 OVC070 15/10 A2990 RMK SC2AC6 DENSITY ALT 2429FT SLP135=
202406141854 SPECI CYOD 141854Z 17008KT 12SM -TSRA SCT030 OVC070 18/10 A2990 RMK SC3AC5 DENSITY ALT 2730FT CB EMBD MOV N OCNL LTGCG LTNG DTCTRS REP STRIKES 9 NM N SLP133=
202406141900 METAR CYOD 141900Z 18007KT 12SM -TSRA SCT030 OVC070 15/10 A2989 RMK SC3AC5 DENSITY ALT 2356FT CB EMBD MOV N OCNL LTGICCG LTNG DTCTRS REP STRIKES 10 NM N SLP134=
202406142000 METAR CYOD 142000Z 07009KT 12SM -SHRA FEW030 OVC070 15/10 A2985 RMK SC1AC7 DENSITY ALT 2489FT SLP121=
202406142100 METAR CYOD 142100Z 06010KT 12SM -SHRA FEW030 BKN070 OVC120 14/11 A2982 RMK SC1AC7AC1 DENSITY ALT 2373FT SLP111=
202406142200 METAR CYOD 142200Z 06007KT 12SM -SHRA FEW050 BKN075 OVC120 15/10 A2980 RMK SC2AC5AC1 DENSITY ALT 2534FT SLP105=
202406142300 METAR CYOD 142300Z 04011KT 12SM -SHRA BKN075 OVC120 16/10 A2978 RMK AC7AC1 DENSITY ALT 2656FT SLP095=
202406150000 METAR CYOD 150000Z 03011KT 15SM BKN080 BKN120 BKN250 15/09 A2976 RMK AC7AC1CI1 DENSITY ALT 2556FT SLP088=
202406150100 METAR CYOD 150100Z 06011KT 15SM BKN080 BKN250 14/09 A2973 RMK AC6CI1 DENSITY ALT 2455FT SLP075=
202406150200 METAR CYOD 150200Z 04009KT 15SM BKN080 BKN110 OVC250 15/09 A2973 RMK AC5AC2CI1 DENSITY ALT 2552FT CONS DIST LTNG SW SLP074=
202406150249 SPECI CYOD 150249Z 35008KT 15SM -SHRA BKN080 OVC100 13/10 A2974 RMK AC5AC3 DENSITY ALT 2287FT OCNL DIST LTNG SE SLP081=
202406150300 METAR CYOD 150300Z 34004KT 15SM -TSRA SCT050CB OVC080 13/10 A2974 RMK CB3AC5 DENSITY ALT 2298FT CB N MOV E FRQ LTGCC SLP080=
202406150345 SPECI CYOD 150345Z 09004KT 15SM -SHRA BKN060 BKN100 12/10 A2974 RMK SC5AC2 DENSITY ALT 2231FT SLP077=
202406150400 METAR CYOD 150400Z 06013KT 12SM -SHRA BKN050 BKN090 BKN250 12/10 A2971 RMK SC5AC1CI1 DENSITY ALT 2278FT SLP066=
202406150500 METAR CYOD 150500Z 31006KT 15SM BKN070 BKN250 12/09 A2973 RMK AC6CI1 DENSITY ALT 2145FT SLP072=
202406150600 METAR CYOD 150600Z 00000KT 15SM BKN070 BKN250 11/10 A2973 RMK AC6CI1 DENSITY ALT 2064FT SLP074=
202406150700 METAR CYOD 150700Z 00000KT 15SM BKN060 11/09 A2973 RMK SC6 DENSITY ALT 2016FT SLP075=
202406150800 METAR CYOD 150800Z 24005KT 15SM SCT060 09/09 A2973 RMK SC4 DENSITY ALT 1835FT SLP076=
202406150900 METAR CYOD 150900Z 18004KT 10SM MIFG SCT045 08/08 A2972 RMK SC4 DENSITY ALT 1725FT SLP076=
202406150924 SPECI CYOD 150924Z 19004KT 1/4SM R31R/3000FT/N FG SKC 07/07 A2972 RMK FG5 DENSITY ALT 1559FT SLP077=
202406151000 METAR CYOD 151000Z 21005KT 1/8SM R31R/2600FT/N FG VV002 07/07 A2972 RMK FG8 DENSITY ALT 1585FT SLP075=
202406151100 METAR CYOD 151100Z 23009KT 1/4SM R31R/2600FT/N FG VV002 07/07 A2972 RMK FG8 DENSITY ALT 1545FT SLP075=
202406151200 METAR CYOD 151200Z 24006KT 1/8SM R31R/2200FT/N FG VV002 08/08 A2972 RMK FG8 DENSITY ALT 1725FT SLP074=
202406151300 METAR CYOD 151300Z 23006KT 3/4SM R31R/P6000FT/U BR VV003 10/09 A2973 RMK FG8 DENSITY ALT 1891FT SLP079=
202406151327 SPECI CYOD 151327Z 24008KT 2SM BR OVC007 10/10 A2974 RMK FG4SF4 DENSITY ALT 1908FT SLP080=
202406151338 SPECI CYOD 151338Z 24010KT 7SM OVC006 10/10 A2974 RMK SF8 DENSITY ALT 1895FT SLP080=
202406151400 METAR CYOD 151400Z 24007KT 7SM SCT005 OVC007 10/10 A2974 RMK SF4SF4 DENSITY ALT 1881FT SLP080=
202406151500 METAR CYOD 151500Z 25009KT 9SM BKN011 11/09 A2973 RMK SC7 DENSITY ALT 2027FT SLP077=
202406151527 SPECI CYOD 151527Z 23006KT 210V270 15SM BKN015 12/09 A2972 RMK SC5 DENSITY ALT 2242FT SLP072=
202406151600 METAR CYOD 151600Z 23008KT 15SM FEW020 14/09 A2970 RMK CF1 DENSITY ALT 2516FT SLP067=
202406151700 METAR CYOD 151700Z 25009KT 210V280 15SM FEW028 16/09 A2969 RMK CF2 DENSITY ALT 2732FT SLP060=
202406151800 METAR CYOD 151800Z 24012KT 15SM FEW035 18/07 A2967 RMK CF2 DENSITY ALT 2949FT SLP053=
202406151900 METAR CYOD 151900Z 24014KT 15SM BKN050 BKN250 19/07 A2965 RMK CU5CI1 DENSITY ALT 3091FT SLP047=
202406152000 METAR CYOD 152000Z 25012KT 15SM BKN050 BKN250 19/06 A2964 RMK CU5CI1 DENSITY ALT 3136FT SLP045=
202406152100 METAR CYOD 152100Z 27010KT 15SM SCT050 OVC250 20/07 A2963 RMK CU4CI4 DENSITY ALT 3274FT SLP039=
202406152200 METAR CYOD 152200Z 25008KT 15SM SCT060 BKN250 19/06 A2964 RMK CU3CI4 DENSITY ALT 3162FT SLP044=
202406152300 METAR CYOD 152300Z 27010KT 15SM FEW060 SCT160 BKN250 20/05 A2962 RMK CU2AC1CI4 DENSITY ALT 3221FT SLP039=
202406160000 METAR CYOD 160000Z 29010KT 15SM FEW060 BKN160 BKN250 18/05 A2958 RMK CU1AC5CI2 DENSITY ALT 3113FT SLP025=
202406160100 METAR CYOD 160100Z 28006KT 15SM SCT160 BKN250 18/05 A2959 RMK AC3CS4 DENSITY ALT 3074FT SLP027=
202406160200 METAR CYOD 160200Z 27004KT 15SM SCT120 OVC250 17/06 A2958 RMK AC3CS5 DENSITY ALT 2996FT SLP024=
202406160300 METAR CYOD 160300Z 29006KT 15SM FEW120 OVC210 15/06 A2956 RMK AC1CS7 DENSITY ALT 2789FT SLP018=
202406160400 METAR CYOD 160400Z 29006KT 15SM SCT060 BKN210 14/06 A2958 RMK SC4CI3 DENSITY ALT 2616FT SLP023=
202406160500 METAR CYOD 160500Z 27007KT 15SM BKN060 OVC180 13/07 A2958 RMK SC5AC3 DENSITY ALT 2448FT SLP024=
202406160600 METAR CYOD 160600Z 32007KT 15SM FEW060 OVC180 12/08 A2955 RMK SC1AC7 DENSITY ALT 2348FT SLP013=
202406160700 METAR CYOD 160700Z 33009KT 15SM FEW060 OVC160 12/08 A2953 RMK SC1AC7 DENSITY ALT 2389FT SLP006=
202406160800 METAR CYOD 160800Z 33009KT 15SM FEW050 OVC150 11/09 A2952 RMK SC2AC6 DENSITY ALT 2357FT SLP002=
202406160900 METAR CYOD 160900Z 35016KT 15SM BKN030 OVC060 11/08 A2952 RMK SC6SC2 DENSITY ALT 2336FT SLP002=
202406160935 SPECI CYOD 160935Z 35014KT 15SM BKN020 OVC050 11/07 A2953 RMK SC6SC2 DENSITY ALT 2270FT SLP004=
202406161000 METAR CYOD 161000Z 35015KT 15SM OVC020 11/07 A2952 RMK SC8 DENSITY ALT 2265FT SLP003=
202406161100 METAR CYOD 161100Z 35016KT 15SM OVC025 10/06 A2951 RMK SC8 DENSITY ALT 2207FT SLP999=
202406161200 METAR CYOD 161200Z 34020KT 15SM OVC020 10/06 A2951 RMK SC8 DENSITY ALT 2170FT SLP001=
202406161300 METAR CYOD 161300Z 34017KT 15SM SCT020 BKN080 OVC200 10/06 A2952 RMK SC3AC2CI3 DENSITY ALT 2207FT SLP002=
202406161400 METAR CYOD 161400Z 34014KT 15SM FEW030 BKN070 BKN250 11/06 A2953 RMK SC2AC4CI1 DENSITY ALT 2295FT SLP007=
202406161500 METAR CYOD 161500Z 34016G33KT 15SM FEW030 SCT070 BKN210 13/04 A2955 RMK SC1AC3CI4 DENSITY ALT 2442FT SLP015=
202406161600 METAR CYOD 161600Z 33025G34KT 15SM FEW040 FEW180 BKN210 14/02 A2956 RMK CU1AC2CI5 DENSITY ALT 2554FT SLP018=
202406161700 METAR CYOD 161700Z 33028G37KT 15SM FEW055 SCT180 OVC210 14/00 A2958 RMK CU2AC1CI5 DENSITY ALT 2544FT SLP024=
202406161800 METAR CYOD 161800Z 33024G36KT 15SM BKN070 OVC210 14/00 A2960 RMK CU5CI3 DENSITY ALT 2559FT SLP030=
202406161900 METAR CYOD 161900Z 33021G32KT 15SM BKN070 BKN210 13/00 A2962 RMK AC7CI1 DENSITY ALT 2386FT SLP039=
202406162000 METAR CYOD 162000Z 32018KT 15SM BKN075 BKN210 14/01 A2964 RMK AC6CI1 DENSITY ALT 2490FT SLP044=
202406162100 METAR CYOD 162100Z 32020KT 15SM FEW060 BKN075 BKN210 14/M00 A2964 RMK CU1AC6CI1 DENSITY ALT 2522FT SLP046=
202406162200 METAR CYOD 162200Z 32023G33KT 15SM FEW060 SCT080 BKN210 14/M01 A2965 RMK CU1AC3CI2 DENSITY ALT 2505FT SLP051=
202406162300 METAR CYOD 162300Z 31016KT 15SM FEW060 BKN085 BKN210 14/M00 A2967 RMK CU1AC5CI1 DENSITY ALT 2388FT SLP056=
202406170000 METAR CYOD 170000Z 31013KT 15SM BKN070 14/00 A2968 RMK AC5 DENSITY ALT 2392FT SLP060=
202406170100 METAR CYOD 170100Z 30014KT 15SM BKN080 14/M02 A2968 RMK AC5 DENSITY ALT 2464FT SLP061=
202406170200 METAR CYOD 170200Z 33013KT 15SM BKN080 14/M03 A2969 RMK AC5 DENSITY ALT 2425FT SLP064=
202406170300 METAR CYOD 170300Z 32008KT 15SM BKN080 12/M01 A2970 RMK AC7 DENSITY ALT 2162FT SLP067=
202406170400 METAR CYOD 170400Z 31006KT 15SM BKN070 09/01 A2972 RMK AC7 DENSITY ALT 1743FT SLP074=
202406170500 METAR CYOD NIL=
202406170548 SPECI CYOD 170548Z 34006KT 15SM -SHRA OVC060 10/01 A2974 RMK SC8 DENSITY ALT 1822FT PCPN VRY LGT SLP081=
202406170600 METAR CYOD 170600Z 34005KT 15SM -SHRA OVC060 09/02 A2974 RMK SC8 DENSITY ALT 1774FT PCPN VRY LGT SLP080=
202406170700 METAR CYOD 170700Z 31002KT 15SM -SHRA BKN060 08/02 A2973 RMK SC7 DENSITY ALT 1664FT PCPN VRY LGT SLP080=
202406170740 SPECI CYOD 170740Z 24005KT 15SM BKN060 07/03 A2974 RMK SC7 DENSITY ALT 1436FT SLP082=
202406170800 METAR CYOD 170800Z 27005KT 15SM BKN060 OVC090 07/03 A2974 RMK SC6AC2 DENSITY ALT 1448FT SLP083=
202406170900 METAR CYOD 170900Z 27005KT 15SM BKN060 OVC090 06/03 A2973 RMK SC7AC1 DENSITY ALT 1371FT SLP080=
202406171000 METAR CYOD 171000Z 27007KT 15SM BKN050 05/03 A2973 RMK SC5 DENSITY ALT 1291FT SLP079=
202406171100 METAR CYOD 171100Z 24005KT 15SM FEW050 03/02 A2973 RMK SC2 DENSITY ALT 972FT SLP081=
202406171200 METAR CYOD 171200Z 26006KT 15SM FEW120 SCT250 04/02 A2973 RMK AC2CI2 DENSITY ALT 1080FT SLP082=
202406171300 METAR CYOD 171300Z 23005KT 15SM FEW030 FEW110 FEW250 05/03 A2973 RMK CF1AC1CI2 DENSITY ALT 1267FT SLP081=
202406171400 METAR CYOD 171400Z 24009KT 15SM FEW030 FEW110 07/03 A2974 RMK CF1AC1 DENSITY ALT 1543FT SLP081=
202406171500 METAR CYOD 171500Z 24013KT 15SM FEW040 FEW110 09/01 A2972 RMK CU1AC1 DENSITY ALT 1808FT SLP076=
202406171534 SPECI CYOD 171534Z CCA 26013KT 15SM -SHRA SCT050 SCT110 09/01 A2972 RMK CU4AC1 DENSITY ALT 1804FT SLP075=
202406171600 METAR CYOD 171600Z 27014KT 15SM BKN050 10/M01 A2971 RMK CU6 DENSITY ALT 1932FT SLP075=
202406171700 METAR CYOD 171700Z 26014KT 15SM BKN060 11/M01 A2971 RMK CU6 DENSITY ALT 2048FT SLP072=
202406171800 METAR CYOD 171800Z 25015G26KT 15SM BKN070 11/M02 A2969 RMK CU6 DENSITY ALT 2076FT SLP066=
202406171900 METAR CYOD 171900Z 27015KT 15SM BKN070 14/M03 A2968 RMK CU6 DENSITY ALT 2397FT SLP062=
202406172000 METAR CYOD 172000Z 28017KT 15SM BKN070 13/M03 A2969 RMK CU6 DENSITY ALT 2222FT SLP065=
202406172100 METAR CYOD 172100Z 27016KT 15SM BKN075 13/M03 A2969 RMK CU6 DENSITY ALT 2274FT SLP067=
202406172200 METAR CYOD 172200Z 28011KT 15SM FEW060 BKN110 13/M03 A2969 RMK CU1AC6 DENSITY ALT 2287FT SLP069=
202406172300 METAR CYOD 172300Z 27012KT 15SM FEW070 FEW110 14/M00 A2971 RMK CU1AC1 DENSITY ALT 2391FT SLP076=
202406180000 METAR CYOD 180000Z 33013KT 15SM BKN070 BKN250 12/01 A2972 RMK CU5CI1 DENSITY ALT 2136FT VIRGA SE SLP081=
202406180100 METAR CYOD 180100Z 29019G32KT 15SM -SHRA SCT050 BKN080 10/01 A2976 RMK SC4AC2 DENSITY ALT 1887FT SLP092=
202406180131 SPECI CYOD 180131Z 30006KT 15SM SCT060 SCT080 09/05 A2978 RMK SC3AC1 DENSITY ALT 1740FT SLP100=
202406180200 METAR CYOD 180200Z 29008KT 15SM SCT080 09/04 A2979 RMK AC3 DENSITY ALT 1745FT SLP103=
202406180300 METAR CYOD 180300Z 32012KT 15SM SCT070 BKN250 08/02 A2982 RMK AC4CI1 DENSITY ALT 1468FT SLP112=
202406180400 METAR CYOD 180400Z 32009KT 15SM SCT070 06/02 A2984 RMK AC3 DENSITY ALT 1234FT SLP121=
202406180500 METAR CYOD 180500Z 28007KT 15SM BKN140 05/02 A2986 RMK AS5 DENSITY ALT 1134FT SLP128=
202406180600 METAR CYOD 180600Z 32008KT 15SM OVC030 06/03 A2988 RMK SC8 DENSITY ALT 1155FT SLP132=
202406180700 METAR CYOD 180700Z 31012KT 15SM FEW030 BKN110 05/02 A2988 RMK SC2AC5 DENSITY ALT 1005FT SLP134=
202406180800 METAR CYOD 180800Z 33009KT 15SM OVC110 04/01 A2990 RMK AC8 DENSITY ALT 940FT SLP140=
202406180900 METAR CYOD 180900Z 31009KT 15SM OVC080 04/02 A2990 RMK AC8 DENSITY ALT 837FT SLP140=
202406181000 METAR CYOD 181000Z 32009KT 15SM SCT090 BKN150 04/02 A2991 RMK AC3AC4 DENSITY ALT 839FT SLP143=
202406181100 METAR CYOD 181100Z 33007KT 15SM SCT020 OVC090 04/02 A2992 RMK SC4AC4 DENSITY ALT 828FT SLP149=
202406181118 SPECI CYOD 181118Z 29005KT 15SM BKN018 OVC090 04/02 A2993 RMK SC6AC2 DENSITY ALT 831FT SLP152=
202406181200 METAR CYOD 181200Z 26004KT 15SM BKN017 OVC170 04/02 A2995 RMK SC7AC1 DENSITY ALT 849FT SLP157=
202406181300 METAR CYOD 181300Z 29006KT 15SM OVC017 05/02 A2998 RMK SC8 DENSITY ALT 919FT SLP169=
202406181400 METAR CYOD 181400Z 31009KT 15SM OVC018 05/02 A3000 RMK SC8 DENSITY ALT 959FT SLP177=
202406181500 METAR CYOD 181500Z 30006KT 15SM OVC019 06/02 A3001 RMK SC8 DENSITY ALT 1064FT SLP181=
202406181521 SPECI CYOD 181521Z 30007KT 15SM OVC023 07/02 A3001 RMK SC8 DENSITY ALT 1115FT SLP180=
202406181600 METAR CYOD 181600Z 31006KT 15SM OVC025 07/02 A3001 RMK SC8 DENSITY ALT 1207FT SLP181=
202406181700 METAR CYOD 181700Z 31009KT 15SM SCT029 OVC250 09/02 A3000 RMK CU4CI4 DENSITY ALT 1475FT SLP177=
202406181800 METAR CYOD 181800Z 32008KT 15SM -SHRA SCT030 BKN060 BKN250 09/02 A3001 RMK CU3SC3CI1 DENSITY ALT 1448FT PCPN VRY LGT SLP178=
202406181839 SPECI CYOD 181839Z 01007KT 15SM SCT040 BKN060 BKN250 09/02 A3001 RMK SC3SC3CI1 DENSITY ALT 1415FT SLP179=
202406181900 METAR CYOD 181900Z 33010KT 15SM FEW040 BKN070 BKN250 11/01 A3000 RMK SC2AC3CI2 DENSITY ALT 1650FT SLP177=
202406182000 METAR CYOD 182000Z 03007KT 15SM SCT055 BKN085 BKN250 11/M01 A2999 RMK SC3AC2CI2 DENSITY ALT 1711FT SLP173=
202406182100 METAR CYOD 182100Z 31003KT 15SM FEW060 BKN080 OVC250 12/M00 A3000 RMK SC2AC4CI2 DENSITY ALT 1753FT SLP176=
202406182135 SPECI CYOD 182135Z 02009KT 15SM -SHRA BKN050 OVC070 10/02 A3001 RMK SC6AC2 DENSITY ALT 1604FT SLP180=
202406182200 METAR CYOD 182200Z 20004KT 15SM BKN050 OVC070 10/00 A3001 RMK SC5AC3 DENSITY ALT 1555FT SLP180=
202406182300 METAR CYOD 182300Z 32008KT 15SM SCT050 OVC075 11/00 A3001 RMK SC4AC4 DENSITY ALT 1707FT SLP181=
202406190000 METAR CYOD 190000Z 24003KT 15SM SCT070 OVC080 11/M00 A3002 RMK AC3AC5 DENSITY ALT 1706FT SLP181=
202406190100 METAR CYOD 190100Z 24002KT 15SM SCT075 OVC090 11/M00 A3002 RMK AC3AC5 DENSITY ALT 1705FT SLP181=
202406190200 METAR CYOD 190200Z 26003KT 15SM FEW075 BKN090 OVC180 11/01 A3002 RMK AC2AC4AC2 DENSITY ALT 1686FT SLP184=
202406190300 METAR CYOD 190300Z 22003KT 15SM BKN085 OVC180 10/04 A3003 RMK AC5AC3 DENSITY ALT 1506FT SLP185=
202406190400 METAR CYOD 190400Z 34002KT 15SM BKN080 BKN180 09/02 A3004 RMK AC5AC2 DENSITY ALT 1444FT SLP189=
202406190500 METAR CYOD 190500Z 00000KT 15SM FEW070 SCT180 BKN250 06/02 A3005 RMK AC2AC2CI2 DENSITY ALT 1020FT SLP192=
202406190600 METAR CYOD 190600Z 13002KT 15SM FEW070 SCT170 BKN230 04/03 A3005 RMK AC1AC3CI3 DENSITY ALT 739FT SLP195=
202406190700 METAR CYOD 190700Z 18003KT 15SM FEW180 BKN220 02/02 A3005 RMK AC2CI4 DENSITY ALT 520FT SLP194=
202406190800 METAR CYOD 190800Z 00000KT 12SM SCT190 BKN220 02/02 A3005 RMK AC3CI2 DENSITY ALT 479FT SLP194=
202406190900 METAR CYOD 190900Z 00000KT 10SM MIFG BKN210 02/02 A3005 RMK CI5 DENSITY ALT 466FT SLP195=
202406191000 METAR CYOD 191000Z 13002KT 12SM MIFG FEW080 BKN220 02/02 A3005 RMK AC1CI4 DENSITY ALT 506FT SLP195=
202406191100 METAR CYOD 191100Z 21002KT 15SM MIFG BKN085 BKN220 02/02 A3006 RMK AC5CI2 DENSITY ALT 453FT SLP197=
202406191200 METAR CYOD 191200Z 09002KT 15SM FEW065 BKN085 BKN220 03/02 A3006 RMK SC2AC4CI1 DENSITY ALT 548FT SLP198=
202406191300 METAR CYOD 191300Z 16002KT 15SM BKN090 04/03 A3007 RMK AC6 DENSITY ALT 714FT SLP201=
202406191400 METAR CYOD 191400Z 20004KT 15SM BKN070 07/05 A3008 RMK AC6 DENSITY ALT 1067FT SLP201=
202406191500 METAR CYOD 191500Z 23009KT 15SM SCT070 12/05 A3008 RMK AC4 DENSITY ALT 1721FT SLP200=
202406191600 METAR CYOD 191600Z 21009KT 15SM FEW070 SCT250 14/05 A3008 RMK AC2CI1 DENSITY ALT 1997FT SLP198=
202406191700 METAR CYOD 191700Z 22009KT 15SM FEW040 FEW070 SCT250 16/03 A3007 RMK CU1AC1CI1 DENSITY ALT 2246FT SLP197=
202406191800 METAR CYOD 191800Z 20004KT 15SM SCT055 BKN080 BKN250 17/01 A3008 RMK CU3AC2CI1 DENSITY ALT 2307FT SLP199=
202406191900 METAR CYOD 191900Z 23008KT 15SM BKN055 BKN080 16/02 A3008 RMK CU5AC2 DENSITY ALT 2260FT SLP203=
202406192000 METAR CYOD 192000Z 27012KT 15SM FEW065 SCT095 19/01 A3008 RMK CU2AC2 DENSITY ALT 2568FT SLP200=
202406192100 METAR CYOD 192100Z 20009KT 15SM SCT065 SCT095 18/01 A3008 RMK CU3AC1 DENSITY ALT 2441FT SLP200=
202406192200 METAR CYOD 192200Z 23012KT 15SM BKN070 19/01 A3008 RMK CU5 DENSITY ALT 2639FT SLP198=
202406192300 METAR CYOD 192300Z 25008KT 15SM SCT070 20/02 A3007 RMK CU4 DENSITY ALT 2690FT SLP197=
202406200000 METAR CYOD 200000Z 22006KT 15SM SCT070 19/02 A3008 RMK CU4 DENSITY ALT 2642FT SLP198=
202406200100 METAR CYOD 200100Z 24008KT 15SM SCT070 18/01 A3008 RMK AC3 DENSITY ALT 2418FT SLP201=
202406200200 METAR CYOD 200200Z 23007KT 15SM FEW070 18/01 A3009 RMK AC1 DENSITY ALT 2470FT SLP200=
202406200300 METAR CYOD 200300Z 22006KT 15SM FEW070 FEW120 16/02 A3009 RMK AC1AC1 DENSITY ALT 2165FT SLP200=
202406200400 METAR CYOD 200400Z 21005KT 15SM FEW120 14/02 A3011 RMK AC1 DENSITY ALT 1906FT SLP205=
202406200500 METAR CYOD 200500Z 20005KT 15SM SKC 12/03 A3012 RMK DENSITY ALT 1671FT SLP209=
202406200600 METAR CYOD 200600Z 22005KT 15SM SKC 10/03 A3013 RMK DENSITY ALT 1406FT SLP214=
202406200700 METAR CYOD 200700Z 17003KT 15SM FEW080 07/03 A3015 RMK AC1 DENSITY ALT 986FT SLP221=
202406200800 METAR CYOD 200800Z 00000KT 15SM FEW080 06/03 A3015 RMK AC1 DENSITY ALT 842FT SLP222=
202406200900 METAR CYOD 200900Z 00000KT 15SM FEW090 04/02 A3016 RMK AC1 DENSITY ALT 553FT SLP226=
202406201000 METAR CYOD 201000Z 00000KT 15SM MIFG FEW090 03/03 A3016 RMK AC1 DENSITY ALT 489FT SLP227=
202406201100 METAR CYOD 201100Z 14002KT 15SM MIFG FEW090 01/01 A3017 RMK AC1 DENSITY ALT 227FT SLP231=
202406201200 METAR CYOD 201200Z 00000KT 15SM SKC 03/02 A3018 RMK DENSITY ALT 490FT SLP234=
202406201300 METAR CYOD 201300Z 17002KT 15SM FEW130 FEW250 07/04 A3019 RMK AC1CI1 DENSITY ALT 976FT AC TR CI TR SLP236=
202406201400 METAR CYOD 201400Z 00000KT 15SM FEW130 12/05 A3020 RMK AC1 DENSITY ALT 1546FT SLP236=
202406201500 METAR CYOD 201500Z 00000KT 15SM FEW130 15/06 A3021 RMK AC1 DENSITY ALT 1991FT SLP238=
202406201600 METAR CYOD 201600Z 00000KT 15SM FEW110 17/04 A3021 RMK AC1 DENSITY ALT 2241FT SLP238=
202406201700 METAR CYOD 201700Z 16005KT 15SM FEW055 FEW110 19/03 A3021 RMK CU1AC1 DENSITY ALT 2476FT SLP238=
202406201800 METAR CYOD 201800Z 15009KT 15SM FEW055 20/03 A3020 RMK CU1 DENSITY ALT 2627FT SLP235=
202406201900 METAR CYOD 201900Z 13008KT 15SM FEW070 21/03 A3020 RMK CU2 DENSITY ALT 2719FT SLP235=
202406202000 METAR CYOD 202000Z 20004KT 15SM SCT070 21/02 A3019 RMK CU3 DENSITY ALT 2663FT SLP233=
202406202100 METAR CYOD 202100Z 19007KT 15SM SCT075 21/02 A3018 RMK CU4 DENSITY ALT 2751FT SLP233=
202406202200 METAR CYOD 202200Z 16009KT 15SM BKN080 23/01 A3017 RMK CU5 DENSITY ALT 2937FT SLP229=
202406202300 METAR CYOD 202300Z 15003KT 15SM SCT080 22/02 A3016 RMK CU4 DENSITY ALT 2830FT SLP226=
202406210000 METAR CYOD 210000Z 18006KT 15SM SCT080 22/02 A3016 RMK CU3 DENSITY ALT 2809FT SLP224=
202406210100 METAR CYOD 210100Z 17007KT 15SM FEW080 21/02 A3015 RMK AC2 DENSITY ALT 2786FT SLP220=
202406210200 METAR CYOD 210200Z 16003KT 150V210 15SM FEW080 21/04 A3015 RMK AC2 DENSITY ALT 2725FT SLP217=
202406210300 METAR CYOD 210300Z 15003KT 15SM FEW080 18/05 A3016 RMK AC1 DENSITY ALT 2427FT SLP217=
202406210400 METAR CYOD 210400Z 14002KT 15SM FEW080 15/05 A3016 RMK AC1 DENSITY ALT 2046FT SLP219=
202406210500 METAR CYOD 210500Z 13002KT 15SM SCT085 13/04 A3016 RMK AC3 DENSITY ALT 1727FT SLP221=
202406210600 METAR CYOD 210600Z 23003KT 15SM SCT085 10/06 A3016 RMK AC4 DENSITY ALT 1463FT SLP221=
202406210700 METAR CYOD 210700Z 12004KT 15SM SCT085 10/06 A3016 RMK AC3 DENSITY ALT 1345FT SLP219=
202406210800 METAR CYOD 210800Z 10003KT 15SM SCT085 10/06 A3015 RMK AC4 DENSITY ALT 1394FT SLP218=
202406210900 METAR CYOD 210900Z 00000KT 15SM FEW085 08/06 A3015 RMK AC2 DENSITY ALT 1162FT SLP219=
202406211000 METAR CYOD 211000Z 07005KT 15SM FEW085 07/05 A3015 RMK AC1 DENSITY ALT 990FT SLP217=
202406211100 METAR CYOD 211100Z 00000KT 15SM FEW085 05/04 A3015 RMK AC2 DENSITY ALT 815FT SLP218=
202406211200 METAR CYOD 211200Z 03002KT 15SM FEW090 06/04 A3015 RMK AC1 DENSITY ALT 893FT SLP218=
202406211300 METAR CYOD 211300Z 05002KT 15SM FEW090 11/07 A3014 RMK AC1 DENSITY ALT 1617FT SLP214=
202406211400 METAR CYOD 211400Z 11003KT 15SM FEW090 15/08 A3014 RMK AC1 DENSITY ALT 2095FT SLP209=
202406211500 METAR CYOD 211500Z 11003KT 15SM FEW090 17/09 A3013 RMK AC1 DENSITY ALT 2334FT SLP209=
202406211600 METAR CYOD 211600Z 15006KT 15SM FEW090 FEW250 20/10 A3012 RMK AC1CI1 DENSITY ALT 2680FT SLP205=
202406211700 METAR CYOD 211700Z 14011KT 15SM FEW065 FEW250 21/09 A3011 RMK CU1CI1 DENSITY ALT 2874FT CU TR SLP200=
202406211800 METAR CYOD 211800Z 13013KT 15SM FEW065 FEW250 22/08 A3010 RMK CU1CI1 DENSITY ALT 2950FT SLP198=
202406211900 METAR CYOD 211900Z 11010KT 15SM SCT050 SCT250 22/08 A3008 RMK CU3CI1 DENSITY ALT 3060FT OCNL DIST LTNG S SLP194=
202406212000 METAR CYOD 212000Z 07007KT 15SM SCT050 BKN080 22/07 A3005 RMK CU3AC2 DENSITY ALT 3081FT OCNL LTGCCCG 26NM NW SLP183=
202406212100 METAR CYOD 212100Z 13008KT 15SM SCT060 BKN080 23/06 A3003 RMK CU4AC2 DENSITY ALT 3181FT OCLN LTGCCCG 15NM S SLP177=
202406212200 METAR CYOD 212200Z 19009KT 15SM SCT060 BKN090 BKN250 21/06 A3003 RMK CU3AC2CI1 DENSITY ALT 2937FT FRQ LTGCCCG 12NM S SLP178=
202406212300 METAR CYOD 212300Z 20007KT 15SM SCT065 BKN110 BKN250 20/06 A3002 RMK CU3AC2CI2 DENSITY ALT 2833FT OCNL LTGCCCG 22NM SE SLP177=
202406220000 METAR CYOD 220000Z 30003KT 15SM FEW065 SCT130 BKN250 19/07 A3001 RMK CU1AC2CI3 DENSITY ALT 2752FT OCNL DIST LTNG SE SLP174=
202406220100 METAR CYOD 220100Z 28004KT 230V310 15SM FEW065 SCT130 BKN220 21/05 A2999 RMK CU1AC2CI2 DENSITY ALT 2980FT FRQ DIST LTNG SE SLP161=
202406220200 METAR CYOD 220200Z 23002KT 15SM FEW130 SCT220 21/05 A2999 RMK AC1CI2 DENSITY ALT 2938FT SLP159=
202406220300 METAR CYOD 220300Z 00000KT 15SM FEW120 SCT220 20/07 A2997 RMK AC2CI2 DENSITY ALT 2868FT OCNL DIST LTNG S SLP153=
202406220400 METAR CYOD 220400Z 14008KT 15SM FEW120 SCT220 14/08 A2998 RMK AC1CI2 DENSITY ALT 2189FT SLP158=
202406220500 METAR CYOD 220500Z 20004KT 15SM FEW120 13/07 A2997 RMK AC1 DENSITY ALT 2070FT SLP154=
202406220600 METAR CYOD 220600Z 00000KT 15SM FEW120 FEW220 11/07 A2997 RMK AC1CI1 DENSITY ALT 1742FT SLP155=
202406220700 METAR CYOD 220700Z 05002KT 15SM FEW120 FEW220 09/07 A2997 RMK AC1CI1 DENSITY ALT 1522FT SLP156=
202406220800 METAR CYOD 220800Z 14004KT 15SM FEW120 FEW220 08/06 A2997 RMK AC1CI1 DENSITY ALT 1415FT SLP154=
202406220900 METAR CYOD 220900Z 15002KT 15SM FEW120 07/06 A2996 RMK AC1 DENSITY ALT 1256FT SLP152=
202406221000 METAR CYOD 221000Z 14006KT 15SM FEW120 FEW220 06/05 A2995 RMK AC1CI1 DENSITY ALT 1090FT SLP151=
202406221100 METAR CYOD 221100Z 00000KT 15SM MIFG FEW120 FEW220 06/05 A2995 RMK AC1CI1 DENSITY ALT 1118FT SLP153=
202406221200 METAR CYOD 221200Z 00000KT 15SM FEW110 FEW220 07/06 A2995 RMK AC1CI1 DENSITY ALT 1217FT SLP151=
202406221300 METAR CYOD 221300Z 01002KT 15SM FEW110 FEW220 10/08 A2995 RMK AC1CI1 DENSITY ALT 1724FT SLP148=
202406221400 METAR CYOD 221400Z 24002KT 15SM FEW250 13/09 A2994 RMK CI1 DENSITY ALT 2118FT SLP144=
202406221500 METAR CYOD 221500Z 27003KT 15SM FEW250 17/10 A2994 RMK CI2 DENSITY ALT 2553FT SLP141=
202406221600 METAR CYOD 221600Z 00000KT 15SM FEW250 19/09 A2994 RMK CI1 DENSITY ALT 2762FT SLP144=
202406221700 METAR CYOD 221700Z 21005KT 15SM FEW050 FEW250 21/08 A2993 RMK CU1CI1 DENSITY ALT 3016FT SLP139=
202406221800 METAR CYOD 221800Z 25003KT 15SM FEW050 FEW250 22/08 A2991 RMK CU1CI1 DENSITY ALT 3168FT SLP135=
202406221900 METAR CYOD 221900Z 20004KT 15SM SCT050 SCT250 23/06 A2991 RMK CU3CI1 DENSITY ALT 3274FT SLP134=
202406222000 METAR CYOD 222000Z 23005KT 15SM SCT050 SCT250 24/07 A2990 RMK CU3CI1 DENSITY ALT 3423FT SLP131=
202406222100 METAR CYOD 222100Z 22006KT 15SM SCT050 SCT250 24/08 A2989 RMK CU4CI1 DENSITY ALT 3504FT SLP127=
202406222200 METAR CYOD 222200Z 17006KT 15SM SCT050 SCT250 24/07 A2988 RMK CU3CI1 DENSITY ALT 3485FT SLP125=
202406222300 METAR CYOD 222300Z 18004KT 15SM SCT060 SCT250 25/08 A2987 RMK CU3CI1 DENSITY ALT 3589FT SLP121=
202406230000 METAR CYOD 230000Z 17004KT 15SM FEW060 24/08 A2985 RMK CU2 DENSITY ALT 3556FT SLP115=
202406230100 METAR CYOD 230100Z 00000KT 15SM FEW060 24/06 A2984 RMK CU1 DENSITY ALT 3534FT SLP110=
202406230200 METAR CYOD 230200Z 18005KT 15SM FEW060 FEW250 23/07 A2984 RMK CU1CI1 DENSITY ALT 3439FT SLP106=
202406230300 METAR CYOD 230300Z 13007KT 15SM FEW250 21/08 A2984 RMK CI1 DENSITY ALT 3202FT SLP105=
202406230400 METAR CYOD 230400Z 13007KT 15SM FEW250 18/09 A2983 RMK CI1 DENSITY ALT 2755FT SLP106=
202406230500 METAR CYOD 230500Z 13006KT 15SM FEW250 15/08 A2983 RMK CI1 DENSITY ALT 2430FT SLP104=
202406230600 METAR CYOD 230600Z 14007KT 15SM FEW250 13/08 A2983 RMK CI2 DENSITY ALT 2167FT SLP103=
202406230700 METAR CYOD 230700Z 13006KT 15SM FEW250 12/08 A2982 RMK CI2 DENSITY ALT 2052FT SLP100=
202406230800 METAR CYOD 230800Z 13008KT 15SM BKN250 10/07 A2980 RMK CI6 DENSITY ALT 1878FT SLP096=
202406230900 METAR CYOD 230900Z 12006KT 15SM BKN250 12/08 A2978 RMK CI5 DENSITY ALT 2111FT SLP087=
202406231000 METAR CYOD 231000Z 13007KT 15SM SCT180 BKN250 12/09 A2977 RMK AC3CI3 DENSITY ALT 2077FT SLP083=
202406231100 METAR CYOD 231100Z 13007KT 15SM FEW080 SCT180 BKN250 12/09 A2976 RMK ACC1AC3CI2 DENSITY ALT 2196FT SLP078=
202406231200 METAR CYOD 231200Z 12005KT 15SM FEW080 SCT180 BKN250 13/09 A2975 RMK ACC2AC2CI3 DENSITY ALT 2272FT SLP077=
202406231300 METAR CYOD 231300Z 11004KT 15SM BKN070 OVC090 13/10 A2975 RMK AC5AC3 DENSITY ALT 2356FT SLP075=
202406231400 METAR CYOD 231400Z 10004KT 15SM BKN080 OVC120 14/10 A2974 RMK AC5AC3 DENSITY ALT 2444FT SLP074=
202406231422 SPECI CYOD 231422Z 09004KT 12SM -SHRA BKN065 OVC085 14/11 A2974 RMK SC5AC3 DENSITY ALT 2403FT SLP074=
202406231500 METAR CYOD 231500Z 07005KT 10SM -SHRA OVC065 13/12 A2974 RMK SC8 DENSITY ALT 2347FT SLP074=
202406231600 METAR CYOD 231600Z 03006KT 12SM -SHRA OVC070 13/12 A2971 RMK AC8 DENSITY ALT 2429FT SLP065=
202406231700 METAR CYOD 231700Z 06011KT 15SM -SHRA BKN060 OVC090 14/13 A2969 RMK SC5AC3 DENSITY ALT 2482FT SLP059=
202406231720 SPECI CYOD 231720Z 07014KT 15SM BKN090 BKN110 15/13 A2966 RMK AC5AC2 DENSITY ALT 2691FT PRESFR SLP050=
202406231800 METAR CYOD 231800Z 07013KT 15SM SCT110 BKN130 17/13 A2963 RMK AC4AC2 DENSITY ALT 2992FT SLP039=
202406231900 METAR CYOD 231900Z 10010KT 15SM FEW130 20/13 A2962 RMK AC2 DENSITY ALT 3401FT SLP036=
202406232000 METAR CYOD 232000Z 08008KT 15SM BKN050 21/14 A2959 RMK SC7 DENSITY ALT 3542FT SLP025=
202406232100 METAR CYOD 232100Z 06008KT 15SM BKN045 22/14 A2958 RMK SC7 DENSITY ALT 3627FT SLP019=
202406232200 METAR CYOD 232200Z 36006KT 15SM BKN045 23/15 A2955 RMK SC6 DENSITY ALT 3797FT FRQ LTGCC 30NM SE CVCTV CLD EMBD SLP011=
202406232300 METAR CYOD 232300Z 02006KT 15SM SCT045 BKN150 23/15 A2953 RMK SC3AC2 DENSITY ALT 3895FT OCNL DIST LTNG E CVCTV CLD ASOCTD SLP000=
202406240000 METAR CYOD 240000Z 05005KT 15SM FEW050TCU SCT150 24/15 A2951 RMK TCU2AC1 DENSITY ALT 3975FT CONS DIST LTNG NW SLP995=
202406240100 METAR CYOD 240100Z CCA 28005KT 15SM FEW050CB SCT150 24/14 A2950 RMK CB2AC1 DENSITY ALT 4019FT CB E MOV E FRQ DIST LTGICCG NW SLP990=
202406240200 METAR CYOD 240200Z 32012KT 15SM FEW050CB FEW150 23/14 A2951 RMK CB1AC1 DENSITY ALT 3863FT CB N MOV E OCNL LTGCC LTNG DTCTRS REP STRIKES 20 NM N SLP994=
202406240300 METAR CYOD 240300Z 36009KT 15SM SCT050CB SCT150 18/09 A2950 RMK CB3AC1 DENSITY ALT 3250FT CB SW MOV NE FRQ LTGICCG LTNG DTCTRS REP STRIKES 15 NM SW SLP994=
202406240309 SPECI CYOD 240309Z 35011KT 15SM TS SCT050CB SCT150 18/08 A2950 RMK CB3AC1 DENSITY ALT 3210FT CB SW MOV NE FRQ LTGICCG SLP995=
202406240334 SPECI CYOD 240334Z 27008KT 15SM -TSRA BKN060CB BKN140 17/09 A2953 RMK CB5AC1 DENSITY ALT 3026FT CB OHD MOV NE FRQ LTGICCCCG SLP004=
202406240400 METAR CYOD 240400Z 29019G28KT 10SM -TSRA BKN040CB BKN150 15/12 A2958 RMK CB6AC1 DENSITY ALT 2773FT CB OHD MOV NE FRQ LTGICCCCG PRESRR SLP024=
202406240449 SPECI CYOD 240449Z 04009KT 15SM FEW050CB BKN060 BKN150 14/12 A2951 RMK CB2SC3AC1 DENSITY ALT 2750FT CB NE MOV NE PRESFR SLP999=
202406240500 METAR CYOD 240500Z 03005KT 15SM FEW050CB BKN060 BKN150 15/12 A2951 RMK CB1SC4AC1 DENSITY ALT 2803FT CB E MOV NE OCNL LTGICCG LTNG DTCTRS REP STRIKES 15 NM E PRESFR SLP999=
202406240600 METAR CYOD 240600Z 24006KT 15SM BKN060 13/12 A2954 RMK SC6 DENSITY ALT 2570FT SLP008=
202406240700 METAR CYOD 240700Z 22007KT 15SM BKN120 12/12 A2954 RMK AC7 DENSITY ALT 2479FT SLP008=
202406240800 METAR CYOD 240800Z 25004KT 15SM OVC100 12/12 A2955 RMK AC8 DENSITY ALT 2480FT SLP009=
202406240900 METAR CYOD 240900Z 24007KT 15SM BKN090 12/11 A2957 RMK AC6 DENSITY ALT 2391FT SLP015=
202406241000 METAR CYOD 241000Z 25008KT 15SM BKN075 12/11 A2957 RMK AC5 DENSITY ALT 2372FT SLP016=
202406241100 METAR CYOD 241100Z 24008KT 15SM BKN090 BKN250 11/10 A2957 RMK AC5CI1 DENSITY ALT 2302FT SLP015=
202406241200 METAR CYOD 241200Z 26010KT 15SM FEW080 SCT120 BKN250 12/10 A2959 RMK AC2AC2CI2 DENSITY ALT 2354FT SLP020=
202406241231 SPECI CYOD 241231Z 26008KT 15SM -SHRA BKN090 12/10 A2959 RMK AC7 DENSITY ALT 2381FT SLP022=
202406241300 METAR CYOD 241300Z 25008KT 15SM BKN100 12/10 A2959 RMK AC7 DENSITY ALT 2395FT SLP022=
202406241400 METAR CYOD 241400Z 25010KT 15SM BKN100 13/11 A2959 RMK AC7 DENSITY ALT 2498FT SLP022=
202406241441 SPECI CYOD 241441Z 26010KT 15SM -SHRA FEW030 BKN070 13/11 A2960 RMK SC2AC5 DENSITY ALT 2538FT SLP023=
202406241500 METAR CYOD 241500Z 26010KT 15SM -SHRA FEW030 BKN070 13/11 A2960 RMK SC2AC5 DENSITY ALT 2460FT PCPN VRY LGT SLP027=
202406241532 SPECI CYOD 241532Z 25009KT 15SM FEW030 BKN090 14/11 A2960 RMK SC1AC7 DENSITY ALT 2573FT SLP027=
202406241600 METAR CYOD 241600Z 25011KT 15SM FEW030 BKN090 14/10 A2960 RMK SC1AC6 DENSITY ALT 2633FT SLP031=
202406241700 METAR CYOD 241700Z 27014G26KT 15SM -SHRA SCT030 BKN070 15/10 A2961 RMK SC4AC3 DENSITY ALT 2748FT PCPN VRY LGT SLP032=
202406241800 METAR CYOD 241800Z 26017G26KT 15SM -SHRA BKN030 OVC060 15/10 A2962 RMK SC6SC2 DENSITY ALT 2757FT SLP036=
202406241900 METAR CYOD 241900Z CCA 26011KT 10SM -SHRA BKN030 OVC060 13/11 A2964 RMK SC6SC2 DENSITY ALT 2447FT SLP044=
202406242000 METAR CYOD 242000Z 25013KT 10SM -SHRA SCT017 OVC060 13/12 A2965 RMK SC3SC5 DENSITY ALT 2427FT SLP049=
202406242025 SPECI CYOD 242025Z 26011KT 10SM -SHRA BKN020 OVC060 13/12 A2965 RMK SC6SC2 DENSITY ALT 2427FT SLP051=
202406242100 METAR CYOD 242100Z 25013KT 10SM -SHRA OVC020 13/12 A2966 RMK SC8 DENSITY ALT 2416FT SLP053=
202406242145 SPECI CYOD 242145Z 26012KT 4SM -SHRA BR OVC020 13/12 A2968 RMK SC8 DENSITY ALT 2382FT SLP059=
202406242200 METAR CYOD 242200Z 26012KT 6SM -SHRA BR OVC020 13/12 A2968 RMK SC8 DENSITY ALT 2379FT SLP060=
202406242229 SPECI CYOD 242229Z 26010KT 3SM -SHRA BR OVC020 13/12 A2968 RMK SC8 DENSITY ALT 2382FT SLP061=
202406242300 METAR CYOD 242300Z 26013KT 6SM -SHRA BR BKN015 OVC040 13/12 A2968 RMK SC6SC2 DENSITY ALT 2355FT SLP061=
202406250000 METAR CYOD 250000Z 26014KT 8SM -SHRA OVC015 13/11 A2969 RMK SC8 DENSITY ALT 2328FT SLP064=
202406250100 METAR CYOD 250100Z 26012KT 15SM OVC015 12/12 A2970 RMK SC8 DENSITY ALT 2306FT SLP066=
202406250140 SPECI CYOD 250140Z 27014KT 15SM -SHRA OVC012 13/12 A2971 RMK SC8 DENSITY ALT 2330FT PCPN VRY LGT SLP070=
202406250200 METAR CYOD 250200Z 27012KT 15SM OVC012 13/12 A2971 RMK SC8 DENSITY ALT 2344FT SLP070=
202406250222 SPECI CYOD 250222Z 28012KT 10SM -SHRA OVC012 13/12 A2971 RMK SC8 DENSITY ALT 2344FT SLP070=
202406250300 METAR CYOD 250300Z 27012KT 4SM -SHRA OVC011 13/12 A2972 RMK SC8 DENSITY ALT 2309FT SLP072=
202406250400 METAR CYOD 250400Z 27011KT 4SM -SHRA OVC012 12/12 A2974 RMK SC8 DENSITY ALT 2262FT SLP079=
202406250444 SPECI CYOD 250444Z 27009KT 15SM OVC025 12/12 A2974 RMK SC8 DENSITY ALT 2263FT SLP081=
202406250500 METAR CYOD 250500Z 27012KT 15SM OVC027 13/12 A2975 RMK SC8 DENSITY ALT 2265FT SLP081=
202406250511 SPECI CYOD 250511Z 28010KT 15SM -SHRA OVC025 13/12 A2975 RMK SC8 DENSITY ALT 2279FT SLP082=
202406250600 METAR CYOD 250600Z 29009KT 15SM SCT015 OVC025 13/12 A2977 RMK SF3SC5 DENSITY ALT 2283FT SLP089=
202406250700 METAR CYOD 250700Z 29009KT 15SM OVC025 13/12 A2978 RMK SC8 DENSITY ALT 2271FT SLP095=
202406250800 METAR CYOD 250800Z 31010KT 15SM OVC025 13/12 A2981 RMK SC8 DENSITY ALT 2246FT SLP105=
202406250900 METAR CYOD 250900Z 31009KT 15SM -SHRA OVC035 13/12 A2983 RMK SC8 DENSITY ALT 2183FT PCPN VRY LGT SLP112=
202406251000 METAR CYOD 251000Z 31009KT 15SM -SHRA OVC030 12/12 A2985 RMK SC8 DENSITY ALT 2135FT SLP117=
202406251027 SPECI CYOD 251027Z 31006KT 15SM OVC025 12/12 A2986 RMK SC8 DENSITY ALT 2124FT SLP121=
202406251100 METAR CYOD 251100Z 30006KT 15SM BKN016 OVC024 13/12 A2988 RMK SC6SC2 DENSITY ALT 2115FT SLP127=
202406251200 METAR CYOD 251200Z 32003KT 15SM BKN011 13/12 A2990 RMK SF7 DENSITY ALT 2105FT SLP136=
202406251300 METAR CYOD 251300Z 33004KT 15SM OVC013 13/13 A2992 RMK ST8 DENSITY ALT 2163FT SLP144=
202406251400 METAR CYOD NIL=
202406251500 METAR CYOD 251500Z 03012KT 15SM SCT030 OVC050 13/10 A2998 RMK SC3SC5 DENSITY ALT 2067FT SLP163=
202406251600 METAR CYOD 251600Z 03009KT 15SM BKN055 14/10 A3001 RMK SC6 DENSITY ALT 2145FT SLP172=
202406251700 METAR CYOD 251700Z 03010KT 15SM SCT025 BKN250 17/10 A3003 RMK SC3CI2 DENSITY ALT 2432FT SLP176=
202406251800 METAR CYOD 251800Z 03006KT 15SM SCT050 SCT250 18/10 A3004 RMK SC3CI1 DENSITY ALT 2569FT SLP180=
202406251900 METAR CYOD 251900Z 02008KT 15SM BKN070 BKN250 19/10 A3005 RMK AC5CI1 DENSITY ALT 2652FT SLP181=
202406252000 METAR CYOD 252000Z 03004KT 15SM BKN070 19/09 A3005 RMK AC5 DENSITY ALT 2705FT SLP183=
202406252100 METAR CYOD 252100Z 30004KT 15SM BKN070 18/09 A3007 RMK AC7 DENSITY ALT 2536FT SLP189=
202406252200 METAR CYOD 252200Z 28009KT 15SM OVC070 19/09 A3007 RMK AC8 DENSITY ALT 2695FT SLP191=
202406252300 METAR CYOD 252300Z 27009KT 15SM SCT050 BKN080 21/08 A3008 RMK SC3AC3 DENSITY ALT 2843FT SLP192=
202406260000 METAR CYOD 260000Z 26005KT 15SM SCT090 19/09 A3008 RMK AC4 DENSITY ALT 2694FT SLP194=
202406260100 METAR CYOD 260100Z 29008KT 15SM SCT090 19/08 A3008 RMK AC3 DENSITY ALT 2685FT MDT CU ASOCTD SLP192=
202406260200 METAR CYOD 260200Z 26004KT 15SM SCT080 19/10 A3008 RMK AC4 DENSITY ALT 2624FT SLP194=
202406260300 METAR CYOD 260300Z 00000KT 15SM FEW070 17/10 A3008 RMK AC2 DENSITY ALT 2422FT SLP195=
202406260400 METAR CYOD 260400Z 00000KT 15SM FEW070 14/11 A3009 RMK AC1 DENSITY ALT 2096FT SLP198=
202406260500 METAR CYOD 260500Z 00000KT 15SM FEW070 12/10 A3009 RMK AC1 DENSITY ALT 1720FT SLP200=
202406260600 METAR CYOD 260600Z 00000KT 15SM FEW070 10/10 A3011 RMK AC1 DENSITY ALT 1553FT SLP204=
202406260700 METAR CYOD 260700Z 00000KT 15SM BKN080 11/10 A3010 RMK AC6 DENSITY ALT 1583FT SLP202=
202406260800 METAR CYOD 260800Z 00000KT 15SM SCT060 10/09 A3011 RMK SC4 DENSITY ALT 1501FT SLP203=
202406260900 METAR CYOD 260900Z 00000KT 15SM BKN055 10/10 A3010 RMK SC7 DENSITY ALT 1513FT SLP203=
202406261000 METAR CYOD 261000Z 00000KT 15SM SCT055 11/10 A3010 RMK SC4 DENSITY ALT 1686FT SLP201=
202406261100 METAR CYOD 261100Z 00000KT 15SM MIFG FEW060 FEW180 09/09 A3010 RMK SC1AC1 DENSITY ALT 1377FT MDT CU ASOCTD SLP201=
202406261200 METAR CYOD 261200Z 00000KT 15SM SCT065 BKN180 10/10 A3010 RMK SC4AC3 DENSITY ALT 1570FT SLP200=
202406261300 METAR CYOD 261300Z 00000KT 15SM SCT060 BKN230 11/10 A3010 RMK SC4CI3 DENSITY ALT 1676FT SLP200=
202406261400 METAR CYOD 261400Z 14002KT 12SM SCT065 BKN100 BKN210 13/12 A3009 RMK SC3AC2CI2 DENSITY ALT 1953FT SLP197=
202406261500 METAR CYOD 261500Z 12007KT 15SM BKN070 BKN210 16/10 A3009 RMK AC6CI1 DENSITY ALT 2317FT SLP195=
202406261600 METAR CYOD 261600Z 11006KT 15SM BKN075 BKN210 18/10 A3008 RMK AC6CI1 DENSITY ALT 2534FT SLP192=
202406261700 METAR CYOD 261700Z 09004KT 15SM FEW035 SCT075 BKN180 BKN210 19/11 A3007 RMK CU1AC3AC2CI2 DENSITY ALT 2713FT SLP190=
202406261800 METAR CYOD 261800Z 17005KT 15SM FEW040 SCT180 BKN210 21/11 A3005 RMK CU2AC2CI2 DENSITY ALT 2980FT SLP181=
202406261900 METAR CYOD 261900Z 10002KT 15SM FEW045 BKN070 BKN180 21/11 A3002 RMK SC2AC4AC1 DENSITY ALT 2977FT SLP174=
202406262000 METAR CYOD 262000Z 17006KT 140V200 15SM FEW045 SCT070 BKN090 22/11 A3001 RMK SC2AC2AC3 DENSITY ALT 3161FT SLP168=
202406262100 METAR CYOD 262100Z 12007KT 15SM FEW045 SCT060 OVC090 20/13 A3000 RMK CU1SC2AC5 DENSITY ALT 2940FT SLP165=
202406262200 METAR CYOD 262200Z 09004KT 15SM FEW045 SCT060 OVC110 21/10 A2998 RMK CU1SC2AC5 DENSITY ALT 3040FT SLP158=
202406262300 METAR CYOD 262300Z 08005KT 15SM FEW050 SCT090 BKN110 OVC210 21/10 A2997 RMK CU1AC3AC3CI1 DENSITY ALT 3038FT SLP156=
202406262337 SPECI CYOD 262337Z 10006KT 15SM -RA FEW050 SCT080 BKN110 OVC180 21/11 A2996 RMK CU1AC3AC3AC1 DENSITY ALT 3034FT SLP152=
202406270000 METAR CYOD 270000Z 10006KT 15SM -RA FEW060 BKN080 OVC140 21/11 A2995 RMK SC2AC3AC3 DENSITY ALT 3038FT PCPN VRY LGT SLP149=
202406270013 SPECI CYOD 270013Z 10006KT 15SM FEW070 SCT110 BKN140 OVC180 20/12 A2995 RMK AC2AC2AC3AC1 DENSITY ALT 3004FT SLP149=
202406270100 METAR CYOD 270100Z 08004KT 15SM FEW070 BKN130 OVC180 20/12 A2994 RMK AC2AC4AC2 DENSITY ALT 2926FT SLP145=
202406270107 SPECI CYOD 270107Z 10005KT 15SM -RA FEW070 BKN100 OVC150 19/13 A2994 RMK AC2AC3AC3 DENSITY ALT 2894FT PCPN VRY LGT SLP145=
202406270140 SPECI CYOD 270140Z 10005KT 15SM FEW060 BKN100 OVC150 19/12 A2993 RMK SC2AC4AC2 DENSITY ALT 2821FT SLP144=
202406270200 METAR CYOD 270200Z 09005KT 15SM -RA FEW030 SCT060 OVC100 19/12 A2993 RMK SC2SC2AC4 DENSITY ALT 2812FT PCPN VRY LGT SLP140=
202406270300 METAR CYOD 270300Z 11004KT 15SM -RA FEW060 SCT090 OVC120 18/12 A2992 RMK SC2AC2AC4 DENSITY ALT 2779FT PCPN VRY LGT SLP135=
202406270400 METAR CYOD 270400Z 13006KT 15SM -RA FEW055 BKN075 OVC100 17/13 A2992 RMK SC2AC5AC1 DENSITY ALT 2592FT PCPN VRY LGT SLP135=
202406270500 METAR CYOD 270500Z 15005KT 15SM -RA BKN050 BKN070 OVC110 16/13 A2991 RMK SC5AC2AC1 DENSITY ALT 2528FT PCPN VRY LGT OCNL LTGCCCG 18NM SE SLP132=
202406270600 METAR CYOD 270600Z 14006KT 15SM -RA SCT050 OVC100 15/14 A2990 RMK SC3AC5 DENSITY ALT 2472FT PCPN VRY LGT SLP128=
202406270700 METAR CYOD 270700Z 11004KT 15SM -RA SCT035 OVC080 15/13 A2988 RMK SC4AC4 DENSITY ALT 2494FT SLP121=
202406270800 METAR CYOD 270800Z 06003KT 15SM -RA SCT050 OVC085 15/13 A2987 RMK SC4AC4 DENSITY ALT 2449FT PCPN VRY LGT SLP118=
202406270900 METAR CYOD 270900Z 10004KT 15SM -RA SCT050 OVC070 15/12 A2985 RMK SC3AC5 DENSITY ALT 2441FT SLP113=
202406271000 METAR CYOD 271000Z 10005KT 15SM -RA FEW045 OVC080 14/12 A2984 RMK SC2AC6 DENSITY ALT 2400FT SLP109=
202406271100 METAR CYOD 271100Z 06006KT 15SM FEW045 BKN080 OVC100 14/12 A2983 RMK SC2AC4AC2 DENSITY ALT 2350FT SLP104=
202406271200 METAR CYOD 271200Z 04003KT 15SM SCT070 OVC100 14/12 A2982 RMK AC4AC4 DENSITY ALT 2375FT SLP102=
202406271300 METAR CYOD 271300Z 04006KT 15SM BKN070 OVC100 14/12 A2982 RMK AC6AC2 DENSITY ALT 2414FT SLP101=
202406271400 METAR CYOD 271400Z 04005KT 12SM BKN075 OVC100 14/13 A2980 RMK AC7AC1 DENSITY ALT 2452FT SLP097=
202406271500 METAR CYOD 271500Z 08006KT 12SM FEW050 BKN065 OVC110 16/12 A2980 RMK SC2SC4AC2 DENSITY ALT 2610FT SLP095=
202406271600 METAR CYOD 271600Z 07009KT 15SM SCT050 BKN065 OVC080 17/13 A2979 RMK SC3SC2AC3 DENSITY ALT 2760FT SLP093=
202406271700 METAR CYOD 271700Z 06010KT 15SM BKN065 OVC080 17/12 A2979 RMK SC5AC3 DENSITY ALT 2746FT SLP092=
202406271800 METAR CYOD 271800Z 07013KT 15SM SCT050 BKN070 OVC095 19/12 A2977 RMK SC3AC2AC3 DENSITY ALT 3009FT SLP086=
202406271900 METAR CYOD 271900Z 09010KT 15SM FEW030 FEW050 BKN070 OVC090 19/12 A2977 RMK CF1SC2AC3AC3 DENSITY ALT 3011FT SLP083=
202406272000 METAR CYOD 272000Z 08009KT 15SM FEW030 SCT080 OVC095 19/12 A2976 RMK CF1AC4AC4 DENSITY ALT 3095FT SLP081=
202406272100 METAR CYOD 272100Z 09011KT 15SM FEW030 FEW070 OVC095 19/12 A2977 RMK CF1AC2AC6 DENSITY ALT 3043FT SLP084=
202406272200 METAR CYOD 272200Z 10012KT 15SM FEW090 BKN110 BKN130 OVC230 20/12 A2975 RMK AC2AC3AC1CI2 DENSITY ALT 3224FT SLP078=
202406272300 METAR CYOD 272300Z 10010KT 15SM FEW110 SCT130 BKN180 OVC230 21/10 A2974 RMK AC2AC2AC2CI2 DENSITY ALT 3269FT SLP072=
202406280000 METAR CYOD 280000Z 09008KT 15SM FEW120 SCT180 OVC220 20/11 A2974 RMK AC2AC2CI4 DENSITY ALT 3244FT SLP074=
202406280100 METAR CYOD 280100Z 08007KT 15SM FEW120 OVC250 20/11 A2973 RMK AC2CI6 DENSITY ALT 3140FT SLP071=
202406280200 METAR CYOD 280200Z 03006KT 15SM FEW090 OVC250 19/11 A2973 RMK AC2CI6 DENSITY ALT 3092FT SLP072=
202406280300 METAR CYOD 280300Z 36007KT 15SM FEW100 OVC250 18/12 A2973 RMK AC1CI7 DENSITY ALT 2947FT SLP071=
202406280400 METAR CYOD 280400Z 03013KT 15SM SCT090 BKN250 18/06 A2976 RMK AC3CI4 DENSITY ALT 2925FT SLP079=
202406280500 METAR CYOD 280500Z 02013KT 15SM SCT090 BKN250 17/06 A2977 RMK AC3CI4 DENSITY ALT 2738FT SLP084=
202406280600 METAR CYOD 280600Z 02015KT 15SM FEW090 BKN250 16/06 A2979 RMK AC1CI5 DENSITY ALT 2576FT SLP091=
202406280700 METAR CYOD 280700Z 02013KT 15SM FEW090 BKN250 15/06 A2981 RMK AC1CI6 DENSITY ALT 2393FT SLP098=
202406280800 METAR CYOD 280800Z 02014KT 15SM FEW100 BKN250 14/06 A2983 RMK AC1CI5 DENSITY ALT 2268FT SLP104=
202406280900 METAR CYOD 280900Z 02013KT 15SM BKN250 13/06 A2985 RMK CI6 DENSITY ALT 2137FT SLP113=
202406281000 METAR CYOD 281000Z 03012KT 15SM BKN250 12/06 A2988 RMK CI5 DENSITY ALT 1997FT SLP122=
202406281100 METAR CYOD 281100Z 03011KT 15SM FEW075 BKN250 11/06 A2989 RMK AC1CI4 DENSITY ALT 1834FT SLP129=
202406281200 METAR CYOD 281200Z 03013KT 15SM FEW075 SCT250 11/05 A2992 RMK AC1CI3 DENSITY ALT 1803FT SLP136=
202406281300 METAR CYOD 281300Z 03011KT 15SM FEW075 BKN220 11/04 A2994 RMK AC1CI4 DENSITY ALT 1829FT SLP146=
202406281400 METAR CYOD 281400Z 03014KT 15SM FEW075 FEW220 12/04 A2997 RMK AC1CI2 DENSITY ALT 1818FT SLP155=
202406281500 METAR CYOD 281500Z 01012KT 15SM FEW075 FEW220 13/05 A2998 RMK AC1CI1 DENSITY ALT 1988FT SLP159=
202406281600 METAR CYOD 281600Z 02012KT 15SM FEW040 FEW220 15/04 A2999 RMK CU1CI1 DENSITY ALT 2158FT SLP162=
202406281700 METAR CYOD 281700Z 36015KT 15SM FEW045 FEW220 16/04 A3001 RMK CU1CI1 DENSITY ALT 2283FT SLP168=
202406281800 METAR CYOD 281800Z 01012KT 15SM FEW050 16/04 A3002 RMK CU2 DENSITY ALT 2356FT SLP170=
202406281900 METAR CYOD 281900Z 01010KT 15SM SCT050 17/04 A3002 RMK CU3 DENSITY ALT 2474FT SLP173=
202406282000 METAR CYOD 282000Z 04010KT 010V080 15SM SCT050 18/03 A3004 RMK CU3 DENSITY ALT 2504FT SLP178=
202406282100 METAR CYOD 282100Z 01008KT 15SM SCT060 19/04 A3005 RMK CU3 DENSITY ALT 2596FT SLP181=
202406282200 METAR CYOD 282200Z 01008KT 15SM SCT060 19/03 A3005 RMK CU3 DENSITY ALT 2650FT SLP184=
202406282300 METAR CYOD 282300Z 05007KT 15SM FEW065 19/00 A3005 RMK CU2 DENSITY ALT 2632FT SLP184=
202406290000 METAR CYOD 290000Z 07005KT 040V120 15SM FEW065 19/01 A3005 RMK CU1 DENSITY ALT 2639FT SLP184=
202406290100 METAR CYOD 290100Z 04004KT 15SM FEW065 19/01 A3006 RMK CU1 DENSITY ALT 2625FT SLP186=
202406290200 METAR CYOD 290200Z 04004KT 15SM FEW065 18/01 A3006 RMK CU1 DENSITY ALT 2541FT SLP186=
202406290300 METAR CYOD 290300Z 06003KT 15SM FEW065 17/02 A3006 RMK CU1 DENSITY ALT 2395FT SLP188=
202406290400 METAR CYOD 290400Z 18002KT 15SM SKC 13/05 A3007 RMK DENSITY ALT 1933FT SLP192=
202406290500 METAR CYOD 290500Z 20003KT 15SM SKC 10/05 A3008 RMK DENSITY ALT 1522FT SLP197=
202406290600 METAR CYOD 290600Z 00000KT 15SM SKC 08/05 A3009 RMK DENSITY ALT 1268FT SLP201=
202406290700 METAR CYOD 290700Z 00000KT 15SM SKC 08/06 A3009 RMK DENSITY ALT 1223FT SLP201=
202406290800 METAR CYOD 290800Z 12003KT 15SM SKC 06/05 A3011 RMK DENSITY ALT 1000FT SLP206=
202406290900 METAR CYOD 290900Z 00000KT 15SM SKC 06/05 A3011 RMK DENSITY ALT 919FT SLP207=
202406291000 METAR CYOD 291000Z 15002KT 15SM MIFG FEW170 05/05 A3012 RMK AC1 DENSITY ALT 856FT AC TR SLP210=
202406291100 METAR CYOD 291100Z 00000KT 15SM MIFG FEW170 04/04 A3012 RMK AC1 DENSITY ALT 689FT AC TR SLP212=
202406291200 METAR CYOD 291200Z 04002KT 15SM MIFG FEW170 06/05 A3013 RMK AC1 DENSITY ALT 879FT AC TR SLP215=
202406291300 METAR CYOD 291300Z 09002KT 15SM SKC 09/07 A3013 RMK DENSITY ALT 1335FT SLP213=
202406291400 METAR CYOD 291400Z 13003KT 15SM FEW090 FEW250 13/07 A3014 RMK AC1CI1 DENSITY ALT 1788FT SLP212=
202406291500 METAR CYOD 291500Z 16003KT 15SM FEW090 FEW250 16/08 A3014 RMK AC1CI1 DENSITY ALT 2161FT SLP211=
202406291600 METAR CYOD 291600Z 15007KT 15SM FEW040 FEW250 19/08 A3014 RMK CU1CI1 DENSITY ALT 2538FT SLP212=
202406291700 METAR CYOD 291700Z 14005KT 15SM FEW045 FEW250 20/08 A3014 RMK CU2CI1 DENSITY ALT 2669FT SLP214=
202406291800 METAR CYOD 291800Z 15007KT 15SM FEW060 SCT250 21/06 A3013 RMK CU2CI1 DENSITY ALT 2809FT SLP212=
202406291900 METAR CYOD 291900Z 19002KT 15SM FEW070 FEW250 21/05 A3012 RMK AC1CI1 DENSITY ALT 2813FT SLP210=
202406292000 METAR CYOD 292000Z 13007KT 15SM FEW070 FEW250 22/06 A3012 RMK AC1CI1 DENSITY ALT 2996FT SLP208=
202406292100 METAR CYOD 292100Z 14008KT 15SM FEW075 FEW250 23/06 A3011 RMK AC1CI1 DENSITY ALT 3031FT SLP204=
202406292200 METAR CYOD 292200Z 17006KT 130V200 15SM FEW075 SCT250 23/06 A3009 RMK AC1CI2 DENSITY ALT 3089FT SLP198=
202406292300 METAR CYOD 292300Z 19003KT 15SM FEW075 SCT250 23/05 A3008 RMK AC1CI2 DENSITY ALT 3102FT SLP196=
202406300000 METAR CYOD 300000Z 17007KT 15SM FEW075 SCT250 23/03 A3007 RMK AC1CI3 DENSITY ALT 3099FT SLP191=
202406300100 METAR CYOD 300100Z 13004KT 15SM FEW075 SCT250 23/05 A3006 RMK CU1CI2 DENSITY ALT 3136FT SLP186=
202406300200 METAR CYOD 300200Z 13007KT 15SM FEW075 SCT250 22/05 A3006 RMK CU1CI3 DENSITY ALT 3033FT SLP184=
202406300300 METAR CYOD 300300Z 09006KT 15SM FEW080 SCT250 20/07 A3006 RMK AC1CI2 DENSITY ALT 2781FT SLP185=
202406300400 METAR CYOD 300400Z 10006KT 15SM FEW080 SCT250 17/07 A3007 RMK AC1CI2 DENSITY ALT 2417FT SLP187=
202406300500 METAR CYOD 300500Z 12007KT 15SM FEW080 FEW250 15/08 A3007 RMK AC1CI1 DENSITY ALT 2204FT SLP187=
202406300600 METAR CYOD 300600Z 13007KT 15SM FEW080 FEW250 13/09 A3007 RMK AC1CI1 DENSITY ALT 1974FT SLP189=
202406300700 METAR CYOD 300700Z 13006KT 15SM FEW080 11/09 A3007 RMK AC1 DENSITY ALT 1710FT SLP190=
202406300800 METAR CYOD 300800Z 13006KT 15SM FEW090 11/10 A3007 RMK AC1 DENSITY ALT 1676FT SLP188=
202406300900 METAR CYOD 300900Z 13006KT 15SM FEW090 11/10 A3006 RMK AC1 DENSITY ALT 1716FT SLP186=
202406301000 METAR CYOD 301000Z 13006KT 15SM FEW100 11/09 A3006 RMK AC1 DENSITY ALT 1634FT SLP185=
202406301100 METAR CYOD 301100Z 13005KT 15SM FEW100 FEW250 10/09 A3006 RMK AC1CI1 DENSITY ALT 1539FT SLP185=
202406301200 METAR CYOD 301200Z 12004KT 15SM FEW100 FEW250 11/09 A3006 RMK AC1CI1 DENSITY ALT 1660FT SLP184=
202406301300 METAR CYOD 301300Z 12005KT 15SM FEW080 14/11 A3006 RMK AC1 DENSITY ALT 2050FT SLP182=
202406301400 METAR CYOD 301400Z 13004KT 15SM SCT080 16/11 A3006 RMK AC4 DENSITY ALT 2370FT SLP180=
202406301500 METAR CYOD 301500Z 17005KT 15SM FEW080 SCT200 18/11 A3006 RMK ACC2CI1 DENSITY ALT 2549FT SLP180=
202406301600 METAR CYOD 301600Z 16010KT 15SM FEW070 BKN250 21/11 A3005 RMK ACC1CI6 DENSITY ALT 2955FT SLP177=
202406301700 METAR CYOD 301700Z 19009KT 15SM BKN250 22/10 A3004 RMK CI7 DENSITY ALT 3114FT SLP174=
202406301800 METAR CYOD 301800Z 17010KT 15SM FEW050 BKN250 23/11 A3003 RMK CU1CI6 DENSITY ALT 3262FT SLP173=
202406301900 METAR CYOD 301900Z 18012KT 15SM SCT060 BKN250 23/10 A3002 RMK CU3CI3 DENSITY ALT 3218FT SLP171=
202406302000 METAR CYOD 302000Z 14014KT 15SM FEW060 SCT250 25/09 A3000 RMK CU2CI1 DENSITY ALT 3432FT SLP163=
202406302100 METAR CYOD 302100Z 15011KT 15SM BKN060 25/10 A2999 RMK CU6 DENSITY ALT 3476FT SLP158=
202406302200 METAR CYOD 302200Z 14009KT 15SM BKN065 BKN250 24/08 A2996 RMK CU5CI2 DENSITY ALT 3340FT SLP151=
202406302300 METAR CYOD 302300Z 14012KT 15SM SCT070 BKN250 24/09 A2995 RMK CU3CI4 DENSITY ALT 3393FT SLP146=
202407010000 METAR CYOD 010000Z 16009KT 15SM SCT060 BKN250 22/09 A2994 RMK CU3CI4 DENSITY ALT 3193FT SLP143=

# No short TAF reports from CYOD in databse.

###################################
#  large TAF from CYOD
###################################
202406010240 TAF CYOD 010240Z 0103/0124 23010KT P6SM FEW030 SCT060 BKN120 FM010900
                       30010KT P6SM FEW030
                      TEMPO 0109/0116 BKN030
                      BECMG 0114/0116 30015G25KT FM011800 30015G25KT
                       P6SM SCT050
                      BECMG 0122/0124 34010KT RMK NXT FCST BY 010600Z=
202406010540 TAF CYOD 010540Z 0106/0206 23010KT P6SM FEW090 BKN110 FM010900
                       30010KT P6SM FEW030
                      TEMPO 0109/0116 BKN030
                      BECMG 0114/0116 30015G25KT FM011800 30015G25KT
                       P6SM SCT050
                      BECMG 0122/0124 34010KT FM020300 VRB03KT
                       P6SM SKC RMK NXT FCST BY 011200Z=
202406011140 TAF CYOD 011140Z 0112/0212 25010KT P6SM FEW100
                      BECMG 0114/0116 30015G25KT FM011800 30015G25KT
                       P6SM SCT050
                      BECMG 0122/0124 34010KT FM020300 VRB03KT
                       P6SM SKC RMK NXT FCST BY 011500Z=
202406011440 TAF CYOD 011440Z 0115/0212 28012KT P6SM FEW060
                      BECMG 0115/0116 30015G25KT FM011800 30015G25KT
                       P6SM SCT050
                      BECMG 0122/0124 34010KT FM020300 VRB03KT
                       P6SM SKC RMK NXT FCST BY 011800Z=
202406011740 TAF CYOD 011740Z 0118/0218 30015G25KT P6SM FEW060
                      BECMG 0122/0124 34010KT FM020300 VRB03KT
                       P6SM SKC FM021200 10005KT P6SM FEW060 SCT220
                       RMK NXT FCST BY 012100Z=
202406012040 TAF CYOD 012040Z 0121/0218 28012G22KT P6SM FEW070
                      BECMG 0122/0124 32010KT FM020300 VRB03KT
                       P6SM SKC FM021200 10005KT P6SM FEW060 SCT220
                       RMK NXT FCST BY 020000Z=
202406012340 TAF CYOD 012340Z 0200/0224 30012KT P6SM SCT080
                      BECMG 0201/0203 VRB03KT FM020300 VRB03KT
                       P6SM SKC FM021200 10005KT P6SM FEW060 SCT220
                       BECMG 0216/0218 SCT060 RMK NXT FCST BY 020300Z=
202406020240 TAF CYOD 020240Z 0203/0224 30012KT P6SM SCT080
                      BECMG 0204/0206 VRB03KT FM021200 10005KT
                       P6SM FEW060 SCT220
                      BECMG 0216/0218 SCT060 RMK NXT FCST BY 020600Z=
202406020540 TAF CYOD 020540Z 0206/0306 VRB03KT P6SM FEW250 FM021200 10005KT
                       P6SM FEW060 SCT220
                      BECMG 0216/0218 SCT060 FM022300 09008KT P6SM
                       FEW080 RMK NXT FCST BY 021200Z=
202406021140 TAF CYOD 021140Z 0212/0312 VRB03KT P6SM FEW230
                      PROB30 0212/0214 1SM BR
                      BECMG 0216/0218 SCT060 FM022300 09008KT P6SM
                       FEW080 FM030800 10012KT P6SM BKN060 OVC240
                       RMK NXT FCST BY 021500Z=
202406021440 TAF CYOD 021440Z 0215/0312 VRB03KT P6SM FEW030 SCT100
                      BECMG 0216/0218 SCT060 FM022300 09008KT P6SM
                       FEW080 FM030800 10012KT P6SM BKN060 OVC240
                       RMK NXT FCST BY 021800Z=
202406021740 TAF CYOD 021740Z 0218/0318 VRB03KT P6SM FEW040 FM022300 09008KT
                       P6SM FEW080 FM030800 10012KT P6SM BKN060
                       OVC240 FM031600 11012G22KT P6SM -SHRA SCT030
                       BKN060 OVC240 RMK NXT FCST BY 022100Z=
202406022040 TAF CYOD 022040Z 0221/0318 04005KT P6SM SCT060 FM022300 09008KT
                       P6SM FEW080 FM030800 10012KT P6SM BKN060
                       OVC240 FM031600 11012G22KT P6SM -SHRA SCT030
                       BKN060 OVC240 RMK NXT FCST BY 030000Z=
202406022340 TAF CYOD 022340Z 0300/0324 08008KT P6SM FEW060 SCT110 FM030800
                       10012KT P6SM SCT140 OVC250
                      BECMG 0310/0312 10012G22KT BKN070 OVC140
                       FM031600 11012G22KT P6SM -SHRA SCT030 BKN060
                       OVC240 FM032100 10015G25KT P6SM -RA SCT015
                       OVC040
                      TEMPO 0321/0324 5SM -SHRA BR BKN015 OVC040
                       RMK NXT FCST BY 030300Z=
202406030240 TAF CYOD 030240Z 0303/0324 09008KT P6SM FEW070 FM030800 10012KT
                       P6SM SCT140 OVC250
                      BECMG 0310/0312 10012G22KT BKN070 OVC140
                       FM031600 11012G22KT P6SM -SHRA SCT030 BKN060
                       OVC240 FM032100 10015G25KT P6SM -RA SCT015
                       OVC040
                      TEMPO 0321/0324 5SM -SHRA BR BKN015 OVC040
                       RMK NXT FCST BY 030600Z=
202406030540 TAF CYOD 030540Z 0306/0406 10008KT P6SM FEW120 FM030800 10012KT
                       P6SM SCT140 OVC250
                      BECMG 0311/0313 BKN070 OVC140 FM031600 11012G22KT
                       P6SM SCT030 BKN060 OVC140
                      TEMPO 0316/0322 P6SM -SHRA BKN030 OVC060
                       FM032200 09015G25KT P6SM -RA SCT015 OVC030
                       TEMPO 0322/0406 5SM -SHRA BR BKN015 OVC030
                       RMK NXT FCST BY 031200Z=
202406031140 TAF CYOD 031140Z 0312/0412 09012KT P6SM BKN090 OVC150
                      BECMG 0313/0315 BKN060 OVC140 FM031600 11012G22KT
                       P6SM SCT030 BKN060 OVC140
                      TEMPO 0316/0322 P6SM -SHRA BKN030 OVC060
                       FM032200 09015G25KT P6SM -RA SCT015 OVC030
                       TEMPO 0322/0407 5SM -SHRA BR BKN015 OVC030
                       FM040700 06012G22KT P6SM -RA SCT008 OVC015
                       TEMPO 0407/0412 3SM -RA -DZ BR OVC008 RMK
                       NXT FCST BY 031500Z=
202406031440 TAF CYOD 031440Z 0315/0412 10010KT P6SM BKN090 OVC150 FM031600
                       11012G22KT P6SM SCT030 BKN060 OVC140
                      TEMPO 0316/0322 P6SM -SHRA BKN030 OVC060
                       FM032200 09015G25KT P6SM -RA SCT015 OVC030
                       TEMPO 0322/0407 5SM -SHRA BR BKN015 OVC030
                       FM040700 06012G22KT P6SM -RA SCT008 OVC015
                       TEMPO 0407/0412 3SM -RA -DZ BR OVC008 RMK
                       NXT FCST BY 031800Z=
202406031740 TAF CYOD 031740Z 0318/0418 09015KT P6SM SCT060 BKN110 OVC260
                      TEMPO 0318/0321 P6SM -SHRA FEW030 BKN060
                       OVC110 FM032100 09015G25KT P6SM -RA SCT015
                       OVC030
                      TEMPO 0321/0407 5SM -SHRA BR BKN015 OVC030
                       FM040700 06012G22KT P6SM -RA SCT008 OVC015
                       TEMPO 0407/0418 3SM -RA -DZ BR OVC008
                      BECMG 0411/0413 03008KT RMK NXT FCST BY 032100Z=
202406032040 TAF CYOD 032040Z 0321/0418 08012KT P6SM -RA SCT040 OVC070 FM032200
                       09015G25KT P6SM -RA SCT015 OVC030
                      TEMPO 0322/0407 5SM -SHRA BR BKN015 OVC030
                       FM040700 06012G22KT P6SM -RA SCT008 OVC015
                       TEMPO 0407/0418 3SM -RA -DZ BR OVC008
                      BECMG 0411/0413 03008KT RMK NXT FCST BY 040000Z=
202406032340 TAF CYOD 032340Z 0400/0424 06012G22KT P6SM -RA SCT015 OVC050
                      TEMPO 0400/0407 5SM -SHRA BR BKN020 OVC050
                       FM040700 06012G22KT P6SM -RA SCT008 OVC015
                       TEMPO 0407/0418 3SM -RA -DZ BR OVC008
                      BECMG 0411/0413 03008KT FM041800 02010KT
                       P6SM -RA FEW008 OVC020
                      TEMPO 0418/0424 4SM -RA BR SCT008 OVC012
                       RMK NXT FCST BY 040300Z=
202406040240 TAF CYOD 040240Z 0403/0424 07012G22KT P6SM -RA SCT020 OVC050
                      TEMPO 0403/0407 5SM -SHRA BR BKN020 OVC050
                       FM040700 06012G22KT P6SM -RA SCT008 OVC015
                       TEMPO 0407/0418 3SM -RA -DZ BR OVC008
                      BECMG 0411/0413 03008KT FM041800 02010KT
                       P6SM -RA FEW008 OVC020
                      TEMPO 0418/0424 4SM -RA BR SCT008 OVC012
                       RMK NXT FCST BY 040600Z=
202406040502 TAF AMD CYOD 040502Z 0405/0424 05012KT P6SM -RA SCT020 OVC040
                      TEMPO 0405/0407 5SM -SHRA BR BKN015 OVC040
                       FM040700 06012KT P6SM -RA SCT008 OVC015
                       TEMPO 0407/0418 3SM -RA -DZ BR OVC008
                      BECMG 0411/0413 03008KT FM041800 02010KT
                       P6SM -RA FEW008 OVC020
                      TEMPO 0418/0424 4SM -RA BR SCT008 OVC012
                       RMK NXT FCST BY 040600Z=
202406040540 TAF CYOD 040540Z 0406/0506 05012KT P6SM -RA SCT015 OVC040
                      TEMPO 0406/0407 5SM -SHRA BR BKN015 OVC040
                       FM040700 06012KT P6SM -RA SCT008 OVC015
                       TEMPO 0407/0418 3SM -RA -DZ BR OVC008
                      BECMG 0411/0413 03008KT FM041800 02010KT
                       P6SM -RA FEW008 OVC020
                      TEMPO 0418/0424 4SM -RA BR SCT008 OVC012
                       FM050000 01005KT 4SM -RA BR BKN008 OVC020
                       RMK NXT FCST BY 041200Z=
202406041140 TAF CYOD 041140Z 0412/0512 02010KT P6SM -RA SCT008 OVC015
                      TEMPO 0412/0418 3SM -SHRA BR OVC008 FM041800
                       02008KT P6SM -RA FEW008 SCT012 OVC020
                      TEMPO 0418/0424 4SM -SHRA BR SCT008 OVC012
                       FM050000 01005KT 6SM -RA BR BKN008 OVC020
                       BECMG 0503/0505 32008KT FM050700 30008KT
                       P6SM FEW008 BKN012 OVC030
                      BECMG 0507/0509 29012G22KT RMK NXT FCST BY
                       041500Z=
202406041350 TAF AMD CYOD 041350Z 0413/0512 01010KT 5SM -RA BR SCT005 OVC010
                       TEMPO 0413/0418 1SM -RA BR BKN005 OVC010
                       FM041800 02008KT 6SM -RA BR SCT008 OVC012
                       TEMPO 0418/0424 3SM -SHRA BR BKN008 OVC012
                       FM050000 01005KT 6SM -RA BR BKN008 OVC020
                       BECMG 0503/0505 32008KT FM050700 30008KT
                       P6SM FEW008 BKN012 OVC030
                      BECMG 0507/0509 29012G22KT RMK NXT FCST BY
                       041500Z=
202406041441 TAF CYOD 041441Z 0415/0512 36008KT 6SM -RA BR SCT006 OVC015
                      TEMPO 0415/0418 2SM -RA BR BKN006 OVC015
                       FM041800 36008KT P6SM -RA FEW008 SCT012
                       OVC020
                      TEMPO 0418/0424 3SM -SHRA BR SCT008 OVC012
                       FM050000 01005KT 6SM -RA BR BKN008 OVC020
                       BECMG 0503/0505 32008KT FM050700 30008KT
                       P6SM FEW008 BKN012 OVC030
                      BECMG 0507/0509 29012G22KT RMK NXT FCST BY
                       041800Z=
202406041740 TAF CYOD 041740Z 0418/0518 01008KT 6SM -RA BR SCT006 OVC015
                      TEMPO 0418/0502 2SM -RA BR BKN006 OVC015
                       FM050200 34008KT 6SM -RA BR BKN008 OVC020
                       TEMPO 0502/0507 P6SM NSW SCT008 OVC020 FM050700
                       30008KT P6SM -RA FEW008 BKN012 OVC030
                      BECMG 0509/0511 29015G25KT RMK NXT FCST BY
                       042100Z=
202406042040 TAF CYOD 042040Z 0421/0518 01008KT 6SM -RA BR SCT006 OVC015
                      TEMPO 0421/0502 3SM -RA BR BKN006 OVC015
                       FM050200 34008KT 6SM -RA BR BKN008 OVC020
                       TEMPO 0502/0507 P6SM NSW SCT008 OVC020 FM050700
                       30008KT P6SM -RA FEW008 BKN012 OVC030
                      BECMG 0509/0511 29015G25KT RMK NXT FCST BY
                       050000Z=
202406042117 TAF AMD CYOD 042117Z 0421/0518 01008KT 6SM -RA BR SCT005 OVC015
                       TEMPO 0421/0502 3SM -RA BR BKN005 OVC015
                       FM050200 34008KT 6SM -RA BR BKN008 OVC020
                       TEMPO 0502/0507 P6SM NSW SCT008 OVC020 FM050700
                       30008KT P6SM -RA FEW008 BKN012 OVC030
                      BECMG 0509/0511 29015G25KT RMK NXT FCST BY
                       050000Z=
202406042300 TAF AMD CYOD 050210Z 0502/0524 27008KT 6SM -RA BR BKN008 OVC020
                       TEMPO 0502/0507 P6SM NSW SCT008 OVC030 FM050700
                       30008KT P6SM -RA FEW008 BKN012 OVC030
                      BECMG 0509/0511 29015G25KT FM051400 30015G25KT
                       P6SM -RA BKN015 OVC030 FM052000 30015G25KT
                       P6SM SCT015 BKN030 RMK NXT FCST BY 050300Z=
202406042302 TAF AMD CYOD 042302Z 0423/0518 01008KT P6SM -RA SCT005 OVC030
                      TEMPO 0423/0502 3SM -RA BR BKN005 OVC015
                       FM050200 34008KT 6SM -RA BR BKN008 OVC020
                       TEMPO 0502/0507 P6SM NSW SCT008 OVC020 FM050700
                       30008KT P6SM -RA FEW008 BKN012 OVC030
                      BECMG 0509/0511 29015G25KT RMK NXT FCST BY
                       050000Z=
202406042340 TAF CYOD 042340Z 0500/0524 28005KT P6SM -RA SCT005 OVC030
                      TEMPO 0500/0502 3SM -RA BR BKN005 OVC015
                       FM050200 34008KT 6SM -RA BR BKN008 OVC020
                       TEMPO 0502/0507 P6SM NSW SCT008 OVC020 FM050700
                       30008KT P6SM -RA FEW008 BKN012 OVC030
                      BECMG 0509/0511 29015G25KT FM051400 30015G25KT
                       P6SM -RA BKN015 OVC030 FM052000 30015G25KT
                       P6SM SCT015 BKN030 RMK NXT FCST BY 050300Z=
202406050210 TAF AMD CYOD 050210Z 0502/0524 27008KT 6SM -RA BR BKN008 OVC020
                       TEMPO 0502/0507 P6SM NSW SCT008 OVC030 FM050700
                       30008KT P6SM -RA FEW008 BKN012 OVC030
                      BECMG 0509/0511 29015G25KT FM051400 30015G25KT
                       P6SM -RA BKN015 OVC030 FM052000 30015G25KT
                       P6SM SCT015 BKN030 RMK NXT FCST BY 050300Z=
202406050240 TAF CYOD 050240Z 0503/0524 27008KT 6SM -RA BR BKN008 OVC020
                      TEMPO 0503/0507 P6SM NSW SCT008 OVC030 FM050700
                       30008KT P6SM -RA FEW008 BKN012 OVC030
                      BECMG 0509/0511 29015G25KT FM051400 30015G25KT
                       P6SM -RA BKN015 OVC030 FM052000 30015G25KT
                       P6SM SCT015 BKN030 RMK NXT FCST BY 050600Z=
202406050540 TAF CYOD 050540Z 0506/0606 27008KT 5SM -RA BR BKN012 OVC040
                      TEMPO 0506/0514 P6SM NSW SCT012 OVC040
                      PROB30 0506/0514 OVC008 FM051400 30015G25KT
                       P6SM -RA BKN015 OVC030 FM052000 30015G25KT
                       P6SM SCT015 BKN030 RMK NXT FCST BY 051200Z=
202406050801 TAF AMD CYOD 050801Z 0508/0606 27010KT 2SM -RA BR OVC008
                      TEMPO 0508/0514 P6SM NSW SCT008 OVC015 FM051400
                       30015G25KT P6SM -RA BKN015 OVC030 FM052000
                       30015G25KT P6SM SCT015 BKN030 RMK NXT FCST
                       BY 051200Z=
202406051004 TAF AMD CYOD 051004Z 0510/0606 29010KT 2SM -RA BR OVC005
                      TEMPO 0510/0514 P6SM NSW SCT005 OVC015 FM051400
                       30015G25KT P6SM -RA BKN015 OVC030 FM052000
                       30015G25KT P6SM SCT015 BKN030 RMK NXT FCST
                       BY 051200Z=
202406051140 TAF CYOD 051140Z 0512/0612 29010KT 2SM -RA BR OVC005
                      TEMPO 0512/0514 P6SM NSW SCT005 OVC012 FM051400
                       30015G25KT 5SM -RA BR BKN012 OVC030
                      TEMPO 0514/0520 P6SM -RA SCT012 OVC030 FM052000
                       30015G25KT P6SM SCT015 BKN030
                      TEMPO 0520/0607 P6SM -SHRA BKN015 OVC030
                       BECMG 0603/0604 32008KT FM060700 30005KT
                       6SM BR SCT004
                      PROB30 0607/0611 1SM BR OVC004 RMK NXT FCST
                       BY 051500Z=
202406051240 TAF AMD CYOD 051240Z 0512/0612 29012KT 3SM -RA BR OVC008
                      TEMPO 0512/0514 P6SM NSW SCT008 OVC015 FM051400
                       30015G25KT 5SM -RA BR BKN012 OVC030
                      TEMPO 0514/0520 P6SM -RA SCT012 OVC030 FM052000
                       30015G25KT P6SM SCT015 BKN030
                      TEMPO 0520/0607 P6SM -SHRA BKN015 OVC030
                       BECMG 0603/0604 32008KT FM060700 30005KT
                       6SM BR SCT004
                      PROB30 0607/0611 1SM BR OVC004 RMK NXT FCST
                       BY 051500Z=
202406051405 TAF AMD CYOD 051405Z 0514/0612 29012KT 5SM -RA BR BKN009 OVC015
                       TEMPO 0514/0517 P6SM -RA SCT009 OVC015
                      BECMG 0515/0517 30015G25KT FM051700 30015G25KT
                       5SM -RA BR BKN012 OVC025
                      TEMPO 0517/0520 P6SM -RA SCT012 BKN025 FM052000
                       30015G25KT P6SM SCT015 BKN030
                      TEMPO 0520/0607 P6SM -SHRA BKN015 OVC030
                       BECMG 0603/0604 32008KT FM060700 30005KT
                       6SM BR SCT004
                      PROB30 0607/0611 1SM BR OVC004 RMK NXT FCST
                       BY 051500Z=
202406051440 TAF CYOD 051440Z 0515/0612 29012KT 5SM -RA BR BKN009 OVC015
                      TEMPO 0515/0517 P6SM -RA SCT009 OVC015
                      BECMG 0515/0517 30015G25KT FM051700 30015G25KT
                       5SM -RA BR BKN012 OVC025
                      TEMPO 0517/0520 P6SM -RA SCT012 BKN025 FM052000
                       30015G25KT P6SM SCT015 BKN030
                      TEMPO 0520/0607 P6SM -SHRA BKN015 OVC030
                       BECMG 0603/0604 32008KT FM060700 30005KT
                       6SM BR SCT004
                      PROB30 0607/0611 1SM BR OVC004 RMK NXT FCST
                       BY 051800Z=
202406051740 TAF CYOD 051740Z 0518/0618 30015G25KT 5SM -RA BR BKN012 OVC025
                       TEMPO 0518/0520 P6SM -RA SCT012 BKN025 FM052000
                       30015G25KT P6SM SCT015 BKN030
                      TEMPO 0520/0607 P6SM -SHRA BKN015 OVC030
                       BECMG 0603/0604 32008KT FM060700 30005KT
                       6SM BR SCT004 BKN040
                      PROB30 0607/0611 1SM BR OVC004 FM061200 29010KT
                       P6SM FEW004 SCT060
                      BECMG 0613/0615 29012G22KT RMK NXT FCST BY
                       052100Z=
202406052004 TAF AMD CYOD 052004Z 0520/0618 30015G25KT P6SM SCT012 BKN025
                      TEMPO 0520/0607 6SM -SHRA BR BKN012 OVC025
                       BECMG 0603/0604 32008KT FM060700 30005KT
                       6SM BR SCT004 BKN040
                      PROB30 0607/0611 1SM BR OVC004 FM061200 29010KT
                       P6SM FEW004 SCT060
                      BECMG 0613/0615 29012G22KT RMK NXT FCST BY
                       052100Z=
202406052040 TAF CYOD 052040Z 0521/0618 30015G25KT P6SM SCT012 BKN025
                      TEMPO 0521/0607 6SM -SHRA BR BKN012 OVC025
                       BECMG 0603/0604 32008KT FM060700 30005KT
                       6SM BR SCT004 BKN040
                      PROB30 0607/0611 1SM BR OVC004 FM061200 29010KT
                       P6SM FEW004 SCT060
                      BECMG 0613/0615 29012G22KT RMK NXT FCST BY
                       060000Z=
202406052340 TAF CYOD 052340Z 0600/0624 31015G25KT P6SM SCT015 BKN025 OVC050
                       TEMPO 0600/0605 6SM -SHRA BR BKN015 OVC025
                       BECMG 0603/0605 32008KT FM060500 32008KT
                       P6SM BKN040 OVC060
                      TEMPO 0605/0607 P6SM -SHRA FM060700 30005KT
                       P6SM SCT004 BKN040
                      TEMPO 0607/0612 6SM BR
                      PROB30 0607/0611 1SM BR OVC004 FM061200 29010KT
                       P6SM FEW004 SCT060
                      BECMG 0613/0615 29012G22KT FEW060 FM062000
                       29018G28KT P6SM BKN060 RMK NXT FCST BY 060300Z=
202406060240 TAF CYOD 060240Z 0603/0624 32012KT P6SM FEW040 SCT090 BKN160
                      TEMPO 0603/0607 P6SM -SHRA BKN040 OVC090
                       BECMG 0603/0605 32008KT FM060700 30005KT
                       P6SM SCT004 BKN040
                      TEMPO 0607/0612 6SM BR
                      PROB30 0607/0611 1SM BR OVC004 FM061200 29010KT
                       P6SM FEW004 SCT060
                      BECMG 0613/0615 29012G22KT FEW060 FM062000
                       29018G28KT P6SM BKN060 RMK NXT FCST BY 060600Z=
202406060540 TAF CYOD 060540Z 0606/0706 29008KT P6SM FEW040 BKN100
                      PROB30 0607/0611 1SM BR OVC004 FM061200 29010KT
                       P6SM FEW004 SCT060
                      BECMG 0613/0615 29015G25KT FEW060 FM062000
                       29018G28KT P6SM BKN060 FM070200 31012KT
                       P6SM FEW060 RMK NXT FCST BY 061200Z=
202406061140 TAF CYOD 061140Z 0612/0712 25005KT P6SM SCT090
                      BECMG 0613/0615 29015G25KT FEW060 FM062000
                       29018G28KT P6SM SCT060
                      TEMPO 0620/0702 BKN060 FM070200 31012KT P6SM
                       FEW060
                      BECMG 0706/0708 28005KT RMK NXT FCST BY 061500Z=
202406061440 TAF CYOD 061440Z 0615/0712 28012KT P6SM SCT110
                      BECMG 0615/0617 29015G25KT FEW060 FM062000
                       29018G28KT P6SM SCT060
                      TEMPO 0620/0702 BKN060 FM070200 31012KT P6SM
                       FEW060
                      BECMG 0706/0708 28005KT RMK NXT FCST BY 061800Z=
202406061740 TAF CYOD 061740Z 0618/0718 29018G28KT P6SM FEW060 FEW110 FM062000
                       29018G28KT P6SM SCT060
                      TEMPO 0620/0702 BKN060 FM070200 31012KT P6SM
                       FEW060
                      BECMG 0706/0708 28008KT FM071100 28012KT
                       P6SM BKN050
                      BECMG 0712/0714 30018G32KT RMK NXT FCST BY
                       062100Z=
202406062040 TAF CYOD 062040Z 0621/0718 29020G30KT P6SM SCT070
                      TEMPO 0621/0702 BKN070
                      BECMG 0623/0701 30015G25KT FM070200 31012KT
                       P6SM FEW060
                      BECMG 0706/0708 28008KT FM071100 28012KT
                       P6SM BKN050
                      BECMG 0712/0714 30018G32KT RMK NXT FCST BY
                       070000Z=
202406062340 TAF CYOD 062340Z 0700/0724 29015G30KT P6SM FEW040 BKN080
                      TEMPO 0700/0704 P6SM -SHRA BKN040 BKN080
                       BECMG 0700/0702 29012G22KT FM070400 29012G22KT
                       P6SM SCT040
                      TEMPO 0704/0707 BKN040
                      BECMG 0704/0706 28008KT FM071100 28012KT
                       P6SM BKN050 OVC080
                      BECMG 0712/0714 30018G32KT FM071800 31018G32KT
                       P6SM -RA OVC040 FM072100 32015G30KT 6SM
                       -SHRA BR BKN020 OVC030 RMK NXT FCST BY 070300Z=
202406070240 TAF CYOD 070240Z 0703/0724 30018G28KT P6SM SCT080
                      TEMPO 0703/0704 P6SM -SHRA BKN080 FM070400
                       29012G22KT P6SM SCT040
                      TEMPO 0704/0707 BKN040
                      BECMG 0704/0706 28008KT FM071100 28012KT
                       P6SM BKN050 OVC080
                      BECMG 0712/0714 30018G32KT FM071800 31018G32KT
                       P6SM -RA OVC040 FM072100 32015G30KT 6SM
                       -SHRA BR BKN020 OVC030 RMK NXT FCST BY 070600Z=
202406070540 TAF CYOD 070540Z 0706/0806 27005KT P6SM SCT130
                      BECMG 0708/0710 BKN050 BKN130 FM071100 28012KT
                       P6SM BKN050 OVC080
                      BECMG 0712/0714 30018G32KT FM071600 31018G32KT
                       P6SM -RA OVC040 FM072100 32015G25KT 6SM
                       -SHRA BR BKN020 OVC030 FM080000 34012KT
                       6SM -SHRA BR FEW008 BKN012 OVC025 RMK NXT
                       FCST BY 071200Z=
202406070703 TAF AMD CYOD 070703Z 0707/0806 26008KT P6SM BKN050
                      TEMPO 0707/0709 P6SM -SHRA FM071100 28012KT
                       P6SM BKN050 OVC080
                      BECMG 0712/0714 30018G32KT FM071600 31018G32KT
                       P6SM -RA OVC040 FM072100 32015G25KT 6SM
                       -SHRA BR BKN020 OVC030 FM080000 34012KT
                       6SM -SHRA BR FEW008 BKN012 OVC025 RMK NXT
                       FCST BY 071200Z=
202406071140 TAF CYOD 071140Z 0712/0812 25010KT P6SM BKN050 OVC080
                      BECMG 0712/0714 30018G32KT FM071600 31018G32KT
                       P6SM -RA OVC040 FM072100 32015G25KT 6SM
                       -SHRA BR BKN020 OVC030 FM080000 34012KT
                       6SM -SHRA BR FEW008 BKN012 OVC025
                      BECMG 0806/0808 35005KT FM080900 VRB03KT
                       4SM BR OVC008 RMK NXT FCST BY 071500Z=
202406071440 TAF CYOD 071440Z 0715/0812 27012G25KT P6SM SCT060 BKN100
                      BECMG 0715/0717 30015G30KT FM071800 31018G32KT
                       P6SM -RA OVC040 FM072100 32015G25KT 6SM
                       -SHRA BR BKN020 OVC030 FM080000 34012KT
                       6SM -SHRA BR FEW008 BKN012 OVC025
                      BECMG 0806/0808 35005KT FM080900 VRB03KT
                       4SM BR OVC008 RMK NXT FCST BY 071800Z=
202406071740 TAF CYOD 071740Z 0718/0818 33015KT P6SM -RA OVC040 FM072100 34015KT
                       P6SM -SHRA BKN020 OVC030
                      TEMPO 0721/0809 4SM -SHRA BR SCT008 OVC012
                       BECMG 0806/0808 35005KT FM080900 VRB03KT
                       4SM BR OVC008 FM081400 34010KT P6SM SCT008
                       BKN015 RMK NXT FCST BY 072100Z=
202406072040 TAF CYOD 072040Z 0721/0818 32018KT P6SM -SHRA BKN030 OVC050
                      TEMPO 0721/0809 5SM -SHRA BR BKN020 OVC040
                       BECMG 0806/0808 35005KT FM080900 VRB03KT
                       4SM BR OVC010 FM081400 34010KT P6SM SCT010
                       BKN020 RMK NXT FCST BY 080000Z=
202406072340 TAF CYOD 072340Z 0800/0824 31012KT P6SM -RA BKN030 OVC050
                      TEMPO 0800/0809 5SM -RA BR BKN020 OVC040
                       BECMG 0806/0808 35005KT FM080900 VRB03KT
                       4SM BR SCT005 OVC010 FM081400 34010KT P6SM
                       SCT010 BKN020 FM081800 01010KT P6SM SCT015
                       BKN025 FM082100 01008KT P6SM BKN030 RMK
                       NXT FCST BY 080300Z=
202406080240 TAF CYOD 080240Z 0803/0824 31012KT P6SM FEW020 OVC050
                      TEMPO 0803/0809 5SM -RA BR BKN020 OVC050
                       BECMG 0806/0808 35005KT FM080900 VRB03KT
                       4SM BR SCT005 OVC010 FM081400 34010KT P6SM
                       SCT010 BKN020 FM081800 01010KT P6SM SCT015
                       BKN025 FM082100 01008KT P6SM BKN030 RMK
                       NXT FCST BY 080600Z=
202406080540 TAF CYOD 080540Z 0806/0906 31010KT P6SM FEW020 OVC060
                      TEMPO 0806/0809 5SM -RA BR BKN020 OVC060
                       BECMG 0806/0808 35005KT FM080900 VRB03KT
                       P6SM FEW005 SCT010 OVC020
                      TEMPO 0809/0814 4SM -DZ BR SCT005 OVC010
                       FM081400 34010KT P6SM SCT010 BKN020 FM081800
                       01010KT P6SM SCT015 BKN025 FM082100 01008KT
                       P6SM BKN030 RMK NXT FCST BY 081200Z=
202406080654 TAF AMD CYOD 080654Z 0806/0906 31010KT P6SM FEW015 OVC050
                      TEMPO 0806/0809 5SM -RA BR BKN015 OVC050
                       BECMG 0806/0808 35005KT FM080900 VRB03KT
                       P6SM FEW005 SCT010 OVC020
                      TEMPO 0809/0814 4SM -DZ BR SCT005 OVC010
                       FM081400 34010KT P6SM SCT010 BKN020 FM081800
                       01010KT P6SM SCT015 BKN025 FM082100 01008KT
                       P6SM BKN030 RMK NXT FCST BY 081200Z=
202406081140 TAF CYOD 081140Z 0812/0912 28008KT P6SM OVC015
                      TEMPO 0812/0816 4SM -SHRA BR OVC010
                      BECMG 0814/0816 01010KT FM081600 01010KT
                       P6SM SCT015 BKN025 FM082100 01008KT P6SM
                       BKN030
                      BECMG 0905/0907 06005KT FM090900 06005KT
                       P6SM SCT010 BKN030
                      TEMPO 0909/0912 4SM -DZ BR OVC010 RMK NXT
                       FCST BY 081500Z=
202406081440 TAF CYOD 081440Z 0815/0912 30010KT P6SM -RA OVC013
                      TEMPO 0815/0817 P6SM NSW SCT013 BKN020
                      BECMG 0815/0817 01010KT FM081700 01010KT
                       P6SM SCT013 BKN020
                      BECMG 0817/0819 BKN025 FM082100 01008KT P6SM
                       BKN030
                      BECMG 0905/0907 06005KT FM090900 06005KT
                       P6SM SCT010 BKN030
                      TEMPO 0909/0912 4SM -DZ BR OVC010 RMK NXT
                       FCST BY 081800Z=
202406081705 TAF AMD CYOD 081705Z 0817/0912 36008KT P6SM BKN015
                      BECMG 0817/0819 SCT015 BKN025 FM082100 01008KT
                       P6SM BKN030
                      BECMG 0905/0907 06005KT FM090900 06005KT
                       P6SM SCT010 BKN030
                      TEMPO 0909/0912 4SM -DZ BR OVC010 RMK NXT
                       FCST BY 081800Z=
202406081740 TAF CYOD 081740Z 0818/0918 01008KT P6SM BKN015 OVC030
                      TEMPO 0818/0820 SCT015 BKN030 FM082000 01008KT
                       P6SM BKN030 BKN120
                      BECMG 0905/0907 06005KT FM090900 06005KT
                       P6SM SCT010 BKN020
                      TEMPO 0909/0912 4SM -DZ BR OVC010 FM091200
                       VRB03KT P6SM -SHRA BKN010 OVC020
                      TEMPO 0912/0915 4SM -DZ BR OVC008
                      BECMG 0915/0917 P6SM NSW SCT010 BKN020 RMK
                       NXT FCST BY 082100Z=
202406082040 TAF CYOD 082040Z 0821/0918 36012KT P6SM BKN030 BKN040
                      BECMG 0905/0907 06005KT FM090900 06005KT
                       P6SM SCT010 BKN020
                      TEMPO 0909/0912 4SM -DZ BR OVC010 FM091200
                       VRB03KT P6SM -SHRA BKN010 OVC020
                      TEMPO 0912/0915 4SM -DZ BR OVC008
                      BECMG 0915/0917 P6SM NSW SCT010 BKN020 RMK
                       NXT FCST BY 090000Z=
202406082340 TAF CYOD 082340Z 0900/0924 32008KT P6SM SCT040 OVC140
                      BECMG 0905/0907 06005KT SCT020 BKN030 FM090900
                       06005KT P6SM SCT010 BKN020
                      TEMPO 0909/0913 4SM -DZ BR OVC010 FM091300
                       VRB03KT P6SM -SHRA BKN010 OVC020
                      TEMPO 0913/0915 4SM -DZ BR OVC008
                      BECMG 0915/0917 P6SM NSW SCT010 BKN020 FM091800
                       12005KT P6SM BKN030 BKN060
                      TEMPO 0918/0924 P6SM -SHRA RMK NXT FCST BY
                       090300Z=
202406090240 TAF CYOD 090240Z 0903/0924 34005KT P6SM SCT040 BKN130
                      BECMG 0905/0907 06005KT SCT020 BKN030 FM090900
                       06005KT P6SM SCT010 BKN020
                      TEMPO 0909/0913 4SM -DZ BR OVC010 FM091300
                       VRB03KT P6SM -SHRA BKN010 OVC020
                      TEMPO 0913/0915 4SM -DZ BR OVC008
                      BECMG 0915/0917 P6SM NSW SCT010 BKN020 FM091800
                       12005KT P6SM BKN030 BKN060
                      TEMPO 0918/0924 P6SM -SHRA RMK NXT FCST BY
                       090600Z=
202406090540 TAF CYOD 090540Z 0906/1006 01008KT P6SM FEW020 OVC040
                      TEMPO 0906/0909 5SM -SHRA BR BKN020 OVC040
                       BECMG 0906/0908 06005KT FM090900 06005KT
                       P6SM SCT010 OVC020
                      TEMPO 0909/0913 4SM -DZ BR OVC010 FM091300
                       VRB03KT P6SM -SHRA BKN010 OVC020
                      TEMPO 0913/0915 4SM -DZ BR OVC008
                      BECMG 0915/0917 P6SM NSW SCT010 BKN020 FM091800
                       12005KT P6SM BKN030 BKN060
                      TEMPO 0918/1001 P6SM -SHRA FM100300 10008KT
                       P6SM SCT060 RMK NXT FCST BY 091200Z=
202406090905 TAF AMD CYOD 090905Z 0909/1006 06005KT P6SM FEW020 OVC050
                      TEMPO 0909/0913 4SM -DZ BR BKN012 OVC020
                       FM091300 VRB03KT P6SM -SHRA BKN010 OVC020
                       TEMPO 0913/0915 4SM -DZ BR OVC008
                      BECMG 0915/0917 P6SM NSW SCT010 BKN020 FM091800
                       12005KT P6SM BKN030 BKN060
                      TEMPO 0918/1001 P6SM -SHRA FM100300 10008KT
                       P6SM SCT060 RMK NXT FCST BY 091200Z=
202406091140 TAF CYOD 091140Z 0912/1012 06005KT P6SM OVC040
                      TEMPO 0912/0913 4SM -DZ BR BKN012 OVC020
                       FM091300 VRB03KT P6SM SCT015 OVC025
                      TEMPO 0913/0915 4SM -DZ BR OVC015 FM091800
                       12005KT P6SM BKN030 BKN060
                      TEMPO 0918/1001 P6SM -SHRA FM100300 10008KT
                       P6SM SCT060 FM101000 10008KT P6SM BKN070
                       RMK NXT FCST BY 091500Z=
202406091441 TAF CYOD 091441Z 0915/1012 VRB03KT P6SM SCT010 OVC025
                      TEMPO 0915/0916 4SM -DZ BR OVC010 FM091800
                       12005KT P6SM BKN030 BKN060
                      TEMPO 0918/1001 P6SM -SHRA FM100300 10008KT
                       P6SM SCT060 FM101000 10008KT P6SM BKN070
                       RMK NXT FCST BY 091800Z=
202406091740 TAF CYOD 091740Z 0918/1018 12005KT P6SM FEW030 BKN060 OVC100
                      TEMPO 0918/1001 P6SM -SHRA BKN030 OVC060
                       FM100300 10008KT P6SM SCT060 FM101000 12008KT
                       P6SM BKN070 FM101300 15010KT P6SM SCT040
                       OVC070
                      TEMPO 1013/1018 P6SM -SHRA BKN040 OVC070
                       RMK NXT FCST BY 092100Z=
202406092046 TAF CYOD 092046Z 0921/1018 12008KT P6SM FEW030 BKN060 OVC100
                      TEMPO 0921/1001 P6SM -SHRA BKN030 OVC060
                       FM100300 10008KT P6SM SCT060 FM101000 12008KT
                       P6SM BKN070 FM101300 15010KT P6SM SCT040
                       OVC070
                      TEMPO 1013/1018 P6SM -SHRA BKN040 OVC070
                       RMK NXT FCST BY 100000Z=
202406092340 TAF CYOD 092340Z 1000/1024 14008KT P6SM FEW030 BKN060 BKN080 FM100300
                       12008KT P6SM SCT060 BKN080 FM101000 12008KT
                       P6SM BKN070 FM101300 15010KT P6SM SCT040
                       OVC070
                      TEMPO 1013/1024 P6SM -SHRA BKN040 OVC070
                       RMK NXT FCST BY 100300Z=
202406100240 TAF CYOD 100240Z 1003/1024 13005KT P6SM BKN070
                      BECMG 1011/1013 15010KT FM101300 15010KT
                       P6SM SCT040 OVC070
                      TEMPO 1013/1024 P6SM -SHRA BKN040 OVC070
                       RMK NXT FCST BY 100600Z=
202406100540 TAF CYOD 100540Z 1006/1106 13005KT P6SM BKN060
                      TEMPO 1006/1013 P6SM -SHRA
                      BECMG 1011/1013 15010KT FM101300 15010KT
                       P6SM SCT040 OVC060
                      TEMPO 1013/1021 P6SM -SHRA BKN040 OVC060
                       FM102100 31010KT P6SM BKN070
                      BECMG 1102/1104 30005KT RMK NXT FCST BY 101200Z=
202406101141 TAF CYOD 101141Z 1012/1112 12010KT P6SM BKN010
                      TEMPO 1012/1016 P6SM -SHRA BKN050 OVC100
                       BECMG 1013/1015 18008G18KT FM101600 18008G18KT
                       P6SM SCT020 BKN040
                      TEMPO 1016/1022 P6SM -SHRA BKN020 OVC040
                       BECMG 1019/1021 31010KT FM102200 31010KT
                       P6SM BKN040
                      TEMPO 1022/1024 P6SM -SHRA
                      BECMG 1102/1104 29005KT RMK NXT FCST BY 101500Z=
202406101440 TAF CYOD 101440Z 1015/1112 13010KT P6SM BKN120
                      TEMPO 1015/1016 P6SM -SHRA BKN050 OVC120
                       FM101600 16008G18KT P6SM SCT020 BKN040
                      TEMPO 1016/1022 P6SM -SHRA BKN020 OVC040
                       BECMG 1019/1021 31010KT FM102200 31010KT
                       P6SM BKN040
                      TEMPO 1022/1024 P6SM -SHRA
                      BECMG 1102/1104 29005KT RMK NXT FCST BY 101800Z=
202406101740 TAF CYOD 101740Z 1018/1118 20008G18KT P6SM SCT020 BKN070
                      TEMPO 1018/1022 P6SM -SHRA BKN020 OVC070
                       BECMG 1019/1021 31010KT FM102200 31010KT
                       P6SM SCT020 BKN040
                      TEMPO 1022/1024 P6SM -SHRA
                      BECMG 1102/1104 29005KT FM110400 29005KT
                       P6SM BKN050 RMK NXT FCST BY 102100Z=
202406102040 TAF CYOD 102040Z 1021/1118 26005KT P6SM OVC040
                      TEMPO 1021/1022 P6SM -SHRA FM102200 31010KT
                       P6SM SCT020 BKN040
                      TEMPO 1022/1024 P6SM -SHRA
                      BECMG 1102/1104 29005KT FM110400 29005KT
                       P6SM BKN050 RMK NXT FCST BY 110000Z=
202406102340 TAF CYOD 102340Z 1100/1124 VRB03KT P6SM SCT030 OVC060 FM110400
                       VRB03KT P6SM BKN050
                      TEMPO 1108/1112 P6SM -SHRA
                      BECMG 1112/1114 SCT050 FM111500 VRB03KT P6SM
                       SCT050 BKN070
                      BECMG 1121/1123 09008KT RMK NXT FCST BY 110300Z=
202406110240 TAF CYOD 110240Z 1103/1124 31008KT P6SM SCT040 BKN070 BKN250
                      BECMG 1104/1106 VRB03KT FM110600 VRB03KT
                       P6SM BKN050
                      TEMPO 1108/1112 P6SM -SHRA
                      BECMG 1112/1114 SCT050 FM111500 VRB03KT P6SM
                       SCT050 BKN070
                      BECMG 1121/1123 09008KT RMK NXT FCST BY 110600Z=
202406110540 TAF CYOD 110540Z 1106/1206 VRB03KT P6SM BKN060 BKN130 BKN180
                      TEMPO 1108/1112 P6SM -SHRA
                      BECMG 1112/1114 SCT050 FM111500 VRB03KT P6SM
                       BKN080
                      BECMG 1121/1123 09008KT FM120300 09008KT
                       P6SM BKN030 OVC050 RMK NXT FCST BY 111200Z=
202406111140 TAF CYOD 111140Z 1112/1212 26005KT P6SM BKN060 BKN130 BKN180
                      TEMPO 1112/1113 P6SM -RA BKN050 OVC070 FM111600
                       29005KT P6SM FEW050 SCT080
                      BECMG 1121/1123 09008KT FM120000 09008KT
                       P6SM SCT060 BKN100 BKN250 FM120500 16006KT
                       P6SM -SHRA FEW030 BKN050 OVC080 FM120900
                       19005KT 6SM -SHRA BR FEW015 OVC025
                      BECMG 1210/1212 27008KT RMK NXT FCST BY 111500Z=
202406111440 TAF CYOD 111440Z 1115/1212 24005KT P6SM BKN050 FM111600 29005KT
                       P6SM FEW050 SCT080
                      BECMG 1121/1123 09008KT FM120000 09008KT
                       P6SM SCT060 BKN100 BKN250 FM120500 16006KT
                       P6SM -SHRA FEW030 BKN050 OVC080 FM120900
                       19005KT 6SM -SHRA BR FEW015 OVC025
                      BECMG 1210/1212 27008KT RMK NXT FCST BY 111800Z=
202406111740 TAF CYOD 111740Z 1118/1218 VRB03KT P6SM FEW050 FEW250
                      BECMG 1121/1123 09008KT FM112300 09008KT
                       P6SM SCT060 BKN100 BKN250 FM120400 VRB03KT
                       P6SM -SHRA FEW030 BKN050 OVC080 FM120800
                       19005KT 6SM -RA BR SCT010 OVC025 FM121600
                       32005KT P6SM -RA SCT020 OVC060 RMK NXT FCST
                       BY 112100Z=
202406112040 TAF CYOD 112040Z 1121/1218 23005KT P6SM SCT040 BKN250
                      BECMG 1121/1123 09008KT FM112300 09008KT
                       P6SM SCT060 BKN100 BKN250 FM120400 VRB03KT
                       P6SM -SHRA FEW030 BKN050 OVC080 FM120800
                       19005KT 6SM -RA BR SCT010 OVC025 FM121600
                       32005KT P6SM -RA SCT020 OVC060 RMK NXT FCST
                       BY 120000Z=
202406112340 TAF CYOD 112340Z 1200/1224 06010KT P6SM SCT060 BKN250 FM120500
                       VRB03KT P6SM -SHRA FEW030 BKN060 OVC100
                       FM120800 19005KT 6SM -SHRA BR SCT010 OVC025
                       TEMPO 1208/1219 P6SM RA SCT025 OVC060 FM121900
                       32005KT P6SM -SHRA SCT020 OVC060 RMK NXT
                       FCST BY 120300Z=
202406120240 TAF CYOD 120240Z 1203/1224 09010KT P6SM SCT060 SCT100 BKN250 FM120500
                       VRB03KT P6SM -SHRA FEW030 BKN060 OVC100
                       FM120800 19005KT 6SM -SHRA BR SCT010 OVC025
                       TEMPO 1208/1219 P6SM RA SCT025 OVC060 FM121900
                       32005KT P6SM -SHRA SCT020 OVC060 RMK NXT
                       FCST BY 120600Z=
202406120540 TAF CYOD 120540Z 1206/1306 27005KT P6SM -RA FEW030 OVC060
                      TEMPO 1206/1212 5SM -SHRA BR SCT015 OVC030
                       FM121200 29005KT P6SM -RA SCT015 BKN030
                       OVC060
                      TEMPO 1212/1219 5SM -SHRA BR BKN015 OVC030
                       BECMG 1216/1218 03008KT FM121900 02008KT
                       P6SM -SHRA SCT020 OVC060 FM130200 32005KT
                       P6SM -SHRA BKN060 OVC100 RMK NXT FCST BY
                       121200Z=
202406120938 TAF AMD CYOD 120938Z 1209/1306 VRB03KT 3SM -SHRA BR BKN006 OVC020
                       TEMPO 1209/1212 P6SM -RA SCT006 BKN020 OVC060
                       FM121200 29005KT P6SM -RA SCT010 BKN030
                       OVC060
                      TEMPO 1212/1219 5SM -SHRA BR SCT006 BKN010
                       OVC030
                      BECMG 1216/1218 03008KT FM121900 02008KT
                       P6SM -SHRA SCT020 OVC060 FM130200 32005KT
                       P6SM -SHRA BKN060 OVC100 RMK NXT FCST BY
                       121200Z=
202406121036 TAF AMD CYOD 121036Z 1210/1306 VRB03KT 3SM -SHRA BR BKN004 OVC020
                       TEMPO 1210/1212 P6SM -RA SCT004 BKN020 OVC060
                       FM121200 29005KT P6SM -RA SCT010 BKN030
                       OVC060
                      TEMPO 1212/1219 5SM -SHRA BR SCT006 BKN010
                       OVC030
                      BECMG 1216/1218 03008KT FM121900 02008KT
                       P6SM -SHRA SCT020 OVC060 FM130200 32005KT
                       P6SM -SHRA BKN060 OVC100 RMK NXT FCST BY
                       121200Z=
202406121140 TAF CYOD 121140Z 1212/1312 VRB03KT 2SM -RA -DZ BR OVC005
                      TEMPO 1212/1215 6SM BR SCT005 OVC015 FM121500
                       29005KT 5SM -RA -DZ BR BKN006 OVC015
                      TEMPO 1215/1219 P6SM -SHRA SCT015 OVC025
                       FM121900 29012KT P6SM -SHRA SCT020 OVC060
                       PROB30 1222/1302 VRB15G25KT 3SM -TSRA BR
                       BKN020CB OVC060 FM130400 32005KT 6SM -SHRA
                       BR FEW008 BKN060 OVC100 RMK NXT FCST BY
                       121500Z=
202406121307 TAF AMD CYOD 121307Z 1213/1312 VRB03KT 2SM -RA -DZ BR OVC003
                      TEMPO 1213/1215 5SM BR SCT003 OVC015 FM121500
                       29005KT 5SM -RA -DZ BR FEW004 BKN006 OVC015
                       TEMPO 1215/1219 P6SM -SHRA SCT015 OVC025
                       FM121900 29012KT P6SM -SHRA SCT020 OVC060
                       PROB30 1222/1302 VRB15G25KT 3SM -TSRA BR
                       BKN020CB OVC060 FM130400 32005KT 6SM -SHRA
                       BR FEW008 BKN060 OVC100 RMK NXT FCST BY
                       121500Z=
202406121410 TAF AMD CYOD 121410Z 1214/1312 VRB03KT 3/4SM -RA -DZ BR OVC003
                       TEMPO 1214/1215 2SM BR SCT003 OVC015 FM121500
                       29005KT 5SM -RA -DZ BR FEW004 BKN006 OVC015
                       TEMPO 1215/1219 P6SM -SHRA SCT015 OVC025
                       FM121900 29012KT P6SM -SHRA SCT020 OVC060
                       PROB30 1222/1302 VRB15G25KT 3SM -TSRA BR
                       BKN020CB OVC060 FM130400 32005KT 6SM -SHRA
                       BR FEW008 BKN060 OVC100 RMK NXT FCST BY
                       121500Z=
202406121440 TAF CYOD 121440Z 1215/1312 30005KT 3/4SM -RA -DZ BR OVC003
                      TEMPO 1215/1217 3SM BR SCT003 OVC015 FM121700
                       29005KT 5SM -RA BR FEW003 BKN006 OVC015
                       TEMPO 1217/1219 P6SM -SHRA SCT015 OVC020
                       FM121900 29012KT P6SM -SHRA SCT020 OVC030
                       PROB30 1222/1302 VRB15G25KT 3SM -TSRA BR
                       BKN020CB OVC060 FM130400 32005KT 6SM -SHRA
                       BR FEW008 BKN060 OVC100 RMK NXT FCST BY
                       121800Z=
202406121706 TAF AMD CYOD 121706Z 1217/1312 05005KT 1SM -SHRA BR OVC004
                      TEMPO 1217/1219 3SM -SHRA BR SCT003 OVC015
                       FM121900 29012KT P6SM -SHRA SCT020 OVC030
                       PROB30 1222/1302 VRB15G25KT 3SM -TSRA BR
                       BKN020CB OVC060 FM130400 32005KT 6SM -SHRA
                       BR FEW008 BKN060 OVC100 RMK NXT FCST BY
                       121800Z=
202406121740 TAF CYOD 121740Z 1218/1318 03006KT 2SM -SHRA BR BKN005 OVC015
                      TEMPO 1218/1221 6SM -SHRA BR SCT005 OVC015
                       FM122100 02008KT P6SM SCT012 BKN030 OVC080
                       TEMPO 1221/1304 5SM -SHRA SCT006 BKN012
                       OVC030
                      PROB30 1222/1302 VRB15G25KT 3SM -TSRA BR
                       OVC012CB FM130400 30005KT 6SM -SHRA BR SCT008
                       BKN060 OVC100 FM130900 26005KT 6SM -SHRA
                       BR BKN008 BKN012
                      PROB30 1309/1318 1SM BR OVC004 RMK NXT FCST
                       BY 122100Z=
202406121936 TAF AMD CYOD 121936Z 1219/1318 02008KT P6SM SCT015 BKN030 OVC080
                       TEMPO 1219/1304 5SM -SHRA FEW006 BKN015
                       OVC030
                      PROB30 1222/1302 VRB15G25KT 3SM -TSRA BR
                       OVC012CB FM130400 30005KT 6SM -SHRA BR SCT008
                       BKN060 OVC100 FM130900 26005KT 6SM -SHRA
                       BR BKN008 BKN012
                      PROB30 1309/1318 1SM BR OVC004 RMK NXT FCST
                       BY 122100Z=
202406122042 TAF CYOD 122042Z 1221/1318 02008KT P6SM SCT020 BKN030 OVC080
                      TEMPO 1221/1304 5SM -SHRA BKN020 OVC030
                      PROB30 1222/1302 VRB15G25KT 3SM -TSRA BR
                       OVC015CB FM130400 30005KT 6SM -SHRA BR SCT008
                       BKN060 OVC100 FM130900 26005KT 6SM -SHRA
                       BR BKN008 BKN012
                      PROB30 1309/1318 1SM BR OVC004 RMK NXT FCST
                       BY 130000Z=
202406122340 TAF CYOD 122340Z 1300/1324 36010KT P6SM FEW030 SCT070 OVC110
                      TEMPO 1300/1303 6SM -SHRA BR SCT015 OVC030
                       PROB30 1300/1303 VRB15G30KT 2SM TSRA BR
                       SCT008 BKN015 OVC030CB FM130300 33005KT
                       P6SM -RA SCT015 BKN040 OVC070
                      TEMPO 1303/1311 3SM -RA -DZ BR FEW008 BKN015
                       OVC040 FM131100 VRB03KT 5SM -RA -DZ BR SCT008
                       BKN015 OVC040
                      TEMPO 1311/1319 1SM -RA DZ BR SCT004 OVC008
                       PROB30 1311/1317 1/2SM -DZ FG VV004 FM131900
                       27012KT P6SM -SHRA SCT020 BKN040 OVC080
                       FM132200 27010KT P6SM BKN030 RMK NXT FCST
                       BY 130300Z=
202406130247 TAF CYOD 130247Z 1303/1324 34005KT P6SM -RA FEW015 BKN040 OVC070
                       TEMPO 1303/1311 3SM -RA -DZ BR FEW008 BKN015
                       OVC040 FM131100 VRB03KT 5SM -RA -DZ BR SCT008
                       BKN015 OVC040
                      TEMPO 1311/1319 1SM -RA DZ BR SCT004 OVC008
                       PROB30 1311/1317 1/2SM -DZ FG VV004 FM131900
                       27012KT P6SM -SHRA SCT020 BKN040 OVC080
                       FM132200 27010KT P6SM BKN030 RMK NXT FCST
                       BY 130600Z=
202406130540 TAF CYOD 130540Z 1306/1406 27008KT P6SM BKN050 OVC080
                      TEMPO 1306/1307 P6SM -RA FEW020 OVC050 FM130700
                       27005KT P6SM FEW015 OVC050
                      TEMPO 1307/1311 3SM -RA -DZ BR FEW008 BKN015
                       OVC040
                      PROB30 1309/1311 2SM BR FEW004 OVC008 FM131100
                       VRB03KT 5SM -RA -DZ BR SCT008 BKN015 OVC040
                       TEMPO 1311/1315 1 1/2SM -RA DZ BR SCT004
                       OVC008
                      PROB40 1311/1315 1/2SM -DZ FG VV004 FM131500
                       29005KT P6SM SCT008 BKN015 OVC030
                      TEMPO 1315/1319 3SM -RA -DZ BR BKN008 OVC015
                       FM131900 27012KT P6SM -SHRA SCT020 BKN040
                       OVC080 FM132200 27010KT P6SM BKN030 FM140200
                       VRB03KT P6SM FEW030 RMK NXT FCST BY 131200Z=
202406131116 TAF AMD CYOD 131116Z 1311/1406 VRB03KT 5SM -RA -DZ BR FEW008 SCT015
                       OVC040
                      TEMPO 1311/1315 1 1/2SM -RA DZ BR SCT008
                       OVC015
                      PROB40 1311/1315 BKN008 FM131500 29005KT
                       P6SM SCT008 BKN015 OVC030
                      TEMPO 1315/1319 3SM -RA -DZ BR BKN008 OVC015
                       FM131900 27012KT P6SM -SHRA SCT020 BKN040
                       OVC080 FM132200 27010KT P6SM BKN030 FM140200
                       VRB03KT P6SM FEW030 RMK NXT FCST BY 131200Z=
202406131127 TAF AMD CYOD 131127Z 1311/1406 VRB03KT 5SM BR FEW008 SCT015 OVC040
                       TEMPO 1311/1315 1 1/2SM -RA DZ BR SCT008
                       OVC015
                      PROB40 1311/1315 BKN008 FM131500 29005KT
                       P6SM SCT008 BKN015 OVC030
                      TEMPO 1315/1319 3SM -RA -DZ BR BKN008 OVC015
                       FM131900 27012KT P6SM -SHRA SCT020 BKN040
                       OVC080 FM132200 27010KT P6SM BKN030 FM140200
                       VRB03KT P6SM FEW030 RMK NXT FCST BY 131200Z=
202406131140 TAF CYOD 131140Z 1312/1412 VRB03KT 5SM -RA -DZ BR FEW008 SCT015
                       OVC040
                      TEMPO 1312/1315 1 1/2SM -RA DZ BR SCT008
                       OVC015
                      PROB40 1312/1315 BKN008 FM131500 29005KT
                       P6SM SCT008 BKN015 OVC030
                      TEMPO 1315/1319 3SM -RA -DZ BR BKN008 OVC015
                       FM131900 27012KT P6SM -SHRA SCT020 BKN040
                       OVC080
                      TEMPO 1319/1322 BKN020 OVC040 FM132200 27010KT
                       P6SM BKN030 FM140200 VRB03KT P6SM FEW030
                       SCT240 FM140800 VRB03KT 1/2SM FG SCT240
                       RMK NXT FCST BY 131500Z=
202406131205 TAF AMD CYOD 131205Z 1312/1412 VRB03KT 5SM BR FEW008 SCT015 OVC040
                       TEMPO 1312/1315 1 1/2SM -RA DZ BR SCT008
                       OVC015
                      PROB40 1312/1315 BKN008 FM131500 29005KT
                       P6SM SCT008 BKN015 OVC030
                      TEMPO 1315/1319 3SM -RA -DZ BR BKN008 OVC015
                       FM131900 27012KT P6SM -SHRA SCT020 BKN040
                       OVC080
                      TEMPO 1319/1322 BKN020 OVC040 FM132200 27010KT
                       P6SM BKN030 FM140200 VRB03KT P6SM FEW030
                       SCT240 FM140800 VRB03KT 1/2SM FG SCT240
                       RMK NXT FCST BY 131500Z=
202406131310 TAF AMD CYOD 131310Z 1313/1412 26005KT 6SM BR FEW006 SCT015 OVC040
                       TEMPO 1313/1319 3SM -SHRA BR SCT006 OVC015
                       PROB40 1313/1319 BKN006 FM131900 27012KT
                       P6SM -SHRA SCT020 BKN040 OVC080
                      TEMPO 1319/1322 BKN020 OVC040 FM132200 27010KT
                       P6SM BKN030 FM140200 VRB03KT P6SM FEW030
                       SCT240 FM140800 VRB03KT 1/2SM FG SCT240
                       RMK NXT FCST BY 131500Z=
202406131340 TAF AMD CYOD 131340Z 1313/1412 26005KT 3SM -SHRA BR BKN006
                      TEMPO 1313/1319 6SM BR FEW006 BKN015 OVC040
                       FM131900 27012KT P6SM -SHRA SCT020 BKN040
                       OVC080
                      TEMPO 1319/1322 BKN020 OVC040 FM132200 27010KT
                       P6SM BKN030 FM140200 VRB03KT P6SM FEW030
                       SCT240 FM140800 VRB03KT 1/2SM FG SCT240
                       RMK NXT FCST BY 131500Z=
202406131440 TAF CYOD 131440Z 1315/1412 28008KT 3SM -SHRA BR OVC006
                      TEMPO 1315/1319 6SM BR SCT006 BKN015 OVC040
                       FM131900 27012KT P6SM -SHRA SCT020 BKN040
                       OVC080
                      TEMPO 1319/1322 BKN020 OVC040 FM132200 27010KT
                       P6SM BKN030 FM140200 VRB03KT P6SM FEW030
                       SCT240 FM140800 VRB03KT 1/2SM FG SCT240
                       RMK NXT FCST BY 131800Z=
202406131740 TAF CYOD 131740Z 1318/1418 28008KT P6SM -SHRA OVC010
                      TEMPO 1318/1320 P6SM NSW SCT010 BKN020 OVC060
                       FM132000 27010KT P6SM SCT020 BKN060 OVC080
                       TEMPO 1320/1322 P6SM -SHRA BKN020 OVC060
                       FM132200 27010KT P6SM BKN030 FM140200 VRB03KT
                       P6SM FEW030 SCT240 FM140800 VRB03KT 1/2SM
                       FG SCT240 FM141300 08005KT P6SM SCT100 SCT240
                       FM141600 09008KT P6SM -SHRA OVC080 RMK NXT
                       FCST BY 132100Z=
202406131905 TAF AMD CYOD 131905Z 1319/1418 27010KT P6SM SCT020 BKN040 OVC080
                       TEMPO 1319/1322 P6SM -SHRA BKN020 OVC040
                       FM132200 27010KT P6SM BKN040 FM140200 VRB03KT
                       P6SM FEW040 SCT240 FM140800 VRB03KT 1/2SM
                       FG SCT240 FM141300 08005KT P6SM SCT100 SCT240
                       FM141600 09008KT P6SM -SHRA OVC080 RMK NXT
                       FCST BY 132100Z=
202406132040 TAF CYOD 132040Z 1321/1418 30010KT P6SM BKN030 BKN240
                      BECMG 1322/1324 28005KT FM140200 VRB03KT
                       P6SM FEW040 SCT240 FM140800 VRB03KT 1/2SM
                       FG SCT240 FM141300 08005KT P6SM SCT100 SCT240
                       FM141600 09008KT P6SM -SHRA OVC080 RMK NXT
                       FCST BY 140000Z=
202406132340 TAF CYOD 132340Z 1400/1424 28008KT P6SM BKN025 OVC050 FM140200
                       30005KT P6SM FEW050 FEW240
                      BECMG 1403/1405 VRB03KT FM140800 VRB03KT
                       2SM BR SCT240
                      TEMPO 1408/1413 6SM BR
                      PROB40 1408/1413 1/2SM FG FM141300 08005KT
                       P6SM SCT100 BKN240 FM141600 09008KT P6SM
                       -SHRA OVC080 RMK NXT FCST BY 140300Z=
202406140240 TAF CYOD 140240Z 1403/1424 28005KT P6SM FEW050 FEW250
                      BECMG 1403/1405 VRB03KT FM140800 VRB03KT
                       2SM BR SCT240
                      TEMPO 1408/1413 6SM BR
                      PROB40 1408/1413 1/2SM FG FM141300 08005KT
                       P6SM SCT100 BKN240 FM141600 09008KT P6SM
                       -SHRA OVC080 RMK NXT FCST BY 140600Z=
202406140540 TAF CYOD 140540Z 1406/1506 VRB03KT P6SM FEW080 SCT240 FM140800
                       VRB03KT P6SM SCT240
                      TEMPO 1408/1413 2SM BR
                      PROB40 1408/1413 1/2SM FG FM141300 08005KT
                       P6SM SCT100 BKN200 FM141600 09008KT P6SM
                       -SHRA OVC080 FM142300 07010G20KT P6SM SCT080
                       BKN160 FM150300 07010KT P6SM -SHRA BKN040
                       OVC080 RMK NXT FCST BY 141200Z=
202406141140 TAF CYOD 141140Z 1412/1512 VRB03KT P6SM SCT240
                      TEMPO 1412/1413 2SM BR
                      PROB40 1412/1413 1/2SM FG FM141300 09005KT
                       P6SM SCT160 BKN200 FM141600 10008KT P6SM
                       -SHRA OVC080 FM142300 12010G20KT P6SM SCT080
                       BKN130 FM150300 10008KT P6SM -SHRA BKN040
                       OVC080 FM150800 VRB03KT 2SM BR BKN020 RMK
                       NXT FCST BY 141500Z=
202406141440 TAF CYOD 141440Z 1415/1512 VRB03KT P6SM BKN130 BKN200 FM141600
                       12008KT P6SM -SHRA OVC080
                      PROB30 1420/1423 VRB15G25KT 4SM -TSRA BR
                       BKN060CB FM142300 12010G20KT P6SM SCT080
                       BKN130
                      PROB30 1423/1503 VRB15G25KT 4SM -TSRA BR
                       BKN060CB FM150300 10008KT P6SM -SHRA BKN040
                       OVC080 FM150800 VRB03KT 2SM BR BKN020 RMK
                       NXT FCST BY 141800Z=
202406141740 TAF CYOD 141740Z 1418/1518 12008KT P6SM -SHRA FEW030 BKN090 OVC180
                       PROB30 1420/1423 VRB15G25KT 4SM -TSRA BR
                       BKN030CB FM142300 12010G20KT P6SM FEW030
                       SCT090 BKN130
                      PROB30 1423/1503 VRB15G25KT 4SM -TSRA BR
                       BKN030CB FM150300 10008KT P6SM -SHRA SCT020
                       BKN040 OVC080 FM150800 VRB03KT 2SM BR SCT010
                       SCT025 BKN040 FM151200 21005KT P6SM BKN010
                       OVC020 FM151600 24008KT P6SM BKN020 BKN240
                       RMK NXT FCST BY 142100Z=
202406141907 TAF AMD CYOD 141907Z 1419/1518 17008KT P6SM -SHRA FEW030 BKN070
                       OVC180
                      TEMPO 1419/1420 VRB15G25KT 3SM TSRA BR BKN030
                       OVC070 FM142000 17008KT P6SM -SHRA FEW030
                       BKN070 OVC180
                      PROB30 1420/1423 VRB15G25KT 4SM -TSRA BR
                       BKN030CB FM142300 12010G20KT P6SM FEW030
                       SCT090 BKN130
                      PROB30 1423/1503 VRB15G25KT 4SM -TSRA BR
                       BKN030CB FM150300 10008KT P6SM -SHRA SCT020
                       BKN040 OVC080 FM150800 VRB03KT 2SM BR SCT010
                       SCT025 BKN040 FM151200 21005KT P6SM BKN010
                       OVC020 FM151600 24008KT P6SM BKN020 BKN240
                       RMK NXT FCST BY 142100Z=
202406142040 TAF CYOD 142040Z 1421/1518 08008KT P6SM -SHRA FEW030 OVC070
                      PROB30 1421/1423 VRB15G25KT 4SM -TSRA BR
                       BKN030CB FM142300 09010G20KT P6SM FEW030
                       BKN070 BKN130
                      PROB30 1423/1503 VRB15G25KT 4SM -TSRA BR
                       BKN030CB FM150300 07008KT P6SM -SHRA SCT020
                       BKN030 OVC070 FM150800 VRB03KT 2SM BR SCT010
                       BKN020 BKN040 FM151200 21005KT P6SM BKN010
                       OVC020 FM151600 24008KT P6SM BKN020 BKN240
                       RMK NXT FCST BY 150000Z=
202406142340 TAF CYOD 142340Z 1500/1524 06012KT P6SM FEW030 BKN070 OVC120
                      PROB30 1500/1503 VRB15G25KT 4SM -TSRA BR
                       BKN030CB FM150300 07008KT P6SM -SHRA SCT020
                       BKN040 OVC070
                      PROB30 1503/1506 VRB15G25KT 4SM -TSRA BR
                       BKN020CB FM150800 VRB03KT 2SM BR SCT008
                       OVC015 FM151300 21005KT 6SM BR BKN010 OVC020
                       FM151600 28010KT P6SM BKN020 BKN240 FM151900
                       28010KT P6SM FEW030 BKN200 RMK NXT FCST
                       BY 150300Z=
202406150240 TAF CYOD 150240Z 1503/1524 05008KT P6SM -SHRA SCT020 BKN040 OVC070
                       PROB40 1503/1506 VRB15G25KT 4SM -TSRA BR
                       BKN020CB FM150800 VRB03KT 2SM BR SCT008
                       OVC015 FM151300 21005KT 6SM BR BKN010 OVC020
                       FM151600 28010KT P6SM BKN020 BKN240 FM151900
                       28010KT P6SM FEW030 BKN200 RMK NXT FCST
                       BY 150600Z=
202406150308 TAF AMD CYOD 150308Z 1503/1524 05008KT P6SM -SHRA SCT020 BKN040
                       OVC070
                      TEMPO 1503/1504 VRB15G25KT 4SM -TSRA BR BKN050CB
                       FM150800 VRB03KT 2SM BR SCT008 OVC015 FM151300
                       21005KT 6SM BR BKN010 OVC020 FM151600 28010KT
                       P6SM BKN020 BKN240 FM151900 28010KT P6SM
                       FEW030 BKN200 RMK NXT FCST BY 150600Z=
202406150353 TAF AMD CYOD 150353Z 1503/1524 09005KT P6SM -SHRA SCT020 BKN060
                       BKN100 FM150800 VRB03KT 2SM BR SCT008 OVC015
                       FM151300 21005KT 6SM BR BKN010 OVC020 FM151600
                       28010KT P6SM BKN020 BKN240 FM151900 28010KT
                       P6SM FEW030 BKN200 RMK NXT FCST BY 150600Z=
202406150540 TAF CYOD 150540Z 1506/1606 31005KT P6SM -SHRA SCT020 BKN070 BKN100
                       FM150800 27005KT P6SM SCT010 BKN050 BKN080
                       TEMPO 1508/1516 2SM BR SCT005 OVC010 FM151600
                       28010KT P6SM BKN015 BKN240 FM151900 28012KT
                       P6SM FEW030 BKN200 RMK NXT FCST BY 151200Z=
202406150934 TAF AMD CYOD 150934Z 1509/1606 VRB03KT 1/4SM FG SKC
                      TEMPO 1509/1513 2SM BR
                      BECMG 1513/1515 P6SM NSW FEW005 FEW240 FM151600
                       28010KT P6SM FEW015 BKN240 FM151900 28012KT
                       P6SM FEW030 BKN200 RMK NXT FCST BY 151200Z=
202406151140 TAF CYOD 151140Z 1512/1612 25005KT 1/4SM FG VV002
                      TEMPO 1512/1514 2SM BR
                      BECMG 1514/1516 P6SM NSW FEW005 FEW240 FM151600
                       28010KT P6SM FEW015 SCT240 FM151900 28012KT
                       P6SM SCT030 BKN200
                      TEMPO 1519/1524 BKN030 FM160800 30008KT P6SM
                       -SHRA BKN020 OVC150
                      BECMG 1608/1610 33012G22KT RMK NXT FCST BY
                       151500Z=
202406151349 TAF AMD CYOD 151349Z 1513/1612 25010KT 6SM BR BKN006
                      TEMPO 1513/1516 P6SM NSW SCT006 BKN012 FM151600
                       28010KT P6SM BKN015
                      BECMG 1516/1518 SCT015 SCT240 FM151900 28012KT
                       P6SM SCT030 BKN200
                      TEMPO 1519/1524 BKN030 FM160800 30008KT P6SM
                       -SHRA BKN020 OVC150
                      BECMG 1608/1610 33012G22KT RMK NXT FCST BY
                       151500Z=
202406151440 TAF CYOD 151440Z 1515/1612 25010KT 6SM BR BKN006 OVC010
                      TEMPO 1515/1516 P6SM NSW SCT006 BKN012 FM151600
                       27010KT P6SM BKN015
                      BECMG 1516/1518 SCT015 SCT240 FM151900 28012KT
                       P6SM SCT030 BKN200
                      TEMPO 1519/1524 BKN030 FM160800 30008KT P6SM
                       -SHRA BKN020 OVC150
                      BECMG 1608/1610 33012G22KT RMK NXT FCST BY
                       151800Z=
202406151543 TAF AMD CYOD 151543Z 1515/1612 25010KT P6SM BKN015
                      TEMPO 1515/1516 SCT015 BKN025
                      BECMG 1516/1517 SCT015 SCT030 FM151900 28012KT
                       P6SM SCT040 BKN200
                      TEMPO 1519/1524 BKN040 FM160800 30008KT P6SM
                       -SHRA BKN020 OVC150
                      BECMG 1608/1610 33012G22KT RMK NXT FCST BY
                       151800Z=
202406151740 TAF CYOD 151740Z 1518/1618 25010KT P6SM FEW030 FM151900 27012KT
                       P6SM SCT040 SCT200
                      TEMPO 1519/1524 BKN040 FM160000 29008KT P6SM
                       FEW040 BKN200 FM160800 30008KT 5SM -SHRA
                       BR BKN015 OVC050
                      BECMG 1608/1610 33012G22KT FM161500 36015G25KT
                       P6SM BKN030
                      BECMG 1615/1617 36018G28KT RMK NXT FCST BY
                       152100Z=
202406152040 TAF CYOD 152040Z 1521/1618 27012KT P6SM SCT050 BKN250
                      TEMPO 1521/1524 BKN050 FM160000 29008KT P6SM
                       FEW040 BKN200 FM160800 30008KT 5SM -SHRA
                       BR BKN015 OVC050
                      BECMG 1608/1610 33012G22KT FM161500 36015G25KT
                       P6SM BKN030
                      BECMG 1615/1617 36018G28KT RMK NXT FCST BY
                       160000Z=
202406152340 TAF CYOD 152340Z 1600/1624 27008KT P6SM FEW050 BKN250 FM160800
                       30008KT 5SM -SHRA BR FEW008 BKN012 OVC050
                       BECMG 1608/1610 33012G22KT FM161200 35015G25KT
                       P6SM BKN030
                      BECMG 1614/1616 36018G32KT BKN050 FM162200
                       34015G28KT P6SM FEW050 SCT250 RMK NXT FCST
                       BY 160300Z=
202406160246 TAF CYOD 160246Z 1603/1624 27008KT P6SM FEW050 BKN250 FM160800
                       30008KT 5SM -SHRA BR FEW008 BKN012 OVC050
                       BECMG 1608/1610 33012G22KT FM161200 35015G25KT
                       P6SM BKN030
                      BECMG 1614/1616 36018G32KT BKN050 FM162200
                       34015G28KT P6SM FEW050 SCT250 RMK NXT FCST
                       BY 160600Z=
202406160540 TAF CYOD 160540Z 1606/1706 27008KT P6SM BKN060 BKN180 FM160900
                       30008KT P6SM SCT012 BKN050
                      TEMPO 1609/1611 5SM -SHRA BR FEW008 BKN012
                       OVC050
                      BECMG 1609/1611 33012G22KT FM161200 35015G25KT
                       P6SM BKN030
                      BECMG 1614/1616 36018G32KT BKN050 FM162200
                       34015G28KT P6SM FEW050 SCT250
                      BECMG 1701/1703 32010KT FEW080 RMK NXT FCST
                       BY 161200Z=
202406161140 TAF CYOD 161140Z 1612/1712 35015G25KT P6SM OVC025
                      TEMPO 1612/1614 6SM -SHRA BR BKN020
                      BECMG 1614/1616 36018G32KT BKN040 OVC180
                       FM162200 34015G28KT P6SM BKN050
                      TEMPO 1622/1624 SCT050 SCT250
                      BECMG 1701/1703 32010KT FM170300 32010KT
                       P6SM FEW030 SCT060
                      TEMPO 1703/1708 P6SM -SHRA BKN030
                      BECMG 1706/1708 30008KT RMK NXT FCST BY 161500Z=
202406161440 TAF CYOD 161440Z 1615/1712 35015G25KT P6SM FEW030 BKN060 BKN250
                       BECMG 1615/1617 35020G30KT FM162200 34015G28KT
                       P6SM BKN060
                      TEMPO 1622/1624 SCT060 SCT250
                      BECMG 1701/1703 32010KT FM170300 32010KT
                       P6SM FEW030 SCT060
                      TEMPO 1703/1708 P6SM -SHRA BKN030
                      BECMG 1706/1708 30008KT RMK NXT FCST BY 161800Z=
202406161740 TAF CYOD 161740Z 1618/1718 33025G35KT P6SM SCT050 SCT180 BKN210
                       TEMPO 1618/1621 BKN050 FM162100 34018G28KT
                       P6SM BKN050
                      TEMPO 1621/1624 SCT050 SCT210
                      BECMG 1621/1623 33012G22KT FM170300 32012KT
                       P6SM FEW030 SCT060
                      TEMPO 1703/1708 P6SM -SHRA SCT030 BKN060
                       BECMG 1706/1708 33008KT FM171200 33005KT
                       P6SM SCT050 SCT200
                      BECMG 1713/1715 28012KT RMK NXT FCST BY 162100Z=
202406162040 TAF CYOD 162040Z 1621/1718 33020G30KT P6SM BKN070 BKN210
                      TEMPO 1623/1703 SCT070 SCT210
                      BECMG 1623/1701 33012G22KT FM170300 32012KT
                       P6SM FEW030 SCT060
                      TEMPO 1703/1708 P6SM -SHRA SCT030 BKN060
                       BECMG 1706/1708 33008KT FM171200 33005KT
                       P6SM SCT050 SCT200
                      BECMG 1713/1715 28012KT RMK NXT FCST BY 170000Z=
202406162340 TAF CYOD 162340Z 1700/1724 31015G25KT P6SM FEW060 BKN090 BKN210
                       BECMG 1700/1702 33012G22KT FM170300 31012KT
                       P6SM FEW030 BKN060
                      TEMPO 1703/1708 P6SM -SHRA
                      BECMG 1706/1708 30008KT FM171200 30005KT
                       P6SM FEW060 SCT200
                      BECMG 1713/1715 28012KT FM172100 31012G22KT
                       P6SM BKN070 BKN180 RMK NXT FCST BY 170300Z=
202406170240 TAF CYOD 170240Z 1703/1724 32012KT P6SM FEW040 BKN080
                      TEMPO 1703/1708 P6SM -SHRA
                      BECMG 1706/1708 30008KT FM171200 28005KT
                       P6SM FEW060 SCT200
                      BECMG 1714/1716 28012KT FM172100 31012G22KT
                       P6SM BKN070 BKN180 RMK NXT FCST BY 170600Z=
202406170540 TAF CYOD 170540Z 1706/1806 31005KT P6SM OVC060
                      TEMPO 1706/1709 P6SM -SHRA FM170900 29005KT
                       P6SM SCT060 SCT240
                      BECMG 1714/1716 28012KT FM171800 31012G22KT
                       P6SM BKN070 BKN180
                      BECMG 1800/1802 31010KT FM180300 30008KT
                       P6SM SCT050 BKN070 RMK NXT FCST BY 171200Z=
202406171140 TAF CYOD 171140Z 1712/1812 26008KT P6SM SCT050
                      BECMG 1714/1716 28012KT FM171800 31012G22KT
                       P6SM BKN070 BKN180
                      BECMG 1800/1802 31010KT FM180300 30008KT
                       P6SM SCT050 BKN070
                      BECMG 1806/1808 34005KT RMK NXT FCST BY 171500Z=
202406171440 TAF CYOD 171440Z 1715/1812 26008KT P6SM FEW030 FEW110
                      BECMG 1715/1717 28012KT FM171800 31012G22KT
                       P6SM BKN070 BKN180
                      BECMG 1800/1802 31010KT FM180300 30008KT
                       P6SM SCT050 BKN070
                      BECMG 1806/1808 34005KT RMK NXT FCST BY 171800Z=
202406171740 TAF CYOD 171740Z 1718/1818 28012G22KT P6SM BKN050
                      TEMPO 1718/1722 P6SM -SHRA
                      BECMG 1800/1802 31010KT FM180300 30008KT
                       P6SM SCT050 BKN070
                      BECMG 1806/1808 34005KT FM180900 32005KT
                       P6SM BKN030 OVC050
                      BECMG 1814/1816 BKN060 RMK NXT FCST BY 172100Z=
202406172040 TAF CYOD 172040Z 1721/1818 28012G22KT P6SM BKN070
                      TEMPO 1721/1724 P6SM -SHRA
                      BECMG 1800/1802 31010KT FM180300 30008KT
                       P6SM SCT050 BKN070
                      BECMG 1806/1808 34005KT FM180900 32005KT
                       P6SM BKN030 OVC050
                      BECMG 1814/1816 BKN060 RMK NXT FCST BY 180000Z=
202406172340 TAF CYOD 172340Z 1800/1824 27012KT P6SM FEW070 SCT110
                      BECMG 1800/1802 32008KT FM180300 30008KT
                       P6SM SCT050 BKN070 FM180900 32005KT P6SM
                       BKN030 OVC050
                      BECMG 1814/1816 BKN060
                      BECMG 1820/1822 02008KT RMK NXT FCST BY 180300Z=
202406180240 TAF CYOD 180240Z 1803/1824 29008KT P6SM SCT080 FM180500 30008KT
                       P6SM SCT050 BKN080 FM180900 32005KT P6SM
                       BKN030 OVC050
                      BECMG 1814/1816 BKN060
                      BECMG 1820/1822 02008KT RMK NXT FCST BY 180600Z=
202406180540 TAF CYOD 180540Z 1806/1906 28008KT P6SM BKN140 FM180900 32005KT
                       P6SM BKN030 OVC050
                      BECMG 1814/1816 BKN060
                      BECMG 1820/1822 02008KT FM190500 VRB03KT
                       P6SM SCT060 BKN220 RMK NXT FCST BY 181200Z=
202406181123 TAF AMD CYOD 181123Z 1811/1906 32008KT P6SM SCT020 BKN090
                      TEMPO 1811/1815 BKN020 OVC080
                      BECMG 1816/1818 36012KT FM190500 VRB03KT
                       P6SM SCT060 BKN220 RMK NXT FCST BY 181200Z=
202406181140 TAF CYOD 181140Z 1812/1912 32008KT P6SM SCT020 BKN090
                      TEMPO 1812/1815 BKN015 OVC080
                      BECMG 1816/1818 36012KT FM190500 VRB03KT
                       P6SM SCT060 BKN220 RMK NXT FCST BY 181500Z=
202406181440 TAF CYOD 181440Z 1815/1912 32010KT P6SM OVC015
                      BECMG 1816/1818 SCT020 BKN080 FM181800 36012KT
                       P6SM SCT020 BKN080
                      BECMG 1901/1903 VRB03KT FM190500 VRB03KT
                       P6SM SCT060 BKN220
                      BECMG 1908/1910 10005KT RMK NXT FCST BY 181800Z=
202406181527 TAF AMD CYOD 181527Z 1815/1912 32010KT P6SM OVC015
                      TEMPO 1815/1818 SCT020 BKN080 FM181800 36012KT
                       P6SM SCT020 BKN080
                      BECMG 1901/1903 VRB03KT FM190500 VRB03KT
                       P6SM SCT060 BKN220
                      BECMG 1908/1910 10005KT RMK NXT FCST BY 181800Z=
202406181740 TAF CYOD 181740Z 1818/1918 36012KT P6SM SCT025 OVC250
                      TEMPO 1818/1824 BKN025
                      BECMG 1900/1902 VRB03KT BKN060 FM190600 VRB03KT
                       P6SM SCT060 BKN220
                      BECMG 1908/1910 10005KT FM191000 10005KT
                       P6SM SCT010 SCT080
                      PROB30 1910/1913 2SM BR OVC010 RMK NXT FCST
                       BY 182100Z=
202406182040 TAF CYOD 182040Z 1821/1918 03010KT P6SM SCT050 BKN080 BKN250
                      TEMPO 1821/1902 BKN050 OVC080 FM190600 VRB03KT
                       P6SM SCT080 BKN220
                      BECMG 1908/1910 10005KT FM191000 10005KT
                       P6SM SCT010 SCT080
                      PROB30 1910/1913 2SM BR OVC010 RMK NXT FCST
                       BY 190000Z=
202406182340 TAF CYOD 182340Z 1900/1924 32008KT P6SM SCT050 BKN080
                      TEMPO 1900/1902 P6SM -SHRA BKN050 OVC080
                       FM190200 12005KT P6SM BKN080 FM190600 VRB03KT
                       P6SM SCT080 BKN220 FM191000 VRB03KT P6SM
                       SCT010 SCT080
                      PROB30 1910/1913 2SM BR OVC010 FM191300 24005KT
                       P6SM SCT040 FM192000 22005KT P6SM BKN040
                       RMK NXT FCST BY 190300Z=
202406190240 TAF CYOD 190240Z 1903/1924 VRB03KT P6SM BKN080 OVC180 FM190600
                       VRB03KT P6SM SCT080 BKN220 FM191000 VRB03KT
                       P6SM SCT010 SCT080
                      PROB30 1910/1913 2SM BR OVC010 FM191300 24005KT
                       P6SM SCT040 FM192000 22005KT P6SM BKN040
                       RMK NXT FCST BY 190600Z=
202406190540 TAF CYOD 190540Z 1906/2006 VRB03KT P6SM SCT080 BKN250 FM191000
                       VRB03KT P6SM SCT010 SCT080
                      PROB30 1910/1913 2SM BR OVC010 FM191300 24005KT
                       P6SM SCT040 FM192000 22005KT P6SM BKN040
                       RMK NXT FCST BY 191200Z=
202406191140 TAF CYOD 191140Z 1912/2012 VRB03KT P6SM BKN080 BKN220
                      PROB30 1912/1913 2SM BR FM191500 24005KT
                       P6SM FEW050 FM192000 24008KT P6SM SCT060
                       TEMPO 1920/2003 BKN060 FM200900 VRB03KT
                       P6SM FEW060
                      PROB30 2009/2012 2SM BR RMK NXT FCST BY 191500Z=
202406191440 TAF CYOD 191440Z 1915/2012 20005KT P6SM BKN070
                      BECMG 1915/1917 FEW070 FM192000 24008KT P6SM
                       SCT060
                      TEMPO 1920/2003 BKN060 FM200900 VRB03KT P6SM
                       FEW060
                      PROB30 2009/2012 2SM BR RMK NXT FCST BY 191800Z=
202406191740 TAF CYOD 191740Z 1918/2018 20008KT P6SM FEW040 FEW070 SCT250 FM192000
                       24008KT P6SM SCT070
                      TEMPO 1920/2003 BKN070 FM200900 VRB03KT P6SM
                       FEW070
                      PROB30 2009/2012 2SM BR RMK NXT FCST BY 192100Z=
202406192040 TAF CYOD 192040Z 1921/2018 26010KT P6SM SCT070
                      TEMPO 1921/2003 BKN070
                      BECMG 2006/2008 VRB03KT FM200900 VRB03KT
                       P6SM FEW070
                      PROB30 2009/2012 2SM BR RMK NXT FCST BY 200000Z=
202406192340 TAF CYOD 192340Z 2000/2024 26010KT P6SM SCT070
                      TEMPO 2000/2003 BKN070
                      BECMG 2006/2008 VRB03KT FM200900 VRB03KT
                       P6SM FEW070
                      PROB30 2009/2012 2SM BR
                      BECMG 2020/2022 15008KT RMK NXT FCST BY 200300Z=
202406200240 TAF CYOD 200240Z 2003/2024 24008KT P6SM SCT070
                      BECMG 2006/2008 VRB03KT FM200900 VRB03KT
                       P6SM FEW070
                      PROB30 2009/2012 2SM BR
                      BECMG 2020/2022 15008KT RMK NXT FCST BY 200600Z=
202406200540 TAF CYOD 200540Z 2006/2106 24005KT P6SM SKC
                      BECMG 2006/2008 VRB03KT FM200900 VRB03KT
                       P6SM FEW070
                      PROB30 2009/2012 2SM BR
                      BECMG 2019/2021 15008KT RMK NXT FCST BY 201200Z=
202406201140 TAF CYOD 201140Z 2012/2112 VRB03KT P6SM FEW090 FM201900 16008KT
                       P6SM SCT070
                      TEMPO 2019/2024 BKN070 FM210300 12005KT P6SM
                       FEW070 RMK NXT FCST BY 201500Z=
202406201440 TAF CYOD 201440Z 2015/2112 VRB03KT P6SM FEW130 FM201900 16008KT
                       P6SM SCT070
                      TEMPO 2019/2024 BKN070 FM210300 12005KT P6SM
                       FEW070 RMK NXT FCST BY 201800Z=
202406201740 TAF CYOD 201740Z 2018/2118 16005KT P6SM FEW050 FEW110 FM201900
                       16008KT P6SM SCT070
                      TEMPO 2019/2024 BKN070 FM210300 12005KT P6SM
                       FEW070 FM211200 VRB03KT P6SM BKN080
                      BECMG 2116/2118 12008KT RMK NXT FCST BY 202100Z=
202406202040 TAF CYOD 202040Z 2021/2118 18008KT P6SM SCT070
                      TEMPO 2021/2024 BKN070 FM210300 12005KT P6SM
                       FEW070 FM211200 VRB03KT P6SM BKN080
                      BECMG 2116/2118 12008KT RMK NXT FCST BY 210000Z=
202406202340 TAF CYOD 202340Z 2100/2124 16005KT P6SM SCT080
                      TEMPO 2100/2103 BKN080 FM210300 VRB03KT P6SM
                       FEW080 FM211200 VRB03KT P6SM BKN080
                      BECMG 2116/2118 14008KT RMK NXT FCST BY 210300Z=
202406210240 TAF CYOD 210240Z 2103/2124 VRB03KT P6SM FEW080 FM211200 VRB03KT
                       P6SM BKN080
                      BECMG 2116/2118 14008KT RMK NXT FCST BY 210600Z=
202406210540 TAF CYOD 210540Z 2106/2206 VRB03KT P6SM FEW080 FM211200 VRB03KT
                       P6SM BKN080
                      BECMG 2116/2118 14008KT FM212000 13010KT
                       P6SM BKN080
                      TEMPO 2120/2202 P6SM -SHRA BKN040 OVC080
                       RMK NXT FCST BY 211200Z=
202406211140 TAF CYOD 211140Z 2112/2212 VRB03KT P6SM FEW080
                      BECMG 2115/2117 14005KT FM211800 14008KT
                       P6SM BKN080 FM212000 13010KT P6SM BKN080
                       TEMPO 2120/2204 P6SM -SHRA BKN040 OVC080
                       PROB30 2120/2204 VRB15G25KT 4SM -TSRA BR
                       BKN040CB FM220400 15005KT P6SM SCT080
                      PROB30 2204/2212 1SM BR RMK NXT FCST BY 211500Z=
202406211440 TAF CYOD 211440Z 2115/2212 VRB03KT P6SM FEW090
                      BECMG 2115/2117 13005KT FM211800 14008KT
                       P6SM BKN080 FM212000 14010KT P6SM BKN080
                       TEMPO 2120/2204 P6SM -SHRA BKN040 OVC080
                       PROB30 2120/2204 VRB15G25KT 4SM -TSRA BR
                       BKN040CB FM220400 VRB03KT P6SM SCT080
                      PROB30 2204/2212 1SM BR RMK NXT FCST BY 211800Z=
202406211740 TAF CYOD 211740Z 2118/2218 14010KT P6SM SCT070 SCT250 FM212000
                       14010KT P6SM BKN070
                      TEMPO 2120/2204 P6SM -SHRA BKN040 OVC070
                       PROB30 2120/2204 VRB15G25KT 4SM -TSRA BR
                       BKN040CB FM220400 14005KT P6SM SCT070 FM220900
                       VRB03KT P6SM FEW070
                      PROB30 2209/2214 1SM BR FM221400 VRB03KT
                       P6SM FEW070 RMK NXT FCST BY 212100Z=
202406212040 TAF CYOD 212040Z 2121/2218 12008KT P6SM SCT050 BKN080
                      TEMPO 2121/2204 P6SM -SHRA BKN050 OVC080
                       PROB30 2121/2204 VRB15G25KT 4SM -TSRA BR
                       BKN050CB FM220400 14005KT P6SM SCT080 FM220900
                       VRB03KT P6SM FEW080
                      PROB30 2209/2213 1SM BR FM221400 VRB03KT
                       P6SM FEW080 RMK NXT FCST BY 220000Z=
202406212340 TAF CYOD 212340Z 2200/2224 12008KT P6SM SCT050 BKN110
                      TEMPO 2200/2204 P6SM -SHRA BKN050 OVC080
                       PROB30 2200/2204 VRB15G25KT 4SM -TSRA BR
                       BKN050CB FM220400 14005KT P6SM SCT080 FM220900
                       VRB03KT P6SM FEW080
                      PROB30 2209/2213 1SM BR FM221400 VRB03KT
                       P6SM FEW080
                      BECMG 2216/2218 11005KT RMK NXT FCST BY 220300Z=
202406220240 TAF CYOD 220240Z 2203/2224 VRB03KT P6SM FEW130 SCT220 FM220900
                       VRB03KT P6SM FEW080
                      PROB30 2209/2213 1SM BR FM221400 VRB03KT
                       P6SM FEW080
                      BECMG 2216/2218 11005KT RMK NXT FCST BY 220600Z=
202406220540 TAF CYOD 220540Z 2206/2306 VRB03KT P6SM FEW120
                      PROB30 2209/2213 1SM BR FM221400 VRB03KT
                       P6SM FEW080
                      BECMG 2216/2218 11005KT
                      BECMG 2223/2301 15008KT RMK NXT FCST BY 221200Z=
202406221140 TAF CYOD 221140Z 2212/2312 VRB03KT P6SM FEW120 SCT220
                      PROB30 2212/2213 1SM BR FM221400 VRB03KT
                       P6SM FEW080
                      BECMG 2216/2218 11005KT
                      BECMG 2223/2301 15008KT RMK NXT FCST BY 221500Z=
202406221440 TAF CYOD 221440Z 2215/2312 VRB03KT P6SM FEW250
                      BECMG 2216/2218 11005KT
                      BECMG 2223/2301 15008KT RMK NXT FCST BY 221800Z=
202406221740 TAF CYOD 221740Z 2218/2318 21005KT P6SM FEW050 FEW250
                      BECMG 2223/2301 15008KT FM231500 16010KT
                       P6SM -SHRA BKN060 RMK NXT FCST BY 222100Z=
202406222040 TAF CYOD 222040Z 2221/2318 23005KT P6SM SCT050 BKN250
                      BECMG 2223/2301 15008KT FEW050 FM231500 16010KT
                       P6SM -SHRA BKN060 RMK NXT FCST BY 230000Z=
202406222340 TAF CYOD 222340Z 2300/2324 23005KT P6SM SCT050 BKN250
                      BECMG 2300/2301 15008KT FEW050 FM231500 16010KT
                       P6SM SCT060
                      TEMPO 2315/2324 P6SM -SHRA BKN060
                      PROB30 2319/2324 5SM TSRA BR BKN060CB RMK
                       NXT FCST BY 230300Z=
202406230240 TAF CYOD 230240Z 2303/2324 VRB03KT P6SM FEW060 FEW250 FM231500
                       16010KT P6SM SCT060
                      TEMPO 2315/2324 P6SM -SHRA BKN060
                      PROB30 2319/2324 5SM TSRA BR BKN060CB RMK
                       NXT FCST BY 230600Z=
202406230540 TAF CYOD 230540Z 2306/2406 VRB03KT P6SM FEW250 FM231500 16010KT
                       P6SM SCT060
                      TEMPO 2315/2402 P6SM -SHRA BKN060
                      PROB30 2320/2402 5SM TSRA BR BKN060CB FM240200
                       24010KT P6SM BKN120 RMK NXT FCST BY 231200Z=
202406231140 TAF CYOD 231140Z 2312/2412 13006KT P6SM FEW080 SCT180 BKN250 FM231500
                       16010G20KT P6SM FEW025 SCT060 OVC250
                      TEMPO 2315/2320 P6SM -SHRA SCT025 BKN060
                       OVC250 FM232000 18008KT P6SM BKN050 OVC250
                       TEMPO 2320/2402 P6SM -SHRA
                      PROB30 2320/2402 5SM TSRA BR BKN050CB FM240200
                       24006KT P6SM SCT060 BKN180 FM240900 26008KT
                       P6SM BKN020 BKN120 RMK NXT FCST BY 231500Z=
202406231440 TAF CYOD 231440Z 2315/2412 12008KT P6SM FEW025 BKN060 OVC090
                      TEMPO 2315/2320 P6SM -SHRA SCT025 OVC060
                       BECMG 2316/2318 15012KT FM232000 18008KT
                       P6SM BKN050 OVC250
                      TEMPO 2320/2402 P6SM -SHRA
                      PROB30 2320/2402 5SM TSRA BR BKN050CB FM240200
                       24006KT P6SM SCT060 BKN180 FM240900 26008KT
                       P6SM BKN020 BKN120 RMK NXT FCST BY 231800Z=
202406231740 TAF CYOD 231740Z 2318/2418 08012KT P6SM FEW025 BKN060 OVC090
                      TEMPO 2318/2320 P6SM -SHRA BKN025 OVC060
                       FM232000 14008KT P6SM BKN050 BKN250
                      TEMPO 2320/2402 P6SM -SHRA
                      PROB30 2320/2402 VRB15G25KT 5SM TSRA BR BKN050CB
                       BKN250 FM240200 24006KT P6SM SCT060 BKN180
                       TEMPO 2402/2409 P6SM -SHRA BKN060 OVC180
                       PROB30 2402/2409 VRB15G25KT P6SM -TSRA BKN050CB
                       BKN250 FM240900 26008KT P6SM BKN020 BKN120
                       FM241200 27010KT P6SM FEW020 OVC130 FM241500
                       28015G25KT P6SM BKN030 OVC160 RMK NXT FCST
                       BY 232100Z=
202406232040 TAF CYOD 232040Z 2321/2418 10008KT P6SM BKN050
                      TEMPO 2321/2402 P6SM -SHRA
                      PROB30 2321/2402 VRB15G25KT 5SM TSRA BR BKN050CB
                       FM240200 24006KT P6SM SCT050 BKN180
                      TEMPO 2402/2409 P6SM -SHRA BKN050 OVC180
                       PROB30 2402/2409 VRB15G25KT P6SM -TSRA BKN050CB
                       BKN250 FM240900 26008KT P6SM BKN020 BKN120
                       FM241200 27010KT P6SM FEW020 OVC130 FM241500
                       28015G25KT P6SM BKN030 OVC160 RMK NXT FCST
                       BY 240000Z=
202406232340 TAF CYOD 232340Z 2400/2424 01008KT P6SM SCT050 BKN150
                      TEMPO 2400/2402 P6SM -SHRA
                      PROB30 2400/2402 VRB20G35KT 3SM TSRA BR BKN050CB
                       FM240200 35008KT P6SM -SHRA SCT050 BKN180
                       TEMPO 2402/2404 5SM -SHRA BKN050 OVC180
                       PROB40 2402/2404 VRB20G35KT 2SM TSRA BKN050CB
                       BKN250 FM240400 27008KT P6SM SCT030 BKN050
                       TEMPO 2404/2409 P6SM -SHRA BKN030
                      PROB30 2404/2407 VRB15G25KT 3SM TSRA BR BKN015
                       BKN030CB FM240900 27010KT P6SM SCT015 BKN025
                       BKN150 FM241400 27015G25KT P6SM FEW015 BKN025
                       BKN070 FM241800 27018G28KT P6SM BKN040 BKN160
                       RMK NXT FCST BY 240300Z=
202406240240 TAF CYOD 240240Z 2403/2424 33010KT P6SM FEW050 BKN180
                      TEMPO 2403/2406 VRB20G35KT 5SM -SHRA BKN050
                       OVC180
                      PROB40 2403/2406 2SM TSRA BKN050CB BKN250
                       FM240530 28008KT P6SM SCT030 BKN050
                      TEMPO 2405/2409 P6SM -SHRA BKN030
                      PROB30 2405/2408 VRB15G25KT 3SM TSRA BR BKN015
                       BKN030CB FM240900 27010KT P6SM SCT015 BKN025
                       BKN150 FM241400 27015G25KT P6SM FEW015 BKN025
                       BKN070 FM241800 27018G28KT P6SM BKN040 BKN160
                       RMK NXT FCST BY 240600Z=
202406240253 TAF AMD CYOD 240253Z 2403/2424 33010KT P6SM FEW050 BKN180
                      TEMPO 2403/2406 VRB20G35KT 2SM TSRA BKN050CB
                       BKN250 FM240545 28008KT P6SM SCT030 BKN050
                       TEMPO 2405/2409 P6SM -SHRA BKN030
                      PROB30 2405/2408 VRB15G25KT 3SM TSRA BR BKN015
                       BKN030CB FM240900 27010KT P6SM SCT015 BKN025
                       BKN150 FM241400 27015G25KT P6SM FEW015 BKN025
                       BKN070 FM241800 27018G28KT P6SM BKN040 BKN160
                       RMK NXT FCST BY 240600Z=
202406240540 TAF CYOD 240540Z 2406/2506 28010KT P6SM SCT050 SCT150
                      TEMPO 2406/2409 P6SM -SHRA BKN050 FM240900
                       27010KT P6SM FEW015 BKN030 BKN100
                      TEMPO 2409/2414 5SM BR OVC015
                      BECMG 2412/2414 27015G25KT FM241400 27015G25KT
                       P6SM BKN030 BKN070 FM241800 27018G28KT P6SM
                       BKN040 BKN160 FM242200 27015G25KT 6SM -SHRA
                       BR FEW020 BKN030 OVC060
                      BECMG 2500/2502 29010G20KT FM250200 29010G20KT
                       4SM -SHRA BR BKN020 OVC040 RMK NXT FCST
                       BY 241200Z=
202406241140 TAF CYOD 241140Z 2412/2512 26010KT P6SM FEW025 BKN090 BKN250
                      BECMG 2412/2414 27015G25KT FM241400 27015G25KT
                       P6SM BKN025 BKN090 FM241800 27018G28KT P6SM
                       BKN040 BKN160 FM242200 27015G25KT 6SM -SHRA
                       BR FEW020 BKN030 OVC060
                      BECMG 2500/2502 29012G22KT FM250200 29012KT
                       4SM -SHRA BR BKN015 OVC040 RMK NXT FCST
                       BY 241500Z=
202406241440 TAF CYOD 241440Z 2415/2512 27012G22KT P6SM FEW040 BKN100
                      TEMPO 2415/2418 P6SM -SHRA FM241800 27015G25KT
                       P6SM BKN040 BKN160 FM242200 27012G22KT 6SM
                       -SHRA BR FEW020 BKN030 OVC060 FM250200 29010KT
                       4SM -SHRA BR BKN015 OVC040 RMK NXT FCST
                       BY 241800Z=
202406241740 TAF CYOD 241740Z 2418/2518 27015G25KT P6SM BKN030 BKN060
                      TEMPO 2418/2422 P6SM -SHRA FM242200 27012G22KT
                       P6SM SCT015 BKN030 OVC060
                      TEMPO 2422/2502 P6SM -SHRA BKN015 OVC030
                       FM250200 29010KT 4SM -SHRA BR BKN015 OVC030
                       FM251400 33008KT P6SM -SHRA FEW020 BKN050
                       OVC200 RMK NXT FCST BY 242100Z=
202406242040 TAF CYOD 242040Z 2421/2518 27012G22KT P6SM SCT015 OVC060
                      TEMPO 2421/2502 P6SM -SHRA BKN015 OVC060
                       FM250200 29010KT 4SM -SHRA BR BKN010 OVC030
                       FM251400 33008KT P6SM -SHRA FEW020 BKN050
                       OVC200 RMK NXT FCST BY 250000Z=
202406242147 TAF AMD CYOD 242147Z 2421/2518 27012G22KT P6SM SCT015 OVC060
                      TEMPO 2421/2502 4SM -SHRA BR BKN015 OVC060
                       FM250200 29010KT 4SM -SHRA BR BKN010 OVC030
                       FM251400 33008KT P6SM -SHRA FEW020 BKN050
                       OVC200 RMK NXT FCST BY 250000Z=
202406242300 TAF AMD CYOD 250157Z 2501/2524 26015G25KT 4SM -SHRA BKN012 OVC025
                       TEMPO 2501/2504 P6SM -SHRA SCT020 OVC040
                       FM250400 28010G20KT P6SM -SHRA SCT012 OVC020
                       TEMPO 2504/2514 3SM -SHRA BR SCT008 OVC012
                       FM251400 34008KT P6SM -SHRA FEW020 BKN025
                       OVC200 FM251700 03010KT P6SM BKN050 RMK
                       NXT FCST BY 250300Z=
202406242340 TAF CYOD 242340Z 2500/2524 26015G25KT 4SM -SHRA BKN015 OVC025
                      TEMPO 2500/2504 6SM -SHRA BR SCT020 OVC040
                       FM250400 28010G20KT P6SM -SHRA SCT012 OVC020
                       TEMPO 2504/2514 3SM -SHRA BR SCT008 OVC012
                       FM251400 34008KT P6SM -SHRA FEW020 BKN025
                       OVC200 FM251700 03010KT P6SM BKN050 RMK
                       NXT FCST BY 250300Z=
202406250157 TAF AMD CYOD 250157Z 2501/2524 26015G25KT 4SM -SHRA BKN012 OVC025
                       TEMPO 2501/2504 P6SM -SHRA SCT020 OVC040
                       FM250400 28010G20KT P6SM -SHRA SCT012 OVC020
                       TEMPO 2504/2514 3SM -SHRA BR SCT008 OVC012
                       FM251400 34008KT P6SM -SHRA FEW020 BKN025
                       OVC200 FM251700 03010KT P6SM BKN050 RMK
                       NXT FCST BY 250300Z=
202406250240 TAF CYOD 250240Z 2503/2524 27015G25KT 4SM -SHRA BKN012 OVC025
                      TEMPO 2503/2504 P6SM -SHRA OVC020 FM250400
                       28010G20KT P6SM -SHRA SCT012 OVC020
                      TEMPO 2504/2514 3SM -SHRA BR SCT008 OVC012
                       FM251400 34008KT P6SM -SHRA FEW020 BKN025
                       OVC200 FM251700 03010KT P6SM BKN050 RMK
                       NXT FCST BY 250600Z=
202406250448 TAF AMD CYOD 250448Z 2504/2524 28010G20KT P6SM -SHRA SCT012 OVC025
                       TEMPO 2504/2514 3SM -SHRA BR SCT008 OVC012
                       FM251400 34008KT P6SM -SHRA FEW020 BKN025
                       OVC200 FM251700 03010KT P6SM BKN050 RMK
                       NXT FCST BY 250600Z=
202406250540 TAF CYOD 250540Z 2506/2606 28010G20KT P6SM -SHRA SCT012 OVC025
                       TEMPO 2506/2514 3SM -SHRA BR SCT008 OVC012
                       BECMG 2512/2514 02008KT FM251400 02008KT
                       P6SM -SHRA FEW020 BKN025 OVC200 FM251700
                       04010KT P6SM BKN050
                      BECMG 2518/2520 33008KT RMK NXT FCST BY 251200Z=
202406251140 TAF CYOD 251140Z 2512/2612 30008KT P6SM BKN012 OVC025
                      TEMPO 2512/2517 SCT012 OVC025 FM251700 01008KT
                       P6SM FEW015 SCT240 FM252100 34008KT P6SM
                       BKN060
                      BECMG 2602/2604 VRB03KT RMK NXT FCST BY 251500Z=
202406251440 TAF CYOD 251440Z 2515/2612 02010KT P6SM SCT012 OVC030
                      TEMPO 2515/2517 P6SM -SHRA BKN012 OVC030
                       FM251700 01008KT P6SM FEW015 SCT240 FM252100
                       34008KT P6SM BKN060
                      BECMG 2602/2604 VRB03KT RMK NXT FCST BY 251800Z=
202406251740 TAF CYOD 251740Z 2518/2618 03008KT P6SM FEW025 SCT240 FM252100
                       34008KT P6SM BKN060
                      BECMG 2602/2604 VRB03KT FM261600 14005KT
                       P6SM SCT050 BKN240 RMK NXT FCST BY 252100Z=
202406252040 TAF CYOD 252040Z 2521/2618 03005KT P6SM BKN070
                      TEMPO 2521/2602 P6SM -SHRA OVC050
                      BECMG 2602/2604 VRB03KT FM261600 14005KT
                       P6SM SCT050 BKN240 RMK NXT FCST BY 260000Z=
202406252340 TAF CYOD 252340Z 2600/2624 31006KT P6SM BKN070
                      TEMPO 2600/2604 P6SM -SHRA OVC050
                      BECMG 2602/2604 VRB03KT FM260900 VRB03KT
                       P6SM SCT060 FM261400 VRB03KT P6SM SCT040
                       BKN240 FM262100 15005KT P6SM SCT050 BKN090
                       OVC200 RMK NXT FCST BY 260300Z=
202406260240 TAF CYOD 260240Z 2603/2624 VRB03KT P6SM SCT070 FM260900 VRB03KT
                       P6SM FEW040 SCT070 FM261400 VRB03KT P6SM
                       SCT040 BKN240 FM262100 15005KT P6SM SCT050
                       BKN090 OVC200 RMK NXT FCST BY 260600Z=
202406260540 TAF CYOD 260540Z 2606/2706 VRB03KT P6SM SCT070 FM260900 VRB03KT
                       P6SM FEW040 SCT070 FM261400 VRB03KT P6SM
                       SCT040 BKN080 BKN240 RMK NXT FCST BY 261200Z=
202406261140 TAF CYOD 261140Z 2612/2712 VRB03KT P6SM FEW060 FEW180 FM261400
                       VRB03KT P6SM SCT040 BKN060 BKN240
                      TEMPO 2621/2705 P6SM -SHRA BKN040 OVC060
                       RMK NXT FCST BY 261500Z=
202406261200 TAF CYOD 2606/2706 VRB03KT P6SM SCT070 FM260900 VRB03KT P6SM FEW040
                       SCT070 FM261400 VRB03KT P6SM SCT040 BKN080
                       BKN240 RMK NXT FCST BY 261200Z=
202406261440 TAF CYOD 261440Z 2615/2712 VRB03KT P6SM SCT060 BKN100 BKN210
                      TEMPO 2621/2705 P6SM -SHRA BKN060 OVC100
                       RMK NXT FCST BY 261800Z=
202406261557 TAF AMD CYOD 242147Z 2421/2518 27012G22KT P6SM SCT015 OVC060
                      TEMPO 2421/2502 4SM -SHRA BR BKN015 OVC060
                       FM250200 29010KT 4SM -SHRA BR BKN010 OVC030
                       FM251400 33008KT P6SM -SHRA FEW020 BKN050
                       OVC200 RMK NXT FCST BY 250000Z=
202406261600 TAF AMD CYOD 242147Z 2421/2518 27012G22KT P6SM SCT015 OVC060
                      TEMPO 2421/2502 4SM -SHRA BR BKN015 OVC060
                       FM250200 29010KT 4SM -SHRA BR BKN010 OVC030
                       FM251400 33008KT P6SM -SHRA FEW020 BKN050
                       OVC200 RMK NXT FCST BY 250000Z=
202406261603 TAF CYOD 242340Z 2500/2524 26015G25KT 4SM -SHRA BKN015 OVC025
                      TEMPO 2500/2504 6SM -SHRA BR SCT020 OVC040
                       FM250400 28010G20KT P6SM -SHRA SCT012 OVC020
                       TEMPO 2504/2514 3SM -SHRA BR SCT008 OVC012
                       FM251400 34008KT P6SM -SHRA FEW020 BKN025
                       OVC200 FM251700 03010KT P6SM BKN050 RMK
                       NXT FCST BY 250300Z=
202406261605 TAF CYOD 242340Z 2500/2524 26015G25KT 4SM -SHRA BKN015 OVC025
                      TEMPO 2500/2504 6SM -SHRA BR SCT020 OVC040
                       FM250400 28010G20KT P6SM -SHRA SCT012 OVC020
                       TEMPO 2504/2514 3SM -SHRA BR SCT008 OVC012
                       FM251400 34008KT P6SM -SHRA FEW020 BKN025
                       OVC200 FM251700 03010KT P6SM BKN050 RMK
                       NXT FCST BY 250300Z=
202406261740 TAF CYOD 261740Z 2618/2718 VRB03KT P6SM SCT060 BKN100 BKN210
                      TEMPO 2621/2709 P6SM -SHRA BKN060 OVC100
                       FM271600 09008KT P6SM FEW040 BKN200 RMK
                       NXT FCST BY 262100Z=
202406262040 TAF CYOD 262040Z 2621/2718 VRB03KT P6SM SCT060 BKN100 BKN210
                      TEMPO 2621/2709 P6SM -SHRA BKN060 OVC100
                       FM271600 09008KT P6SM FEW040 BKN200 RMK
                       NXT FCST BY 270000Z=
202406262340 TAF CYOD 262340Z 2700/2724 VRB03KT P6SM SCT060 BKN100 OVC200
                      TEMPO 2700/2712 P6SM -SHRA BKN050 FM271200
                       09005KT P6SM FEW060 BKN200 FM272000 11008G18KT
                       P6SM BKN040 BKN100 RMK NXT FCST BY 270300Z=
202406270240 TAF CYOD 270240Z 2703/2724 VRB03KT P6SM SCT060 BKN100
                      TEMPO 2703/2712 P6SM -SHRA FEW030 BKN050
                       FM271200 09005KT P6SM FEW060 BKN200 FM272000
                       11008G18KT P6SM BKN040 BKN100 RMK NXT FCST
                       BY 270600Z=
202406270540 TAF CYOD 270540Z 2706/2806 VRB03KT P6SM -SHRA BKN050
                      TEMPO 2706/2712 P6SM NSW SCT050 BKN100 FM271200
                       11005KT P6SM SCT080 BKN200 FM271900 09008G18KT
                       P6SM BKN040 BKN100
                      TEMPO 2719/2723 P6SM -SHRA BKN025 FM280200
                       07010KT P6SM FEW060 SCT100 FM280500 04012G22KT
                       P6SM FEW240 RMK NXT FCST BY 271200Z=
202406271140 TAF CYOD 271140Z 2712/2812 09005KT P6SM FEW050 BKN080
                      TEMPO 2712/2719 P6SM -SHRA BKN050 FM271900
                       09010KT P6SM SCT030 BKN070
                      TEMPO 2719/2723 P6SM -SHRA BKN030 FM280200
                       07010KT P6SM FEW060 SCT100 FM280500 04012G22KT
                       P6SM FEW240 RMK NXT FCST BY 271500Z=
202406271440 TAF CYOD 271440Z 2715/2812 06005KT P6SM BKN070 FM271900 09010KT
                       P6SM SCT030 BKN070
                      TEMPO 2719/2723 P6SM -SHRA BKN030 FM280200
                       07010KT P6SM FEW060 SCT100 FM280500 04012G22KT
                       P6SM FEW240 RMK NXT FCST BY 271800Z=
202406271740 TAF CYOD 271740Z 2718/2818 07010KT P6SM BKN060 OVC080
                      TEMPO 2718/2723 P6SM -SHRA BKN040 FM280200
                       05010KT P6SM SCT060 BKN200 FM280500 04012G22KT
                       P6SM FEW240 FM281300 04010KT P6SM SKC RMK
                       NXT FCST BY 272100Z=
202406272040 TAF CYOD 272040Z 2721/2818 07010KT P6SM FEW030 SCT080 OVC100
                      TEMPO 2721/2723 P6SM -SHRA SCT030 BKN080
                       FM280200 05010KT P6SM SCT060 BKN200 FM280500
                       04012G22KT P6SM FEW240 FM281300 04010KT
                       P6SM SKC RMK NXT FCST BY 280000Z=
202406272340 TAF CYOD 272340Z 2800/2824 09010KT P6SM FEW100 SCT150 OVC200 FM280500
                       04012G22KT P6SM FEW150 BKN250 FM281000 04008KT
                       P6SM SCT250
                      BECMG 2821/2823 VRB03KT SKC RMK NXT FCST
                       BY 280300Z=
202406280240 TAF CYOD 280240Z 2803/2824 09008KT P6SM FEW100 OVC250 FM280500
                       04012KT P6SM FEW150 BKN250 FM281000 04008KT
                       P6SM SCT250
                      BECMG 2821/2823 VRB03KT SKC RMK NXT FCST
                       BY 280600Z=
202406280540 TAF CYOD 280540Z 2806/2906 02012KT P6SM FEW150 BKN250 FM281000
                       03008KT P6SM SCT250
                      BECMG 2821/2823 VRB03KT SKC RMK NXT FCST
                       BY 281200Z=
202406281140 TAF CYOD 281140Z 2812/2912 03010KT P6SM BKN250 FM281700 03010KT
                       P6SM FEW060 FM290000 VRB03KT P6SM SKC RMK
                       NXT FCST BY 281500Z=
202406281440 TAF CYOD 281440Z 2815/2912 03012KT P6SM FEW060 FEW240 FM290000
                       VRB03KT P6SM SKC RMK NXT FCST BY 281800Z=
202406281740 TAF CYOD 281740Z 2818/2918 02012KT P6SM FEW050 FEW220 FM290000
                       VRB03KT P6SM SKC FM291700 17010KT P6SM FEW060
                       RMK NXT FCST BY 282100Z=
202406282040 TAF CYOD 282040Z 2821/2918 03010KT P6SM FEW050 FM290000 VRB03KT
                       P6SM SKC FM291700 17010KT P6SM FEW060 RMK
                       NXT FCST BY 290000Z=
202406282340 TAF CYOD 282340Z 2900/2924 05008KT P6SM SKC
                      BECMG 2900/2902 VRB03KT FM291700 18010KT
                       P6SM SCT060 RMK NXT FCST BY 290300Z=
202406290240 TAF CYOD 290240Z 2903/2924 VRB03KT P6SM SKC FM291700 18010KT P6SM
                       SCT060 RMK NXT FCST BY 290600Z=
202406290540 TAF CYOD 290540Z 2906/3006 VRB03KT P6SM SKC FM291700 18010KT P6SM
                       SCT060
                      BECMG 3000/3002 16008KT FEW060 RMK NXT FCST
                       BY 291200Z=
202406291140 TAF CYOD 291140Z 2912/3012 VRB03KT P6SM FEW180 FM291700 16010KT
                       P6SM SCT060 FM300200 16008KT P6SM SKC RMK
                       NXT FCST BY 291500Z=
202406291440 TAF CYOD 291440Z 2915/3012 VRB03KT P6SM FEW090 FEW240 FM291700
                       16010KT P6SM SCT060 FM300200 16008KT P6SM
                       SKC RMK NXT FCST BY 291800Z=
202406291740 TAF CYOD 291740Z 2918/3018 16010KT P6SM SCT060
                      BECMG 3001/3003 12005KT FM301200 17008KT
                       P6SM SKC RMK NXT FCST BY 292100Z=
202406292040 TAF CYOD 292040Z 2921/3018 15008KT P6SM SCT060
                      BECMG 3001/3003 12005KT FM301200 17008KT
                       P6SM SKC RMK NXT FCST BY 300000Z=
202406292342 TAF CYOD 292342Z 3000/3024 15005KT P6SM FEW070 SCT250 FM301200
                       17008KT P6SM SKC
                      BECMG 3016/3018 SCT060 RMK NXT FCST BY 300300Z=
202406300240 TAF CYOD 300240Z 3003/3024 14005KT P6SM FEW070 SCT250 FM301200
                       17008KT P6SM SKC
                      BECMG 3016/3018 SCT060 RMK NXT FCST BY 300600Z=
202406300540 TAF CYOD 300540Z 3006/0106 13005KT P6SM FEW080 SCT250 FM301200
                       17008KT P6SM SKC
                      BECMG 3016/3018 FEW060 FM010500 13005KT P6SM
                       SCT060 OVC150 RMK NXT FCST BY 301200Z=
202406301140 TAF CYOD 301140Z 3012/0112 13005KT P6SM FEW100 FEW250
                      BECMG 3016/3018 17008KT FEW060 FM010500 13005KT
                       P6SM SCT060 OVC150 RMK NXT FCST BY 301500Z=
202406301440 TAF CYOD 301440Z 3015/0112 13005KT P6SM SCT080
                      BECMG 3016/3018 17008KT FM010500 13005KT
                       P6SM SCT060 OVC150 RMK NXT FCST BY 301800Z=
202406301740 TAF CYOD 301740Z 3018/0118 19008KT P6SM FEW080 BKN250 FM010500
                       13005KT P6SM BKN060 OVC150 FM011400 VRB03KT
                       P6SM SCT070 BKN150 RMK NXT FCST BY 302100Z=
202406302040 TAF CYOD 302040Z 3021/0118 16012KT P6SM FEW060 SCT250 FM010500
                       13005KT P6SM BKN060 OVC150 FM011400 VRB03KT
                       P6SM SCT070 BKN150 RMK NXT FCST BY 010000Z=
202406302340 TAF CYOD 302340Z 0100/0124 16012KT P6SM FEW060 SCT250 FM010500
                       13005KT P6SM BKN060 OVC150 FM011400 VRB03KT
                       P6SM SCT070 BKN150 FM011800 VRB03KT P6SM
                       SCT040 BKN060
                      TEMPO 0118/0124 P6SM -SHRA BKN040 OVC060
                       RMK NXT FCST BY 010300Z=

</pre>



</body></html>